Name of Institution,Street Address,City,ZIP Code,County,Georeference
ACMG Federal Credit Union,1753 MILTON AVENUE,SOLVAY,13209,Onondaga,POINT (-76.205397479 43.060961931)
ACMG Federal Credit Union,4659 ONONDAGA BOULEVARD,SYRACUSE,13219,Onondaga,POINT (-76.192299834 43.033161211)
ACMG Federal Credit Union,4800 SOUTH SALINA STREET,SYRACUSE,13205,Onondaga,POINT (-76.142790331 43.000635815)
Abacus Federal Savings Bank,36-30 MAIN STREET,FLUSHING,11354,Queens,POINT (-73.831756326 40.762284999)
Abacus Federal Savings Bank,4824 8TH AVENUE,BROOKLYN,11220,Kings,POINT (-74.003163732 40.64185042)
Abacus Federal Savings Bank,6-8 Bowery,New York,10013,New York,POINT (-73.997548779 40.714339046)
Access Federal Credit Union,2094 Glenwood Plaza,Oneida,13421,Madison,POINT (-75.632503655 43.053702789)
Access Federal Credit Union,74-76 Main Street,Camden,13316,Oneida,POINT (-75.748323414 43.335078789)
Access Federal Credit Union,230 South James Street,Rome,13440,Oneida,POINT (-75.460376793 43.208644485)
Access Federal Credit Union,6 Franklin,Clinton,13323,Oneida,POINT (-75.382458202 43.047480939)
Access Federal Credit Union,390 West Seneca Street,Sherrill,13461,Oneida,POINT (-75.606382003 43.077503281)
Adirondack Bank,808 Main Street,Sylvan Beach,13157,Oneida,POINT (-75.728669779 43.199089157)
Adirondack Bank,67 Main Street,Saranac Lake,12983,Franklin,POINT (-74.13185788 44.326364023)
Adirondack Bank,185 Genesee Street,Utica,13501,Oneida,POINT (-75.230696637 43.101432819)
Adirondack Bank,9576 Main Street,Holland Patent,13354,Oneida,POINT (-75.254252486 43.243091809)
Adirondack Bank,296 West Main Street,Ilion,13357,Herkimer,POINT (-75.046665666 43.02026909)
Adirondack Bank,500 East Main Street,Little Falls,13365,Herkimer,POINT (-74.859512353 43.0435137)
Adirondack Bank,1709 Black River Boulevard,Rome,13440,Oneida,POINT (-75.439703667 43.23148207)
Adirondack Bank,214 North Washington Street,Herkimer,13350,Herkimer,POINT (-74.985956128 43.027971766)
Adirondack Bank,29 West Main Street,Mohawk,13407,Herkimer,POINT (-75.005759632 43.010961447)
Adirondack Bank,Utica College,Utica,13501,Oneida,POINT (-75.2722675 43.0957378)
Adirondack Bank,13150 State Route 12,Boonville,13309,Oneida,POINT (-75.315752586 43.476258159)
Adirondack Bank,136 Oriskany Boulevard,Whitesboro,13492,Oneida,POINT (-75.293157071 43.120375584)
Adirondack Bank,448 Route 3,Plattsburgh,12901,Clinton,POINT (-73.491863363 44.696861033)
Adirondack Bank,38 Hadjis Way,Lake Placid,12946,Essex,POINT (-73.998671702 44.296740072)
Adirondack Bank,139 Church Street Extension,Saranac Lake,12983,Franklin,POINT (-74.130519291 44.328379242)
Adirondack Bank,108 Codling Street,Old Forge,13420,Herkimer,POINT (-74.970972387 43.711932382)
Adirondack Bank,2817 Genesee Street,Utica,13501,Oneida,POINT (-75.284479789 43.074601424)
Adirondack Bank,4697 Commercial Drive,New Hartford,13413,Oneida,POINT (-75.3116478 43.089745763)
"Adirondack Trust Company, The",79 Main Street,Queensbury,12804,Warren,POINT (-73.672140331 43.299419574)
"Adirondack Trust Company, The",350 Canada Street,Lake George,12845,Warren,POINT (-73.711658071 43.426929611)
"Adirondack Trust Company, The",51B Luther Forest Blvd.,Malta,12118,Saratoga,POINT (-73.785264172 42.947895673)
"Adirondack Trust Company, The",315 Church Street,Saratoga Springs,12866,Saratoga,POINT (-73.804720162 43.085479333)
"Adirondack Trust Company, The",322 RUHLE ROAD,BALLSTON LAKE,12019,Saratoga,POINT (-73.808589752 42.936172827)
"Adirondack Trust Company, The",376 Bay Road,Queensbury,12804,Saratoga,POINT (-73.652562971 43.335425213)
"Adirondack Trust Company, The",224 Church Avenue,Ballston Spa,12020,Saratoga,POINT (-73.852107587 42.990215399)
"Adirondack Trust Company, The",13 Triebel Avenue,Ballston Spa,12020,Saratoga,POINT (-73.851310083 43.04791163)
"Adirondack Trust Company, The",3017 Route  50,Wilton,12866,Saratoga,POINT (-73.747198262 43.099994316)
"Adirondack Trust Company, The",162 Northline Road,Ballston Spa,12020,Saratoga,POINT (-73.837981231 43.02299719)
"Adirondack Trust Company, The",Route  50  and  Route 9,Saratoga Springs,12866,Saratoga,POINT (-73.771113005 43.092131001)
"Adirondack Trust Company, The",112 Broadway,Saratoga Springs,12866,Saratoga,POINT (-73.788524481 43.068503758)
"Adirondack Trust Company, The",650 Maple Avenue - Route 9,Wilton,12866,Saratoga,POINT (-73.767573328 43.123225054)
"Adirondack Trust Company, The",2510 Route 9,Malta,12020,Saratoga,POINT (-73.79309748 42.972444842)
"Adirondack Trust Company, The",473 Broadway,Saratoga Springs,12866,Saratoga,POINT (-73.7852459 43.08316664)
Advantage Federal C.U.,225 WEST BROAD STREET,ROCHESTER,14614,Monroe,POINT (-77.617765599 43.153531083)
Advantage Federal C.U.,70 Metro Park,Rocheter,14623,Monroe,POINT (-77.616130373 43.09820675)
Advantage Federal C.U.,1425 Portland Avenue,Rochester,14621,Monroe,POINT (-77.585588394 43.191533793)
Advantage Federal C.U.,601 ELMWOOD AVENUE,ROCHESTER,14642,Monroe,POINT (-77.623587417 43.122832194)
Advantage Federal C.U.,1625 MOUNT HOPE AVENUE,ROCHESTER,14620,Monroe,POINT (-77.621020376 43.11828979)
Advantage Federal C.U.,38 LOMB MEMORIAL DRIVE,ROCHESTER,14623,Monroe,POINT (-77.680566757 43.082569094)
Advantage Federal C.U.,1975 BUFFALO ROAD,ROCHESTER,14624,Monroe,POINT (-77.70783929 43.147462962)
Advantage Federal C.U.,2515 BROWNCROFT BOULEVARD,ROCHESTER,14626,Monroe,POINT (-77.504565314 43.153323672)
Advantage Federal C.U.,1000 SOUTH AVENUE,ROCHESTER,14620,Monroe,POINT (-77.60616253 43.135610238)
Advantage Federal C.U.,100 KINGS HIGHWAY SOUTH,ROCHESTER,14617,Monroe,POINT (-77.574921501 43.202145408)
Advantage Federal C.U.,321 NEW CAMPUS DRIVE,BROCKPORT,14420,Monroe,POINT (-77.950923954 43.208510123)
Advantage Federal C.U.,6000 Reynolds Drive,Rochester,14623,Monroe,POINT (-77.679104147 43.08692918)
Advantage Federal C.U.,100 EXCHANGE BLVD,ROCHESTER,14614,Monroe,POINT (-77.610891013 43.153837357)
Advantage Federal C.U.,1 Lomb Memorial Drive,Rochester,14623,Monroe,POINT (-77.675364948 43.084766452)
Advantage Federal C.U.,100 RESIDENCE DRIVE,BROCKPORT,14420,Monroe,POINT (-77.94715302 43.211872565)
Alco Federal Credit Union,24 East Main St,Cuba,14727,Allegany,POINT (-78.274684101 42.217288968)
Alco Federal Credit Union,2859 Lindy Lane,Wellsville,14895,Allegany,POINT (-77.979146409 42.123506955)
Alco Federal Credit Union,32 Greenwich Street,Belmont,14813,Allegany,POINT (-78.028343151 42.225237317)
Alco Federal Credit Union,25 West Main Street,Friendship,14739,Allegany,POINT (-78.134975796 42.207662981)
Alden State Bank,5802 Broadway,Lancaster,14086,Erie,POINT (-78.645024997 42.895272115)
Alden State Bank,13216 Broadway,Alden,14004,Erie,POINT (-78.4956625 42.900621571)
Alden State Bank,6545 Transit Rd,Clarence,14051,New York,POINT (-78.696262733 43.027016815)
Alma Bank,805 PORT WASHINGTON BLVD,PORT WASHINGTON,11050,New York,POINT (-73.683083157 40.827570931)
Alma Bank,4401 13th Avenue,Brooklyn,11219,Kings,POINT (-73.989170647 40.637670784)
Alma Bank,1023 Avenue of the Americas,New York,10018,New York,POINT (-73.986032379 40.752532152)
Alma Bank,1705 CROSBY AVENUE,BRONX,10461,Bronx,POINT (-73.831393558 40.845440939)
Alma Bank,1218 Kings Highway,Brooklyn,11237,Kings,POINT (-73.960341343 40.607781168)
Alma Bank,41-02 Broadway,Astoria,11103,Queens,POINT (-73.918107363 40.758427144)
Alma Bank,196-03 NORTHERN BOULEVARD,FLUSHING,11358,Queens,POINT (-73.785436924 40.75811341)
Alma Bank,28-20 Ditmars Boulevard,Astoria,11105,Queens,POINT (-73.911922441 40.776827517)
Alma Bank,8424 5th Avenue,Brooklyn,11209,Kings,POINT (-74.025738209 40.622332739)
Alma Bank,2831 31st Street,Astoria,11102,Queens,POINT (-73.920781274 40.767368079)
Alternatives Federal Credit Union,125 North Fulton Street,Ithaca,14850,Tompkins,POINT (-76.510278562 42.439564384)
Alternatives Federal Credit Union,125 N Fulton St,Ithaca,14850,Tompkins,POINT (-76.510278562 42.439564384)
Amalgamated Bank,2067 Bartow Avenue,Bronx,10475,Bronx,POINT (-73.8282801 40.869997442)
Amalgamated Bank,10 East 14th Street,New York,10003,New York,POINT (-73.993055073 40.735609592)
Amalgamated Bank,1212 Fulton Street,Brooklyn,11216,Kings,POINT (-73.952103524 40.680412748)
Amerasia Bank,214-01 Northern Blvd.,Bayside,11361,Queens,POINT (-73.768844108 40.760484063)
AmeriCU Credit Union,1916 BLACK RIVER BOULEVARD,ROME,13440,Oneida,POINT (-75.435328817 43.236533675)
AmeriCU Credit Union,280 GENESEE STREET,ONEIDA,13421,Madison,POINT (-75.651590803 43.078934324)
AmeriCU Credit Union,4957 COMMERCIAL DRIVE,YORKVILLE,13495,Oneida,POINT (-75.29926446 43.103398626)
AmeriCU Credit Union,6303 THOMPSON ROAD,SYRACUSE,13206,Onondaga,POINT (-76.089592351 43.076100947)
AmeriCU Credit Union,295 GRANT AVENUE,AUBURN,13021,Cayuga,POINT (-76.545094138 42.954318725)
AmeriCU Credit Union,871 ARSENAL ST,WATERTOWN,13601,Jefferson,POINT (-75.929930842 43.976363658)
AmeriCU Credit Union,231 HILL ROAD,ROME,13440,Oneida,POINT (-75.419679971 43.220562839)
AmeriCU Credit Union,7474 OSWEGO RD,LIVERPOOL,13090,Onondaga,POINT (-76.220391363 43.133025217)
AmeriCU Credit Union,200 WALTON STREET,SYRACUSE,13202,Onondaga,POINT (-76.155745683 43.048100068)
AmeriCU Credit Union,326 EAST STATE STREET,HERKIMER,13350,Herkimer,POINT (-74.979956362 43.027351295)
AmeriCU Credit Union,6414 STATE ROUTE 31,CICERO,13039,Onondaga,POINT (-76.078047872 43.176719953)
AmeriCU Credit Union,7394 UTICA BOULEVARD,LOWVILLE,13367,Lewis,POINT (-75.483813014 43.778346434)
AmeriCU Credit Union,5439 NORTH BURDICK STREET,FAYETTEVILLE,13066,Onondaga,POINT (-76.018321028 43.038977372)
AmeriCU Credit Union,5212 WEST GENESEE STREET,CAMILLUS,13031,Onondaga,POINT (-76.267747356 43.041653337)
AmeriCU Credit Union,224 NORTH GENESEE STREET,UTICA,13502,Oneida,POINT (-75.214746881 43.112512563)
AmeriCU Credit Union,82 Albany Street,Cazenovia,13035,Madison,POINT (-75.852773076 42.929712433)
AmeriCU Credit Union,3944 NY Rt 281,Cortland,13045,Cortland,POINT (-76.204369774 42.597375755)
AmeriCU Credit Union,590 Bridge Street,Geddes,13209,Onondaga,POINT (-76.212441715 43.072188275)
AmeriCU Credit Union,4865 West Seneca Turnpike,Syracuse,13215,Onondaga,POINT (-76.180116318 43.005958206)
AmeriCU Credit Union,412 Genesee Street,Oneida,13421,Madison,POINT (-75.663883703 43.078268968)
AmeriCU Credit Union,10750 Enduring Freedom Drive,Fort Drum,13602,Jefferson,POINT (-75.80899964 44.046529056)
American Broadcast Employees Federal Credit Union,77 West 66th Street,New York,10023,New York,POINT (-73.980711714 40.773354601)
American Broadcast Employees Federal Credit Union,30 West 66th Street,New York,10023,New York,POINT (-73.979623676 40.772733339)
Apple Bank For Savings,85 Pondfield Road,Bronxville,10708,Westchester,POINT (-73.83282175 40.940080211)
Apple Bank For Savings,604 WEST 181ST STREET,NEW  YORK,10033,New York,POINT (-73.934134317 40.849355874)
Apple Bank For Savings,3986 Hempstead Turnpike,Bethpage,11714,Nassau,POINT (-73.489172521 40.724931676)
Apple Bank For Savings,200 Birch Hill Road,Locust Valley,11560,Nassau,POINT (-73.595839447 40.879509519)
Apple Bank For Savings,333 Glen Cove Avenue,Sea Cliff,11579,Nassau,POINT (-73.635147472 40.84137999)
Apple Bank For Savings,74 Hugh J Grant Circle,Bronx,10472,Bronx,POINT (-73.860335766 40.832713312)
Apple Bank For Savings,1954 Flatbush Avenue,Brooklyn,11234,Kings,POINT (-73.936632208 40.622151103)
Apple Bank For Savings,1693 Hempstead Turnpike,Elmont,11003,Nassau,POINT (-73.703457217 40.707107056)
Apple Bank For Savings,91-31 Queens Boulevard,Elmhurst,11373,Queens,POINT (-73.869415044 40.73353767)
Apple Bank For Savings,33 Mamaroneck Avenue,White Plains,10601,Westchester,POINT (-73.766067052 41.031374416)
Apple Bank For Savings,465 Grand Street,New York,10002,New York,POINT (-73.983720063 40.714829848)
Apple Bank For Savings,10 Downing Street,New York,10014,New York,POINT (-74.002970361 40.729494784)
Apple Bank For Savings,280 East Park Avenue,Long Beach,11561,Nassau,POINT (-73.655684643 40.588242323)
Apple Bank For Savings,"167 Walt Whitman Road, Route 110",Huntington Station,11746,Suffolk,POINT (-73.412630096 40.823821323)
Apple Bank For Savings,1395 Northern Boulevard,Manhasset,11030,Nassau,POINT (-73.695238174 40.793357217)
Apple Bank For Savings,418 Myrtle Avenue,Brooklyn,11205,Kings,POINT (-73.969130774 40.693002451)
Apple Bank For Savings,1000 Merchants Councourse,Westbury,11590,Nassau,POINT (-73.59243279 40.746590682)
Apple Bank For Savings,1753 East Main Street,Mohegan Lake,10547,Westchester,POINT (-73.852210847 41.323680511)
Apple Bank For Savings,170-29 HILLSIDE AVENUE,JAMAICA,11432,Queens,POINT (-73.790873342 40.711770957)
Apple Bank For Savings,120 East Fordham Road,Bronx,10458,Bronx,POINT (-73.898253485 40.86218467)
Apple Bank For Savings,78-01 37TH AVENUE,JACKSON HEIGHTS,11372,Queens,POINT (-73.887909546 40.749489898)
Apple Bank For Savings,345 SEVENTH AVENUE,NEW YORK,10012,New York,POINT (-73.992514607 40.748104956)
Apple Bank For Savings,370 EAST 149TH STREET,BRONX,10455,Bronx,POINT (-73.918733072 40.816204441)
Apple Bank For Savings,2021 Bartow Avenue,Bronx,10475,Bronx,POINT (-73.830832138 40.869220607)
Apple Bank For Savings,1212 AVENUE M,BROOKLYN,11230,Kings,POINT (-73.962262894 40.617635059)
Apple Bank For Savings,250 West 23rd Street,New York,10011,New York,POINT (-73.997639052 40.744774533)
Apple Bank For Savings,812-814 LEXINGTON AVENUE,NEW YORK,10022,New York,POINT (-73.966678397 40.764545682)
Apple Bank For Savings,79 Route 59,Monsey,10952,Rockland,POINT (-74.066734457 41.107503304)
Apple Bank For Savings,30-98c Steinway St,Astoria,11103,Queens,POINT (-73.920992959 40.756631927)
Apple Bank For Savings,101 E170TH ST,NEW YORK,10452,New York,POINT (-73.915596983 40.839589239)
Apple Bank For Savings,326 Court St,Brooklyn,11229,Kings,POINT (-73.995741892 40.683020358)
Apple Bank For Savings,1289 Boston Post Rd,Larchmont,10538,Westchester,POINT (-73.746169635 40.937053506)
Apple Bank For Savings,32 North Main St,New City,10956,Rockland,POINT (-73.988766137 41.148220511)
Apple Bank For Savings,1421 Sheepshead Bay Rd,Brooklyn,11235,Kings,POINT (-73.954525056 40.587572065)
Apple Bank For Savings,122 EAST 42ND STREET,NEW YORK,10168,New York,POINT (-73.976464855 40.751449378)
Apple Bank For Savings,169 EAST 125TH STREET,NEW YORK,10035,New York,POINT (-73.936208251 40.804046952)
Apple Bank For Savings,3815 BROADWAY,NEW YORK,10032,New York,POINT (-73.944364429 40.835224111)
Apple Bank For Savings,592 W207TH ST,NEW YORK,10034,New York,POINT (-73.921045723 40.867136699)
Apple Bank For Savings,1555 FIRST AVENUE,NEW YORK,10028,New York,POINT (-73.951982909 40.773618087)
Apple Bank For Savings,43-73 Kissena Boulevard,Flushing,11355,Queens,POINT (-73.822760952 40.754042026)
Apple Bank For Savings,2100 Broadway,New York,10023,New York,POINT (-73.981425685 40.779608633)
Apple Bank For Savings,1320 Avenue of the Americas,New York,10019,New York,POINT (-73.978708607 40.761884512)
Apple Bank For Savings,12 Westchester Square,Bronx,10461,Bronx,POINT (-73.843523848 40.840174714)
Apple Bank For Savings,2186 WHITE PLAINS RD,BRONX,10462,Bronx,POINT (-73.867456864 40.856043669)
Apple Bank For Savings,44 EAST 161ST STREET,BRONX,10451,Bronx,POINT (-73.925938659 40.827519717)
Apple Bank For Savings,1321 Kings Highway,Brooklyn,11229,Kings,POINT (-73.959433247 40.608418067)
Apple Bank For Savings,326 COURT STREET,BROOKLYN,11231,Kings,POINT (-73.995741892 40.683020358)
Apple Bank For Savings,1075 CENTRAL PARK AVENUE,SCARSDALE,10583,Westchester,POINT (-73.824934882 40.988052274)
Apple Bank For Savings,666 Columbus Ave (Rose Hill Shopping Center),Thornwood,10594,Westchester,POINT (-73.769936 41.114535)
Apple Bank For Savings,943 Carmens Road,Massapequa,11758,Nassau,POINT (-73.431710887 40.702652997)
Apple Bank For Savings,776 Manhattan Avenue,Brooklyn,11222,Kings,POINT (-73.952663519 40.727309329)
Apple Bank For Savings,6701 18th Avenue,Brooklyn,11204,Kings,POINT (-73.991350026 40.617770511)
Apple Bank For Savings,3075 Veterans Highway,Ronkonkoma,11779,Suffolk,POINT (-73.137446246 40.788259615)
Apple Bank For Savings,1401 Avenue J,Brooklyn,11230,Kings,POINT (-73.962207071 40.625231453)
Apple Bank For Savings,111 FOURTH AVE,NEW YORK,10003,New York,POINT (-73.989915715 40.732417051)
Apple Bank For Savings,3552-B Johnson Avenue,Bronx,10463,Bronx,POINT (-73.909527899 40.886523328)
Apple Bank For Savings,1168 FIRST AVENUE,NEW YORK,10021,New York,POINT (-73.959428218 40.762802121)
Apple Bank For Savings,4519 13th Avenue,Brooklyn,11219,Kings,POINT (-73.990094584 40.636779201)
Apple Bank For Savings,1973 86th Street,Brooklyn,11214,Kings,POINT (-73.998516385 40.604962586)
Apple Bank For Savings,7415 Fifth Avenue,Brooklyn,11209,Kings,POINT (-74.022322499 40.629853402)
Apple Bank For Savings,405 Brighton Beach Avenue,Brooklyn,11235,Kings,POINT (-73.963143497 40.577427866)
Apple Bank For Savings,486 NEPTUNE AVENUE,BROOKLYN,11224,Kings,POINT (-73.972395441 40.579607161)
Apple Bank For Savings,1575 50th Street,Brooklyn,11219,Kings,POINT (-73.986285345 40.6307462)
Apple Bank For Savings,365 South Oyster Bay Road,Plainview,11803,Nassau,POINT (-73.502910376 40.785625331)
Apple Bank For Savings,50 Montauk Highway,East Hampton,11937,Suffolk,POINT (-72.208145136 40.954745524)
Apple Bank For Savings,138 Main Street,Sag Harbor,11963,Suffolk,POINT (-72.295816239 40.99975647)
Apple Bank For Savings,10 Route 25A,East Setauket,11733,Suffolk,POINT (-73.106180566 40.94101626)
Apple Bank For Savings,775 Pulaski Road,Greenlawn,11740,Suffolk,POINT (-73.348025671 40.868828075)
Apple Bank For Savings,91 Route 111,Smithtown,11787,Suffolk,POINT (-73.185762629 40.853125132)
Apple Bank For Savings,151 East Sunrise Highway,North Lindenhurst,11757,Suffolk,POINT (-73.374360732 40.703445631)
Apple Bank For Savings,41 Commack Road,Commack,11725,Suffolk,POINT (-73.293538146 40.841871086)
Apple Bank For Savings,8 LITTLE NECK RD,BABYLON,11702,Suffolk,POINT (-73.334270675 40.693280227)
Apple Bank For Savings,318 Albany Avenue,Brooklyn,11213,Kings,POINT (-73.939613651 40.668807878)
Apple Bank For Savings,414 Flushing Avenue,Brooklyn,11205,Kings,POINT (-73.958188116 40.69868207)
Apple Bank For Savings,2655 Richmond Avenue,Staten Island,10314,Richmond,POINT (-74.166456784 40.581819271)
Apple Bank For Savings,101 East 170th Street,Bronx,10452,Bronx,POINT (-73.915596983 40.839589239)
Apple Bank For Savings,102-35 Queens Boulevard,Forest Hills,11375,Queens,POINT (-73.850489712 40.725602145)
Apple Bank For Savings,115 Cedarhurst Avenue,Cedarhurst,11516,Nassau,POINT (-73.724170911 40.622095783)
Apple Bank For Savings,44 Lee Avenue,Brooklyn,11211,Kings,POINT (-73.960656251 40.706201056)
Apple Bank For Savings,10 Hanover Square,New York,10005,New York,POINT (-74.009023269 40.704474552)
Apple Bank For Savings,116-12 Queens Boulevard,Kew Gardens,11375,Queens,POINT (-73.833470928 40.715661543)
BCB Community Bank,1500 forest avenue,staten island,10302,Richmond,POINT (-74.138577568 40.624163011)
BCB Community Bank,240 Page Avenue,Staten Island,10307,Richmond,POINT (-74.235770346 40.517598554)
BCB Community Bank,354 NEW DORP LANE,STATEN ISLAND,10306,Richmond,POINT (-74.11082823 40.570978566)
BCB Community Bank,70 Broadway,Hicksville,11801,Nassau,POINT (-73.524337706 40.767323152)
Ballston Spa National Bank,625 Maple Avenue,Saratoga Springs,12866,Saratoga,POINT (-73.769618763 43.120072872)
Ballston Spa National Bank,344 Rowland Street,Ballston Spa,12020,Saratoga,POINT (-73.849737688 43.043764235)
Ballston Spa National Bank,428 Hudson Avenue,Mechanicville,12118,Saratoga,POINT (-73.667085792 42.929587962)
Ballston Spa National Bank,3060 Route 9N,Greenfield Center,12833,Saratoga,POINT (-73.846924889 43.125866737)
Ballston Spa National Bank,5091 Sacandaga Road,Galway,12074,Saratoga,POINT (-74.031212681 43.012625926)
Ballston Spa National Bank,770 Saratoga Road,Burnt Hills,12027,Saratoga,POINT (-73.902949313 42.904575389)
Ballston Spa National Bank,87 Front Street,Ballston Spa,12020,Saratoga,POINT (-73.851890161 43.002223607)
Ballston Spa National Bank,1714 ROUTE 9,CLIFTON PARK,12065,Saratoga,POINT (-73.770533145 42.864892787)
Ballston Spa National Bank,124 Dunning Street,Ballston Spa,12020,Saratoga,POINT (-73.791203924 42.971762974)
Ballston Spa National Bank,990 Route 67,Ballston Spa,12020,Saratoga,POINT (-73.851443154 42.987525269)
Ballston Spa National Bank,1202 TROY SCHENECTADY ROAD,LATHAM,12110,Albany,POINT (-73.822286213 42.771266431)
Ballston Spa National Bank,1973 Western Ave,Albany,12203,Albany,POINT (-73.879456648 42.695414686)
Ballston Spa National Bank,13 MAPLE ROAD,VOORHEESVILLE,12186,Albany,POINT (-73.922852359 42.649169212)
Banco Popular North America,52-16th Fifth Avenue,Brooklyn,11220,Kings,POINT (-73.977208498 40.681443722)
Banco Popular North America,3851 Nostrand Avenue,Brooklyn,11235,Kings,POINT (-73.939503261 40.590003068)
Banco Popular North America,1170 Castle Hill Avenue,Bronx,10462,Bronx,POINT (-73.85075567 40.83160271)
Banco Popular North America,11 West 51st Street,New York,10019,New York,POINT (-73.97771334 40.759688453)
Banco Popular North America,375 Park Avenue South,New York,10010,New York,POINT (-73.984606067 40.742384601)
Banco Popular North America,310 Houston Street,New York,10002,New York,POINT (-73.983148585 40.721475943)
Banco Popular North America,875 Third Avenue,New York,10022,New York,POINT (-73.969572249 40.757115921)
Banco Popular North America,28-36 Steinway Street,Long Island City,11103,Queens,POINT (-73.914592831 40.764640272)
Banco Popular North America,441 Second Avenue,New York,10010,New York,POINT (-73.980010652 40.739433752)
Banco Popular North America,35-30 Junction Boulevard,Corona,11368,Queens,POINT (-73.871477998 40.752408142)
Banco Popular North America,1200 St. Nicholas Avenue,New York,10032,New York,POINT (-73.938603547 40.842348352)
Banco Popular North America,1230 Fulton Street,Brooklyn,11216,Kings,POINT (-73.951298526 40.680373144)
Banco Popular North America,956 Flatbush Avenue,Brooklyn,11226,Kings,POINT (-73.958339074 40.648092884)
Banco Popular North America,2812 Broadway,New York,10025,New York,POINT (-73.967042507 40.803270452)
Banco Popular North America,180 Dyckman Street,New York,10040,New York,POINT (-73.926708872 40.864316607)
Banco Popular North America,285 Madison Avenue,New York,10014,New York,POINT (-73.979977711 40.751644215)
Banco Popular North America,301 Fordham Road,Bronx,10458,Bronx,POINT (-73.894714058 40.862299377)
Banco Popular North America,2923 Third Avenue,Bronx,10455,Bronx,POINT (-73.915857912 40.817509001)
Banco Popular North America,918 Seneca Avenue,Ridgewood,11385,Queens,POINT (-73.903639444 40.700283684)
Banco Popular North America,2095 Ralph Avenue,Brooklyn,11234,Kings,POINT (-73.917396494 40.624661148)
Banco Popular North America,231 West 125th Street,New York,10027,New York,POINT (-73.949416035 40.809611027)
Banco Popular North America,1619 Sheepshead Bay Road,Brooklyn,11235,Kings,POINT (-73.952566541 40.587041322)
Banco Popular North America,134 Delancy Street,New York,10002,New York,POINT (-73.987077183 40.718450705)
Banco Popular North America,3540 Broadway,New York,10031,New York,POINT (-73.950296302 40.826196717)
Banco Popular North America,752 East Tremont Avenue,Bronx,10457,Bronx,POINT (-73.889313514 40.844385908)
Banco Popular North America,90 West 96th Street,New York,10025,New York,POINT (-73.966970087 40.792444679)
Banco Popular North America,166 Livingston Street,Brooklyn,11201,Kings,POINT (-73.987380105 40.690144305)
Banco Popular North America,83-22 Baxter Avenue,Elmhurst,11373,Queens,POINT (-73.882486706 40.747528575)
Banco Popular North America,615 West 181 Street,New York,10033,New York,POINT (-73.934371369 40.849654665)
Banco Popular North America,1620 Pitkin Avenue,Brooklyn,11212,Kings,POINT (-73.913762688 40.669123456)
Banco Popular North America,15 Graham Avenue,Brooklyn,11205,Kings,POINT (-73.942451428 40.701726545)
Banco Popular North America,164 East 116th Street,New York,10029,New York,POINT (-73.94107118 40.798233054)
Banco Popular North America,1046 Southern Boulevard,Bronx,10459,Bronx,POINT (-73.891683414 40.824162094)
Banco Popular North America,66 Court Street,Brooklyn,11201,Kings,POINT (-73.991498386 40.691844407)
Bank On Buffalo,9470 Clarence Center Road,Clarence Center,14032,Erie,POINT (-78.636851804 43.010595829)
Bank On Buffalo,77 Buell Street,Akron,14001,Erie,POINT (-78.502963473 43.01340188)
Bank On Buffalo,9865 Main Street,Clarence,14031,Erie,POINT (-78.621545694 42.974546269)
Bank On Buffalo,3619 Walden Avenue,Lancaster,14086,Erie,POINT (-78.671992095 42.915450373)
Bank On Buffalo,46 Main Street,Akron,14001,Erie,POINT (-78.500844863 43.020321183)
Bank On Buffalo,5190 Sheridan Drive,Williamsville,14221,Erie,POINT (-78.740808861 42.978984571)
Bank On Buffalo,683 Northland Ave,Buffalo,14211,Erie,POINT (-78.834282169 42.918110454)
Bank On Buffalo,3049 Orchard Park Rd,Orchard Park,14127,Erie,POINT (-78.752324674 42.801688501)
Bank On Buffalo,827 Hopkins Rd,Amherst,14221,Erie,POINT (-78.739375166 43.001280026)
Bank On Buffalo,638 LAKE STREET,WILSON,14172,Erie,POINT (-78.825743105 43.298154074)
Bank On Buffalo,535 Washington St,Buffalo,14203,Erie,POINT (-78.872240705 42.888693192)
Bank On Buffalo,7121 Niagara Falls Blvd,Niagara Falls,14304,Niagara,POINT (-78.982717124 43.087754265)
Bank of America N.A. GA1-006-15-40,1428 Altamont Avenue,Schenectady,12303,Schenectady,POINT (-73.944468533 42.784325892)
Bank of America N.A. GA1-006-15-40,3881 Richmond Avenue,Staten Island,10312,Richmond,POINT (-74.164138517 40.543789487)
Bank of America N.A. GA1-006-15-40,642 Gateway Drive,Brooklyn,11239,Kings,POINT (-73.868307208 40.655928916)
Bank of America N.A. GA1-006-15-40,915 West Beech Street,Long Beach,11561,Nassau,POINT (-73.692324205 40.586247933)
Bank of America N.A. GA1-006-15-40,2260 Broadway,New York,10024,New York,POINT (-73.978681534 40.785152172)
Bank of America N.A. GA1-006-15-40,2077 Broadway,New York,10023,New York,POINT (-73.982250883 40.778689725)
Bank of America N.A. GA1-006-15-40,1275 Lexington Avenue,New York,10028,New York,POINT (-73.95571076 40.779106263)
Bank of America N.A. GA1-006-15-40,2895 Richmond Avenue,Staten Island,10314,Richmond,POINT (-74.169500337 40.574274175)
Bank of America N.A. GA1-006-15-40,6601 18th Avenue,Brooklyn,11204,Kings,POINT (-73.990748708 40.618369566)
Bank of America N.A. GA1-006-15-40,95 Wall Street,New York,10005,New York,POINT (-74.00748871 40.70493849)
Bank of America N.A. GA1-006-15-40,835 Eighth Avenue,New York,10019,New York,POINT (-73.985904722 40.762891095)
Bank of America N.A. GA1-006-15-40,560 Second Avenue,New York,10016,New York,POINT (-73.976868025 40.74289728)
Bank of America N.A. GA1-006-15-40,550 Fifth Avenue,New York,10036,New York,POINT (-73.979469516 40.755741289)
Bank of America N.A. GA1-006-15-40,210 Dyckman Street,New York,10040,New York,POINT (-73.927266185 40.865190211)
Bank of America N.A. GA1-006-15-40,4201 Main Street,Flushing,11355,Queens,POINT (-73.828041299 40.755321565)
Bank of America N.A. GA1-006-15-40,89-01 Queens Boulevard,Elmhurst,11373,Queens,POINT (-73.874071359 40.734903333)
Bank of America N.A. GA1-006-15-40,890 Old Country Road,Westbury,11530,Nassau,POINT (-73.605735876 40.744233565)
Bank of America N.A. GA1-006-15-40,96 7th Street,Garden City,11530,Nassau,POINT (-73.637374711 40.724310452)
Bank of America N.A. GA1-006-15-40,405 Windsor Highway,Vails Gate,12584,Orange,POINT (-74.055924376 41.455920218)
Bank of America N.A. GA1-006-15-40,88 Bowery Street,New York,10013,New York,POINT (-73.995693947 40.717213033)
Bank of America N.A. GA1-006-15-40,851 Kimball Avenue,Yonkers,10704,Westchester,POINT (-73.84951178 40.927797462)
Bank of America N.A. GA1-006-15-40,358 Fifth Avenue,New York,10001,New York,POINT (-73.984808705 40.748722912)
Bank of America N.A. GA1-006-15-40,193 West 237th Street,Bronx,10463,Bronx,POINT (-73.899429214 40.884196428)
Bank of America N.A. GA1-006-15-40,2756 Long Beach Road,Oceanside,11572,Nassau,POINT (-73.639375388 40.64486757)
Bank of America N.A. GA1-006-15-40,33 New Scotland Avenue,Albany,12208,Albany,POINT (-73.773692452 42.653752939)
Bank of America N.A. GA1-006-15-40,4061 Broadway,New York,10032,New York,POINT (-73.939330342 40.843533846)
Bank of America N.A. GA1-006-15-40,315 Lafayette Street,New York,10012,New York,POINT (-73.995099858 40.725240436)
Bank of America N.A. GA1-006-15-40,767 Cayuga Street,Lewiston,14092,Niagara,POINT (-79.037170494 43.170331015)
Bank of America N.A. GA1-006-15-40,1017 Montauk Highway,Shirley,11967,Suffolk,POINT (-72.859557063 40.803135378)
Bank of America N.A. GA1-006-15-40,1989 South Park Avenue,Buffalo,14220,Erie,POINT (-78.823879053 42.844582262)
Bank of America N.A. GA1-006-15-40,425 Lexington Avenue,New York,10174,New York,POINT (-73.975185106 40.75238769)
Bank of America N.A. GA1-006-15-40,1775 Broadway,New York,10019,New York,POINT (-73.981932371 40.76698096)
Bank of America N.A. GA1-006-15-40,200 Park Avenue,New York,10166,New York,POINT (-73.97640174 40.753973588)
Bank of America N.A. GA1-006-15-40,390 Sixth Avenue,New York,10011,New York,POINT (-73.999731893 40.733245238)
Bank of America N.A. GA1-006-15-40,1293 Broadway,New York,10001,New York,POINT (-73.988165741 40.749671995)
Bank of America N.A. GA1-006-15-40,19-50 37th Street,Astoria,11105,Queens,POINT (-73.902772839 40.77851777)
Bank of America N.A. GA1-006-15-40,521 Stewart Avenue,Bethpage,11714,Nassau,POINT (-73.482084616 40.743295462)
Bank of America N.A. GA1-006-15-40,329A East 149th Street,Bronx,10451,Bronx,POINT (-73.920298141 40.816920507)
Bank of America N.A. GA1-006-15-40,65 Metropolitan Oval,Bronx,10462,Bronx,POINT (-73.861428599 40.837805737)
Bank of America N.A. GA1-006-15-40,7923 3rd Avenue,Brooklyn,11209,Kings,POINT (-74.029072949 40.627921499)
Bank of America N.A. GA1-006-15-40,14 Newtown Lane,East Hampton,11937,Suffolk,POINT (-72.185473513 40.964214476)
Bank of America N.A. GA1-006-15-40,Lawrence Avenue & Bayview Avenue,Lawrence,11559,Nassau,POINT (-73.737545998 40.615059007)
Bank of America N.A. GA1-006-15-40,157 East 125th Street,New York,10035,New York,POINT (-73.936706052 40.804256793)
Bank of America N.A. GA1-006-15-40,495 Elmwood Avenue,Buffalo,14222,Erie,POINT (-78.87686274 42.910600436)
Bank of America N.A. GA1-006-15-40,700 Allerton Avenue,Bronx,10467,Bronx,POINT (-73.867158887 40.865293309)
Bank of America N.A. GA1-006-15-40,501 Brighton Beach Avenue,Brookyn,11235,Kings,POINT (-73.962270522 40.577613567)
Bank of America N.A. GA1-006-15-40,901 Broad Hollow Road,Farmingdale,11735,Nassau,POINT (-73.423391261 40.726029203)
Bank of America N.A. GA1-006-15-40,248 East Fordham Road,Bronx,10458,Bronx,POINT (-73.895702033 40.862076837)
Bank of America N.A. GA1-006-15-40,1500 Westchester Avenue,Bronx,10472,Bronx,POINT (-73.879908013 40.828378946)
Bank of America N.A. GA1-006-15-40,1620 Westchester Avenue,Bronx,10472,Bronx,POINT (-73.874210834 40.829458661)
Bank of America N.A. GA1-006-15-40,670 Avenue of the Americas,New York,10010,New York,POINT (-73.993657564 40.741436649)
Bank of America N.A. GA1-006-15-40,240 Park Avenue South,New York,10003,New York,POINT (-73.988266072 40.737904935)
Bank of America N.A. GA1-006-15-40,4239 Bell Boulevard,Bayside,11361,Queens,POINT (-73.769880027 40.761672785)
Bank of America N.A. GA1-006-15-40,127 Eighth Avenue,New York,10011,New York,POINT (-74.001644344 40.741277812)
Bank of America N.A. GA1-006-15-40,1330 First Avenue,New York,10021,New York,POINT (-73.956048886 40.767412084)
Bank of America N.A. GA1-006-15-40,2380 Broadway,New York,10024,New York,POINT (-73.975580062 40.789013757)
Bank of America N.A. GA1-006-15-40,50 West Fordham Road,Bronx,10468,Bronx,POINT (-73.903580184 40.862607956)
Bank of America N.A. GA1-006-15-40,37-41 82nd Street,Jackson Heights,11372,Queens,POINT (-73.883947168 40.748499451)
Bank of America N.A. GA1-006-15-40,378 Jericho Turnpike,Syosset,11791,Nassau,POINT (-73.502342167 40.809846474)
Bank of America N.A. GA1-006-15-40,808 Columbus Avenue,New York,10025,New York,POINT (-73.966554428 40.794654149)
Bank of America N.A. GA1-006-15-40,92 Delancey Street,New York,10002,New York,POINT (-73.989188668 40.719098584)
Bank of America N.A. GA1-006-15-40,1107 Third Avenue,New York,10065,New York,POINT (-73.963771553 40.765105719)
Bank of America N.A. GA1-006-15-40,244 Eighth Avenue,New York,10011,New York,POINT (-73.998597606 40.744854245)
Bank of America N.A. GA1-006-15-40,1886 Broadway,New York,10023,New York,POINT (-73.981866992 40.771089183)
Bank of America N.A. GA1-006-15-40,2136 Bartow Avenue,Bronx,10475,Bronx,POINT (-73.826668008 40.868313224)
Bank of America N.A. GA1-006-15-40,24-10  Jackson Avenue,Long Island City,11101,Queens,POINT (-73.944571043 40.746092629)
Bank of America N.A. GA1-006-15-40,115 West 42nd Street,New York,10036,New York,POINT (-73.984699656 40.75526109)
Bank of America N.A. GA1-006-15-40,500 Mamaroneck Avenue,White Plains,10605,Westchester,POINT (-73.759064606 41.022172571)
Bank of America N.A. GA1-006-15-40,438 86th Street,Brooklyn,11209,Kings,POINT (-74.02746882 40.622059866)
Bank of America N.A. GA1-006-15-40,206 Main Street,White Plains,10601,Westchester,POINT (-73.765536609 41.032783934)
Bank of America N.A. GA1-006-15-40,2820 Hylan Boulevard,Staten Island,10306,Richmond,POINT (-74.115813409 40.563970888)
Bank of America N.A. GA1-006-15-40,120 Flatbush Avenue,Brooklyn,11217,Kings,POINT (-73.978358076 40.684985495)
Bank of America N.A. GA1-006-15-40,277 Canal Street,New York,10013,New York,POINT (-74.00150269 40.719334283)
Bank of America N.A. GA1-006-15-40,353 Lexington Avenue,New York,10016,New York,POINT (-73.976990568 40.749921985)
Bank of America N.A. GA1-006-15-40,2535 Richmond Avenue,Staten Island,10314,Richmond,POINT (-74.166802705 40.58603474)
Bank of America N.A. GA1-006-15-40,45-26 Greenpoint Avenue,Sunnyside,11104,Queens,POINT (-73.919138254 40.742004901)
Bank of America N.A. GA1-006-15-40,274 7th Avenue,Brooklyn,11215,Kings,POINT (-73.980532174 40.668781726)
Bank of America N.A. GA1-006-15-40,386 Knickerbocker Avenue,Brooklyn,11237,Kings,POINT (-73.920828883 40.700084279)
Bank of America N.A. GA1-006-15-40,5345 West Genessee Street,Camillius,13031,Onondaga,POINT (-76.273854746 43.039177364)
Bank of America N.A. GA1-006-15-40,90-53 Sutphin Boulevard,Jamaica,11435,Queens,POINT (-73.807760614 40.701566493)
Bank of America N.A. GA1-006-15-40,8225 Jericho Turnpike,Woodbury,11797,Nassau,POINT (-73.467801601 40.816542567)
Bank of America N.A. GA1-006-15-40,100 Christie Place,Scarsdale,10583,Westchester,POINT (-73.807341519 40.990606323)
Bank of America N.A. GA1-006-15-40,4701 13th Avenue,Brooklyn,11219,Kings,POINT (-73.990913245 40.635995115)
Bank of America N.A. GA1-006-15-40,260 Greenwich Street,New York,10007,New York,POINT (-74.01149065 40.715211518)
Bank of America N.A. GA1-006-15-40,2196 Forest Avenue,Staten Island,10303,Richmond,POINT (-74.162745445 40.626309156)
Bank of America N.A. GA1-006-15-40,1160 West Boston Post Road,Mamaroneck,10543,Westchester,POINT (-73.744448327 40.939612291)
Bank of America N.A. GA1-006-15-40,301 West 145th Street,New York,10039,New York,POINT (-73.942384372 40.823215568)
Bank of America N.A. GA1-006-15-40,572 Gramatan Avenue,Mount Vernon,10552,Westchester,POINT (-73.836073426 40.926269433)
Bank of America N.A. GA1-006-15-40,515 Ocean Avenue,Brooklyn,11226,Kings,POINT (-73.960845933 40.650278591)
Bank of America N.A. GA1-006-15-40,141-61 Northern Boulevard,Flushing,11354,Queens,POINT (-73.821842355 40.764805097)
Bank of America N.A. GA1-006-15-40,151-16 84th Street,Howard Beach,11414,Queens,POINT (-73.850757346 40.667321557)
Bank of America N.A. GA1-006-15-40,880 Quincy Street,Brooklyn,11221,Kings,POINT (-73.923903952 40.689930064)
Bank of America N.A. GA1-006-15-40,59-01 Myrtle Avenue,Ridgewood,11385,Kings,POINT (-73.900070849 40.700620762)
Bank of America N.A. GA1-006-15-40,205-02 Linden Boulevard,St. Albans,11412,Queens,POINT (-73.747240004 40.695704818)
Bank of America N.A. GA1-006-15-40,241-42 South Conduit Boulevard,Rosedale,11422,Queens,POINT (-73.735989981 40.665054964)
Bank of America N.A. GA1-006-15-40,91-16 168th Street,Jamaica,11432,Queens,POINT (-73.792868738 40.706764446)
Bank of America N.A. GA1-006-15-40,6901 5th Avenue,Brooklyn,11209,Kings,POINT (-74.020931606 40.633251174)
Bank of America N.A. GA1-006-15-40,31-81 Steinway Avenue,Astoria,11103,Queens,POINT (-73.918578426 40.759268771)
Bank of America N.A. GA1-006-15-40,205 Montague Street,Brooklyn,11201,Kings,POINT (-73.991021791 40.694024624)
Bank of America N.A. GA1-006-15-40,14-15 College Point Boulevard,College Point,11356,Queens,POINT (-73.845663077 40.784974057)
Bank of America N.A. GA1-006-15-40,781 Eastern Parkway,Brooklyn,11213,Kings,POINT (-73.942502054 40.669811108)
Bank of America N.A. GA1-006-15-40,401 Main Street,Armonk,10504,Westchester,POINT (-73.714296945 41.125932108)
Bank of America N.A. GA1-006-15-40,91 South Greeley Avenue,Chappaqua,10514,Westchester,POINT (-73.772786201 41.157631125)
Bank of America N.A. GA1-006-15-40,20 South Broadway,Yonkers,10701,Westchester,POINT (-73.898275194 40.93303124)
Bank of America N.A. GA1-006-15-40,130 North Country Shopping Center,Goldens Bridge,10526,Westchester,POINT (-73.659776 41.295408)
Bank of America N.A. GA1-006-15-40,176 Roberts Avenue,Yonkers,10703,Westchester,POINT (-73.88581942 40.960786444)
Bank of America N.A. GA1-006-15-40,625 8th Avenue,New York,10018,New York,POINT (-73.990644186 40.756377434)
Bank of America N.A. GA1-006-15-40,3508 Johnson Avenue,Riverdale,10463,Bronx,POINT (-73.909776925 40.885780775)
Bank of America N.A. GA1-006-15-40,900 Third Avenue,New York,10022,New York,POINT (-73.968933632 40.758706262)
Bank of America N.A. GA1-006-15-40,800 Avenue of the Americas,New York,10001,New York,POINT (-73.990487696 40.745350076)
Bank of America N.A. GA1-006-15-40,1066 Lexington Avenue,New York,10021,New York,POINT (-73.960631707 40.772691533)
Bank of America N.A. GA1-006-15-40,2770 Broadway,New York,10025,New York,POINT (-73.967556234 40.801837775)
Bank of America N.A. GA1-006-15-40,215 West 125th Street,New York,10027,New York,POINT (-73.949113532 40.809530435)
Bank of America N.A. GA1-006-15-40,334 Columbus Avenue,New York,10023,New York,POINT (-73.977218305 40.779890935)
Bank of America N.A. GA1-006-15-40,261 Broadway,New York,10007,New York,POINT (-74.006762083 40.713886675)
Bank of America N.A. GA1-006-15-40,750 Third Avenue,New York,10017,New York,POINT (-73.972540197 40.753707756)
Bank of America N.A. GA1-006-15-40,501 Fifth Avenue,New York,10017,New York,POINT (-73.980839874 40.753239417)
Bank of America N.A. GA1-006-15-40,1680 Broadway,New York,10019,New York,POINT (-73.982788499 40.763024534)
Bank of America N.A. GA1-006-15-40,675 Third Avenue,New York,10017,New York,POINT (-73.973966042 40.750799277)
Bank of America N.A. GA1-006-15-40,25 West 51st Street,New York,10019,New York,POINT (-73.9782357 40.759907514)
Bank of America N.A. GA1-006-15-40,1900 Pine Avenue,Niagara Falls,14301,Niagara,POINT (-79.038764312 43.095309168)
Bank of America N.A. GA1-006-15-40,106 West 117th Street,New York,10026,New York,POINT (-73.949651566 40.802791259)
Bank of America N.A. GA1-006-15-40,One Penn Plaza East,New York,10119,New York,POINT (-73.99159528 40.750946254)
Bank of America N.A. GA1-006-15-40,29 Broadway,New York,10006,New York,POINT (-74.013298458 40.7060475)
Bank of America N.A. GA1-006-15-40,335 Madison Avenue,New York,10017,New York,POINT (-73.978584723 40.75350944)
Bank of America N.A. GA1-006-15-40,988 Third Avenue,New York,10022,New York,POINT (-73.966841257 40.761527275)
Bank of America N.A. GA1-006-15-40,534 5th Avenue,Brooklyn,11215,Kings,POINT (-73.98905439 40.666116616)
Bank of America N.A. GA1-006-15-40,345 Park Avenue South,New York,10010,New York,POINT (-73.985035184 40.741715725)
Bank of America N.A. GA1-006-15-40,2915 Stillwell Avenue,Brooklyn,11224,Kings,POINT (-73.98124363 40.576227033)
Bank of America N.A. GA1-006-15-40,36 East 14th Street,New York,10003,New York,POINT (-73.99200482 40.735155419)
Bank of America N.A. GA1-006-15-40,2443 Hempstead Turnpike,East Meadow,11554,Nassau,POINT (-73.545158437 40.72527831)
Bank of America N.A. GA1-006-15-40,224 West 4th Street,New York,10014,New York,POINT (-74.002958124 40.733871647)
Bank of America N.A. GA1-006-15-40,350 Fulton Street,Brooklyn,11201,Queens,POINT (-73.988405044 40.691749524)
Bank of America N.A. GA1-006-15-40,45 Market Street,Poughkeepsie,12601,Dutchess,POINT (-73.929239537 41.702667941)
Bank of America N.A. GA1-006-15-40,93 West Campbell Road,Schenectady,12305,Schenectady,POINT (-73.987860304 42.808862991)
Bank of America N.A. GA1-006-15-40,287 Main Street,Schoharie,12157,Schoharie,POINT (-74.31222311 42.664032421)
Bank of America N.A. GA1-006-15-40,"67 Middlebush Road, Route 9",Wappingers Falls,12590,Dutchess,POINT (-73.908628773 41.588612868)
Bank of America N.A. GA1-006-15-40,770 Broadway,New York,10003,New York,POINT (-73.991402664 40.730848965)
Bank of America N.A. GA1-006-15-40,3424 Jerome Avenue,Bronx,10467,Bronx,POINT (-73.882756603 40.881171315)
Bank of America N.A. GA1-006-15-40,449 Myrtle Avenue,Brooklyn,11205,Kings,POINT (-73.967494375 40.693401094)
Bank of America N.A. GA1-006-15-40,2022 Avenue U,Brooklyn,11229,Kings,POINT (-73.950564356 40.599359828)
Bank of America N.A. GA1-006-15-40,826 Manhattan Avenue,Brooklyn,11222,Kings,POINT (-73.95337112 40.728562298)
Bank of America N.A. GA1-006-15-40,1580 Flatbush Avenue,Brooklyn,11210,Kings,POINT (-73.947136325 40.632100087)
Bank of America N.A. GA1-006-15-40,266 Broadway,Brooklyn,11211,Kings,POINT (-73.959163853 40.708721327)
Bank of America N.A. GA1-006-15-40,1502 Kings Highway,Brooklyn,11229,Kings,POINT (-73.958107649 40.608684444)
Bank of America N.A. GA1-006-15-40,164 Military Road,Buffalo,14207,Erie,POINT (-78.892197096 42.941165717)
Bank of America N.A. GA1-006-15-40,10726 Continental Avenue,Forest Hills,11375,Queens,POINT (-73.844550464 40.720410125)
Bank of America N.A. GA1-006-15-40,3912 Main Street,Flushing,11354,Queens,POINT (-73.83044833 40.75982248)
Bank of America N.A. GA1-006-15-40,2574 Broadway,New York,10025,New York,POINT (-73.97119004 40.795049481)
Bank of America N.A. GA1-006-15-40,168 Church Street,New York,10007,New York,POINT (-74.007825579 40.715357447)
Bank of America N.A. GA1-006-15-40,399 Third Avenue,New York,10016,New York,POINT (-73.980505939 40.742133102)
Bank of America N.A. GA1-006-15-40,882 First Avenue,New York,10022,New York,POINT (-73.966104572 40.753647741)
Bank of America N.A. GA1-006-15-40,40 West Main Street,Shortsville,14548,Ontario,POINT (-77.222707391 42.955765903)
Bank of America N.A. GA1-006-15-40,3 Northwest Drive,South Farmingdale,11735,Nassau,POINT (-73.458029727 40.71782047)
Bank of America N.A. GA1-006-15-40,58 South Main Street,Fairport,14450,Monroe,POINT (-77.442289282 43.099966949)
Bank of America N.A. GA1-006-15-40,6801 East Genesee Street,Fayetteville,13066,Onondaga,POINT (-76.051271295 43.031300596)
Bank of America N.A. GA1-006-15-40,2305 Millersport Highway,Getzville,14068,Erie,POINT (-78.769636584 43.01321555)
Bank of America N.A. GA1-006-15-40,54 West Main Street,Goshen,10924,Orange,POINT (-74.325254119 41.402183837)
Bank of America N.A. GA1-006-15-40,5340 Southwestern Boulevard,Hamburg,14075,Erie,POINT (-78.869385328 42.742159554)
Bank of America N.A. GA1-006-15-40,43 Main Street,Hamburg,14075,Erie,POINT (-78.831079276 42.716201303)
Bank of America N.A. GA1-006-15-40,3588 Delaware Avenue,Kenmore,14217,Erie,POINT (-78.872906314 42.981813672)
Bank of America N.A. GA1-006-15-40,1343 Ulster Avenue,Kingston,12401,Ulster,POINT (-73.98920912 41.970567648)
Bank of America N.A. GA1-006-15-40,451 Washington Avenue,Kingston,12401,Ulster,POINT (-74.026243721 41.936613313)
Bank of America N.A. GA1-006-15-40,804 Loudon Road,Latham,12110,Albany,POINT (-73.761863324 42.747193977)
Bank of America N.A. GA1-006-15-40,7610 Oswego Road,Liverpool,13090,Onondaga,POINT (-76.225938758 43.138734676)
Bank of America N.A. GA1-006-15-40,477 Albany Shaker Road,Loudonville,12211,Albany,POINT (-73.778004858 42.708106312)
Bank of America N.A. GA1-006-15-40,343 Fayette Street,Manlius,13104,Onondaga,POINT (-75.985486515 43.006710523)
Bank of America N.A. GA1-006-15-40,715 Route 211 East,Middletown,10941,Orange,POINT (-74.358583248 41.466364656)
Bank of America N.A. GA1-006-15-40,6529 East Quaker Street,Orchard Park,14127,Erie,POINT (-78.74298539 42.767323997)
Bank of America N.A. GA1-006-15-40,2200 Penfield Road,Penfield,14526,Monroe,POINT (-77.439178507 43.130958408)
Bank of America N.A. GA1-006-15-40,9 North Main Street,Pittsford,14534,Monroe,POINT (-77.515370593 43.091140973)
Bank of America N.A. GA1-006-15-40,13-17 Hammond Street,Port Jervis,12771,Orange,POINT (-74.691570781 41.374752927)
Bank of America N.A. GA1-006-15-40,11 Raymond Avenue,Poughkeepsie,12603,Dutchess,POINT (-73.901907911 41.69531236)
Bank of America N.A. GA1-006-15-40,1 East Avenue,Rochester,14638,Monroe,POINT (-77.604402498 43.157270375)
Bank of America N.A. GA1-006-15-40,1381 East Ridge Road,Rochester,14621,Monroe,POINT (-77.579439179 43.197261944)
Bank of America N.A. GA1-006-15-40,3333 West Henrietta Road,Rochester,14623,Monroe,POINT (-77.643236945 43.088363923)
Bank of America N.A. GA1-006-15-40,100 Pixley Road,Rochester,14624,Monroe,POINT (-77.708753169 43.147302406)
Bank of America N.A. GA1-006-15-40,3800 Dewey Avenue,Rochester,14616,Monroe,POINT (-77.643765927 43.23968175)
Bank of America N.A. GA1-006-15-40,1394 Norton Street,Rochester,14621,Monroe,POINT (-77.584795802 43.187908578)
Bank of America N.A. GA1-006-15-40,4 State Street,Rochester,14614,Monroe,POINT (-77.612618104 43.156162832)
Bank of America N.A. GA1-006-15-40,2450 Ridge Road,Rochester,14626,Monroe,POINT (-77.693201051 43.209944937)
Bank of America N.A. GA1-006-15-40,671 Park Avenue,Rochester,14607,Monroe,POINT (-77.577797332 43.147970654)
Bank of America N.A. GA1-006-15-40,2830 Monroe Avenue,Rochester,14618,Monroe,POINT (-77.548246261 43.112020839)
Bank of America N.A. GA1-006-15-40,"189 Ballston Avenue, Route 50",Saratoga,12866,Saratoga,POINT (-73.794820464 43.069823362)
Bank of America N.A. GA1-006-15-40,27 Division Street,Saratoga Springs,12866,Saratoga,POINT (-73.787187652 43.081972805)
Bank of America N.A. GA1-006-15-40,500 State Street,Schenectady,12305,Schenectady,POINT (-73.940759708 42.811557857)
Bank of America N.A. GA1-006-15-40,200 Saratoga Road #2 ---Route 50,Scotia,12302,Schenectady,POINT (-73.932149147 42.866146594)
Bank of America N.A. GA1-006-15-40,59 Third Street,Troy,12180,Rensselaer,POINT (-73.690668947 42.730237848)
Bank of America N.A. GA1-006-15-40,900 Central & Colvin Avenue,Albany,12206,Albany,POINT (-73.791628971 42.681478012)
Bank of America N.A. GA1-006-15-40,133 Wolf Road,Albany,12205,Albany,POINT (-73.805749041 42.718571957)
Bank of America N.A. GA1-006-15-40,69 State Street,Albany,12201,Albany,POINT (-73.752054569 42.649829286)
Bank of America N.A. GA1-006-15-40,1450 Western Avenue,Albany,12203,Albany,POINT (-73.836610789 42.680635463)
Bank of America N.A. GA1-006-15-40,1791 Western Avenue,Albany,12203,Albany,POINT (-73.866234112 42.690532479)
Bank of America N.A. GA1-006-15-40,156 South Main Street,Albion,14411,Orleans,POINT (-78.194481106 43.242395643)
Bank of America N.A. GA1-006-15-40,100 Main Street,Batavia,14020,Genesee,POINT (-78.182090557 42.99758766)
Bank of America N.A. GA1-006-15-40,10 Fountain Plaza,Buffalo,14202,Erie,POINT (-78.874451937 42.888201644)
Bank of America N.A. GA1-006-15-40,2221 Seneca Street,Buffalo,14210,Erie,POINT (-78.806566232 42.852353963)
Bank of America N.A. GA1-006-15-40,2389 Fillmore Avenue,Buffalo,14214,Erie,POINT (-78.839029008 42.938878212)
Bank of America N.A. GA1-006-15-40,1171 East Delavan Avenue,Buffalo,14215,Erie,POINT (-78.813435705 42.922426296)
Bank of America N.A. GA1-006-15-40,1452 Hertel Avenue,Buffalo,14216,Erie,POINT (-78.854283988 42.947969056)
Bank of America N.A. GA1-006-15-40,3838 Harlem Road,Cheektowaga,14215,Erie,POINT (-78.784533059 42.948092019)
Bank of America N.A. GA1-006-15-40,540 Montauk Highway,West Islip,11795,Suffolk,POINT (-73.307913865 40.696428344)
Bank of America N.A. GA1-006-15-40,23 East Main Street,Washingtonville,10992,Orange,POINT (-74.165607362 41.427747301)
Bank of America N.A. GA1-006-15-40,980 Ridge Road,Webster,14580,Monroe,POINT (-77.459755744 43.209009307)
Bank of America N.A. GA1-006-15-40,7864 Transit Road,Williamsville,14221,Erie,POINT (-78.697009343 42.983319277)
Bank of America N.A. GA1-006-15-40,5529 Main Street,Williamsville,14221,Erie,POINT (-78.747005434 42.962301943)
Bank of America N.A. GA1-006-15-40,81 Mill Hill Road,Woodstock,12498,Ulster,POINT (-74.112699532 42.038862641)
Bank of America N.A. GA1-006-15-40,4049 Seneca Street,West Seneca,14224,Erie,POINT (-78.752999501 42.830094226)
Bank of America N.A. GA1-006-15-40,100 Hillside Avenue,Williston Park,11596,Nassau,POINT (-73.643314631 40.75726931)
Bank of America N.A. GA1-006-15-40,2300 Grand Avenue,Baldwin,11510,Nassau,POINT (-73.610709782 40.65492359)
Bank of America N.A. GA1-006-15-40,185 Wheeler Road,Central Islip,11722,Suffolk,POINT (-73.211941911 40.802788074)
Bank of America N.A. GA1-006-15-40,41 Veterans Memorial Highway,Commack,11725,Suffolk,POINT (-73.287241996 40.842009974)
Bank of America N.A. GA1-006-15-40,1283 Sunrise Highway,Copiague,11726,Suffolk,POINT (-73.39365713 40.692775636)
Bank of America N.A. GA1-006-15-40,1979 Deer Park Avenue,Deer Park,11729,Suffolk,POINT (-73.330221462 40.765559515)
Bank of America N.A. GA1-006-15-40,709 Old Country Road,Dix Hills,11746,Suffolk,POINT (-73.315065818 40.779858333)
Bank of America N.A. GA1-006-15-40,1 Old Westbury Road,Roslyn Heights,11577,Nassau,POINT (-73.623577344 40.784792211)
Bank of America N.A. GA1-006-15-40,385 Larkfield Road,East Northport,11731,Suffolk,POINT (-73.321938297 40.868487317)
Bank of America N.A. GA1-006-15-40,2 Triangle Center,Yorktown Heights,10598,Westchester,POINT (-73.78239203 41.27818171)
Bank of America N.A. GA1-006-15-40,1431 Hempstead Turnpike,Elmont,11003,Nassau,POINT (-73.693529188 40.707039791)
Bank of America N.A. GA1-006-15-40,189 West Merrick Road,Freeport,11520,Nassau,POINT (-73.588043942 40.652483409)
Bank of America N.A. GA1-006-15-40,10 Middle Neck Road,Great Neck,11021,Nassau,POINT (-73.727585447 40.78699267)
Bank of America N.A. GA1-006-15-40,47 Broadway,Greenlawn,11740,Suffolk,POINT (-73.36572997 40.869998699)
Bank of America N.A. GA1-006-15-40,190 Motor Parkway,Hauppauge,11788,Suffolk,POINT (-73.255678789 40.8067884)
Bank of America N.A. GA1-006-15-40,1286 West Broadway,Hewlett,11557,Nassau,POINT (-73.701501132 40.639159158)
Bank of America N.A. GA1-006-15-40,111 Delaware Avenue,Delmar,12054,Albany,POINT (-73.809422661 42.629562347)
Bank of America N.A. GA1-006-15-40,600 Dick Road,Depew,14043,Erie,POINT (-78.738707015 42.919448667)
Bank of America N.A. GA1-006-15-40,5091 Broadway,Depew,14043,Erie,POINT (-78.685910329 42.901240533)
Bank of America N.A. GA1-006-15-40,1 New Paltz Plaza,New Paltz,12561,Ulster,POINT (-74.069957507 41.743898656)
Bank of America N.A. GA1-006-15-40,1414 Union Avenue,Newburgh,12550,Orange,POINT (-74.070759719 41.521848053)
Bank of America N.A. GA1-006-15-40,1263 Military Road,Niagara Falls,14304,Niagara,POINT (-78.966751946 43.089709134)
Bank of America N.A. GA1-006-15-40,1757 Union Street,Niskayuna,12309,Schenectady,POINT (-73.899188821 42.802726767)
Bank of America N.A. GA1-006-15-40,3600 Brewerton Road,North Syracuse,13212,Onondaga,POINT (-76.145091446 43.115763861)
Bank of America N.A. GA1-006-15-40,1012 Payne Avenue,North Tonawanda,14120,Niagara,POINT (-78.877960472 43.050629153)
Bank of America N.A. GA1-006-15-40,Canal and Main Street,Ellenville,12428,Ulster,POINT (-74.39500597 41.717510993)
Bank of America N.A. GA1-006-15-40,5834 East Circle Drive,Cicero,13039,Onondaga,POINT (-76.120210186 43.147099564)
Bank of America N.A. GA1-006-15-40,One Clinton Square,Syracuse,13202,Onondaga,POINT (-76.153452184 43.050847562)
Bank of America N.A. GA1-006-15-40,4732 Onondaga Boulevard,Syracuse,13219,Onondaga,POINT (-76.190409966 43.032681515)
Bank of America N.A. GA1-006-15-40,401 Nottingham Road,Syracuse,13210,Onondaga,POINT (-76.110951871 43.026860577)
Bank of America N.A. GA1-006-15-40,4865 West Seneca Street,Syracuse,13215,Onondaga,POINT (-76.180116318 43.005958206)
Bank of America N.A. GA1-006-15-40,2334 James Street,Syracuse,13206,Onondaga,POINT (-76.113719491 43.068258042)
Bank of America N.A. GA1-006-15-40,1188 Niagara Falls Boulevard,Tonawanda,14150,Erie,POINT (-78.823340684 42.986477573)
Bank of America N.A. GA1-006-15-40,20 Jerusalem Avenue,Hicksville,11801,Nassau,POINT (-73.525553836 40.76691357)
Bank of America N.A. GA1-006-15-40,1600 Hillside Avenue,New Hyde Park,11040,Nassau,POINT (-73.684310938 40.748387552)
Bank of America N.A. GA1-006-15-40,1150 Grand Avenue,South Hempstead,11550,Nassau,POINT (-73.615415885 40.682413928)
Bank of America N.A. GA1-006-15-40,101 Walt Whitman Road,Huntington Station,11746,Suffolk,POINT (-73.412233858 40.82731654)
Bank of America N.A. GA1-006-15-40,2020 Merrick Road,South Merrick,11566,Nassau,POINT (-73.548833567 40.656499598)
Bank of America N.A. GA1-006-15-40,31 Route 111,Smithtown,11787,Suffolk,POINT (-73.186910783 40.853978494)
Bank of America N.A. GA1-006-15-40,3330 Park Avenue,Wantagh,11793,Nassau,POINT (-73.509105189 40.673576636)
Bank of America N.A. GA1-006-15-40,560 Montauk Highway,West Babylon,11704,Suffolk,POINT (-73.341135035 40.687235073)
Bank of America N.A. GA1-006-15-40,60 Hempstead Avenue,West Hempstead,11552,Nassau,POINT (-73.640005707 40.703375894)
Bank of America N.A. GA1-006-15-40,50 Bayard Street,New York,10013,New York,POINT (-73.997213754 40.715375217)
Bank of America N.A. GA1-006-15-40,70-11 Myrtle Avenue,Glendale,11385,Queens,POINT (-73.880572447 40.702083991)
Bank of America N.A. GA1-006-15-40,1143 Lexington Avenue,New York,10021,New York,POINT (-73.958605283 40.775141288)
Bank of America N.A. GA1-006-15-40,2198 White Plains Road,Bronx,10462,Bronx,POINT (-73.867441609 40.856508529)
Bank of America N.A. GA1-006-15-40,299 East 204th Street,Bronx,10467,Bronx,POINT (-73.878628516 40.873270869)
Bank of America N.A. GA1-006-15-40,47 Graham Avenue,Brooklyn,11206,Kings,POINT (-73.942686037 40.703199287)
Bank of America N.A. GA1-006-15-40,250 Main Street,Huntington,11743,Suffolk,POINT (-73.425726124 40.871068272)
Bank of America N.A. GA1-006-15-40,147 Long Beach Road,Island Park,11558,Nassau,POINT (-73.655623539 40.601568963)
Bank of America N.A. GA1-006-15-40,265 Montauk Highway,Islip,11751,Suffolk,POINT (-73.219103505 40.727989323)
Bank of America N.A. GA1-006-15-40,479 North Broadway,Jericho,11753,Nassau,POINT (-73.53439666 40.789609836)
Bank of America N.A. GA1-006-15-40,3080 Middle Country Road,Lake Grove,11755,Suffolk,POINT (-73.122955604 40.861312994)
Bank of America N.A. GA1-006-15-40,400 Central Avenue,Lawrence,11559,Nassau,POINT (-73.727068703 40.619575512)
Bank of America N.A. GA1-006-15-40,3161 Hempstead Turnpike,Levittown,11756,Nassau,POINT (-73.519278641 40.725924052)
Bank of America N.A. GA1-006-15-40,52 East Park Avenue,Long Beach,11561,Nassau,POINT (-73.662264521 40.588159929)
Bank of America N.A. GA1-006-15-40,4400 Veterans Memorial Highway,Holbrook,11741,Suffolk,POINT (-73.089928784 40.7822871)
Bank of America N.A. GA1-006-15-40,300 Merrick Road,Lynbrook,11563,Nassau,POINT (-73.670922189 40.656868066)
Bank of America N.A. GA1-006-15-40,269 Hempstead Avenue,Malverne,11565,Nassau,POINT (-73.669805468 40.675332854)
Bank of America N.A. GA1-006-15-40,240 Plandome Road,Manhasset,11030,Nassau,POINT (-73.698797633 40.796073876)
Bank of America N.A. GA1-006-15-40,5310 Sunrise Highway,Massapequa Park,11762,Nassau,POINT (-73.440169819 40.678019212)
Bank of America N.A. GA1-006-15-40,2851 Horseblock Road,Medford,11763,Suffolk,POINT (-72.993954259 40.827609026)
Bank of America N.A. GA1-006-15-40,600 Broadhollow Road,Melville,11747,Suffolk,POINT (-73.423853355 40.762247406)
Bank of America N.A. GA1-006-15-40,15 Merrick Avenue,Merrick,11566,Nassau,POINT (-73.552543145 40.664025038)
Bank of America N.A. GA1-006-15-40,199 Jericho Turnpike,Mineola,11501,Nassau,POINT (-73.643545217 40.748104831)
Bank of America N.A. GA1-006-15-40,645 Jericho Avenue,New Hyde Park,11040,Nassau,POINT (-73.687045785 40.732461266)
Bank of America N.A. GA1-006-15-40,Pinwlawn Road,Melville,11747,Suffolk,POINT (-73.40480447 40.775421053)
Bank of America N.A. GA1-006-15-40,25 Deshon Boulevard,Melville,11747,Suffolk,POINT (-73.410822094 40.762246359)
Bank of America N.A. GA1-006-15-40,680 Fort Salonga Road,Northport,11768,Suffolk,POINT (-73.335967759 40.89441686)
Bank of America N.A. GA1-006-15-40,565 South Oyster Bay Road,Plainview,11803,Nassau,POINT (-73.500972816 40.770649887)
Bank of America N.A. GA1-006-15-40,911 Route 112,Port Jefferson Station,11776,Suffolk,POINT (-73.047852828 40.925843885)
Bank of America N.A. GA1-006-15-40,79 Main Street,Port Washington,11050,Nassau,POINT (-73.688554109 40.830755635)
Bank of America N.A. GA1-006-15-40,1209 St. Johnland,Kings Park,11754,Suffolk,POINT (-73.220366981 40.882297508)
Bank of America N.A. GA1-006-15-40,25 Quaker Avenue,Cornwall,12518,Orange,POINT (-74.038098498 41.434534547)
Bank of America N.A. GA1-006-15-40,30-18 36th Avenue,Long Island City,11106,Queens,POINT (-73.930016874 40.756581575)
Bank of America N.A. GA1-006-15-40,994 Middle Country Road,Selden,11784,Suffolk,POINT (-73.047291913 40.863582562)
Bank of America N.A. GA1-006-15-40,345 East Main Street,East Islip,11730,Suffolk,POINT (-73.176053284 40.735032959)
Bank of America N.A. GA1-006-15-40,231 Beach 20th Street,Queens,11691,Queens,POINT (-73.754375686 40.596392299)
Bank of America N.A. GA1-006-15-40,3 Main Street,Hempstead,11550,Nassau,POINT (-73.623951261 40.706470576)
Bank of America N.A. GA1-006-15-40,730 Fulton Avenue,Hempstead,11550,Nassau,POINT (-73.601858966 40.714707639)
Bank of America N.A. GA1-006-15-40,300 Union Avenue,Holbrook,11741,Suffolk,POINT (-73.082051246 40.811703736)
Bank of America N.A. GA1-006-15-40,175-57 Hillside Avenue,Jamaica,11432,Queens,POINT (-73.785869765 40.712326928)
Bank of America N.A. GA1-006-15-40,1 Clifton Country Road,Clifton Park,12065,Saratoga,POINT (-73.781724076 42.862369666)
Bank of America N.A. GA1-006-15-40,15 Bennetts Road,East Setauket,11733,Suffolk,POINT (-73.114715774 40.929685897)
Bank of America N.A. GA1-006-15-40,111 Forest Avenue,Glen Cove,11542,Nassau,POINT (-73.621374077 40.873805508)
Bank of America N.A. GA1-006-15-40,56 East 42nd Street,New York,10017,New York,POINT (-73.978531162 40.752431612)
Bank of America N.A. GA1-006-15-40,157 South Street,Oyster Bay,11771,Nassau,POINT (-73.530884643 40.870818953)
Bank of America N.A. GA1-006-15-40,47 West Main Street,Patchogue,11772,Suffolk,POINT (-73.016236794 40.765954974)
Bank of America N.A. GA1-006-15-40,60 Jagger Lane,Southampton,11968,Suffolk,POINT (-72.392604087 40.887287213)
Bank of America N.A. GA1-006-15-40,53300 Main Road,Southold,11971,Suffolk,POINT (-72.429746479 41.063260744)
Bank of America N.A. GA1-006-15-40,216-02 Merrick Boulevard,Springfield Gardens,11413,Queens,POINT (-73.752912541 40.679935818)
Bank of America N.A. GA1-006-15-40,248 Post Avenue,Westbury,11590,Nassau,POINT (-73.587654351 40.757761412)
Bank of America N.A. GA1-006-15-40,2604 Central Park Avenue,Yonkers,10710,Westchester,POINT (-73.825463293 40.985886289)
Bank of America N.A. GA1-006-15-40,192 Columbus Avenue,New York,10023,New York,POINT (-73.980433346 40.775274701)
Bank of America N.A. GA1-006-15-40,670 Main Street,East Aurora,14052,Erie,POINT (-78.609556723 42.768010768)
Bank of America N.A. GA1-006-15-40,1415 Avenue Z,Brooklyn,11235,Kings,POINT (-73.954675847 40.588065423)
Bank of America N.A. GA1-006-15-40,589 Broadway,New York,10012,New York,POINT (-73.997408046 40.72492451)
Bank of America N.A. GA1-006-15-40,200 East 161st Street,Bronx,10451,Bronx,POINT (-73.920973807 40.825589197)
Bank of America N.A. GA1-006-15-40,4361 Katonah Avenue,Bronx,10470,Bronx,POINT (-73.86797168 40.900870883)
Bank of America N.A. GA1-006-15-40,River Avenue,Bronx,10451,Bronx,POINT (-73.928702589 40.823002049)
Bank of America N.A. GA1-006-15-40,256 Katonah Avenue,Katonah,10536,Westchester,POINT (-73.683678104 41.255794904)
Bank of America N.A. GA1-006-15-40,928 McLean Avenue,Yonkers,10704,Westchester,POINT (-73.867259051 40.904112165)
Bank of America N.A. GA1-006-15-40,35 South Moger Avenue,Mount Kisco,10549,Westchester,POINT (-73.728816413 41.207311629)
Bank of America N.A. GA1-006-15-40,277 North Avenue,New Rochelle,10801,Westchester,POINT (-73.782480291 40.912347804)
Bank of America N.A. GA1-006-15-40,4767 Boston Post Road,Pelham Manor,10803,Westchester,POINT (-73.804742039 40.896823556)
Bank of America N.A. GA1-006-15-40,150 Broadway,New York,10038,New York,POINT (-74.010268987 40.709278095)
Bank of America N.A. GA1-006-15-40,116 Fifth Avenue,New York,10011,New York,POINT (-73.992556433 40.737784445)
Bank of America N.A. GA1-006-15-40,72 Second Avenue,New York,10003,New York,POINT (-73.989185735 40.726226387)
Bank of America N.A. GA1-006-15-40,515 Seventh Avenue,New York,10018,New York,POINT (-73.988783236 40.753212218)
Bank of America N.A. GA1-006-15-40,318 Grand Street,New York,10002,New York,POINT (-73.990776955 40.717349574)
Bank of America N.A. GA1-006-15-40,345 Park Avenue,New York,10154,New York,POINT (-73.972852255 40.758128539)
Bank of America N.A. GA1-006-15-40,433 Boston Post Road,Port Chester,10573,Westchester,POINT (-73.674150563 40.993850707)
Bank of America N.A. GA1-006-15-40,1140 Wilmot Road,Scarsdale,10583,Westchester,POINT (-73.776773807 40.985299405)
Bank of America N.A. GA1-006-15-40,"2042 Albany Post Road, Suite 8",Croton-on-Hudson,10520,Westchester,POINT (-73.915917675 41.234656834)
Bank of America N.A. GA1-006-15-40,505 White Plains Road,Tarrytown,10591,Westchester,POINT (-73.841362323 41.063917424)
Bank of Cattaraugus,24 Main Street,Cattaraugus,14719,Cattaraugus,POINT (-78.868426857 42.329858221)
Bank of Holland,12 South Main Street,Holland,14080,Erie,POINT (-78.541312189 42.641035203)
Bank of Holland,2341 Bowen Road,Elma,14059,Erie,POINT (-78.636785168 42.83416737)
Bank of Holland,250 Quaker Road,East Aurora,14052,Erie,POINT (-78.635033937 42.76313753)
Bank of Hope,16 West 32nd Street,New York,10001,New York,POINT (-73.986635373 40.747534694)
Bank of Hope,138-02 Northern Boulevard,Flushing,11354,Queens,POINT (-73.827876092 40.76380577)
Bank of Hope,485 Great Neck Road,Great Neck,11021,Nassau,POINT (-73.732537727 40.775713269)
Bank of Hope,150-24 Northern Boulevard,Flushing,11354,Queens,POINT (-73.814522882 40.764806904)
Bank of Hope,50-15 Roosevelt Avenue,Woodside,11317,Queens,POINT (-73.914102406 40.743998033)
Bank of Hope,162-05 Crocheron Avenue,Flushing,11358,Queens,POINT (-73.803285935 40.762615246)
Bank of Hope,210-16 Northern Boulevard,Bayside,11361,Queens,POINT (-73.772260572 40.759403091)
Bank of Millbrook,131 MILLBROOK SCHOOL ROAD,MILLBROOK,12545,Dutchess,POINT (-73.617979825 41.84509127)
Bank of Millbrook,11 Hunns Lake Road,Stanfordville,12581,Dutchess,POINT (-73.699192588 41.872177768)
Bank of Millbrook,5094 Route 22,Amenia,12501,Dutchess,POINT (-73.551899583 41.858814541)
Bank of Millbrook,2971 Church Street,Pine Plains,12567,Dutchess,POINT (-73.656046322 41.979807146)
Bank of Millbrook,76 FLINT ROAD,MILLBROOK,12545,Dutchess,POINT (-73.659443055 41.729470483)
Bank of Millbrook,3263 Franklin Avenue,Millbrook,12545,Dutchess,POINT (-73.695367926 41.785386555)
Bank of Richmondville,857 East Main Street,Cobleskill,12043,Schoharie,POINT (-74.470794888 42.680925393)
Bank of Richmondville,284  Main Street,Richmondville,12149,Schoharie,POINT (-74.563455821 42.634212083)
Bank of Richmondville,428 Main Street,Schoharie,12157,Schoharie,POINT (-74.30570157 42.672296559)
Bank of Utica,222 Genesee Street,Utica,13502,Oneida,POINT (-75.232962684 43.100817252)
Bank of Utica,222 Genesee Street,Utica,13502,Oneida,POINT (-75.232962684 43.100817252)
"BankUnited, NA",136 East 57th Street,New York,10022,New York,POINT (-73.968953078 40.760687241)
"BankUnited, NA",960 Avenue of the Americas,New York,10001,New York,POINT (-73.987040219 40.750504989)
"BankUnited, NA",252 Broadway,Brooklyn,11211,Kings,POINT (-73.959644136 40.708875261)
"BankUnited, NA",445 BROADHOLLOW ROAD,MELVILLE,11747,Suffolk,POINT (-73.419809674 40.775214085)
"Berkshire Bank (Pittsfield, MA)",255 Delaware Avenue,Delmar,12054,Albany,POINT (-73.821367628 42.626617827)
"Berkshire Bank (Pittsfield, MA)",7 Halfmoon Crossing,Halfmoon,12065,Saratoga,POINT (-73.76808454 42.858644665)
"Berkshire Bank (Pittsfield, MA)",6611 Manlius Road,East Syracuse,13057,Onondaga,POINT (-76.061035542 43.06382741)
"Berkshire Bank (Pittsfield, MA)",979 Central Avenue,Albany,12205,Albany,POINT (-73.794792469 42.684445708)
"Berkshire Bank (Pittsfield, MA)",628 Loudon Road (Route 9),Latham,12110,Albany,POINT (-73.76262725 42.732137983)
"Berkshire Bank (Pittsfield, MA)",120 Mansion Street,Niskayuna,12304,Schenectady,POINT (-73.8789467 42.76668325)
"Berkshire Bank (Pittsfield, MA)",576 North Greenbush Road,North Greenbush,12144,Rensselaer,POINT (-73.697671273 42.649006728)
"Berkshire Bank (Pittsfield, MA)",184 Broadway,Whitehall,12887,Washington,POINT (-73.406398796 43.547057078)
"Berkshire Bank (Pittsfield, MA)",1704 WESTERN AVENUE,ALBANY,12203,Albany,POINT (-73.858667097 42.687077877)
"Berkshire Bank (Pittsfield, MA)",Highways 20 & 22,New Lebanon,12125,Columbia,POINT (-73.396658019 42.464139998)
"Berkshire Bank (Pittsfield, MA)",50-52 Main Street,Chatham,12037,Columbia,POINT (-73.595565191 42.363415799)
"Berkshire Bank (Pittsfield, MA)",561 Warren Street,Hudson,12534,Columbia,POINT (-73.78477425 42.248054828)
"Berkshire Bank (Pittsfield, MA)",140 SANFORD FARMS,AMSTERDAM,12010,Montogomery,POINT (-74.175671697 42.94488618)
"Berkshire Bank (Pittsfield, MA)",1 Central Plaza,Ilion,13357,Herkimer,POINT (-75.035942278 43.014874874)
"Berkshire Bank (Pittsfield, MA)",381 West Main Street,West Winfield,13491,Herkimer,POINT (-75.193898657 42.885336374)
"Berkshire Bank (Pittsfield, MA)",50 Auert Avenue,Utica,13502,Oneida,POINT (-75.208024762 43.115073192)
"Berkshire Bank (Pittsfield, MA)",34 Oriskany Boulevard,Whitesboro,13492,Oneida,POINT (-75.290303116 43.116591407)
"Berkshire Bank (Pittsfield, MA)",50 Genesee Street,New Hartford,13413,Oneida,POINT (-75.289019344 43.07331321)
"Berkshire Bank (Pittsfield, MA)",183 QUAKER ROAD,QUEENSBURY,12804,Warren,POINT (-73.656879316 43.33275038)
"Berkshire Bank (Pittsfield, MA)",1925 Curry Road,Rotterdam,12303,Schenectady,POINT (-73.955329384 42.779898989)
"Berkshire Bank (Pittsfield, MA)",98 WOLF ROAD,ALBANY,12205,Albany,POINT (-73.810450702 42.716267604)
"Berkshire Bank (Pittsfield, MA)",2532 ROUTE 9,BALLSTON SPA,12019,Saratoga,POINT (-73.79211487 42.973597689)
"Berkshire Bank (Pittsfield, MA)",30 SOUTH PEARL ST,ALBANY,12207,Albany,POINT (-73.752752027 42.648812478)
"Berkshire Bank (Pittsfield, MA)",Rear 139 West Dominick Street,Rome,13440,Oneida,POINT (-75.458567476 43.211008642)
"Berkshire Bank (Pittsfield, MA)",1300 Erie Boulevard West,Rome,13440,Oneida,POINT (-75.49108289 43.228569652)
"Berkshire Bank (Pittsfield, MA)",8491 Seneca Turnpike,New Hartford,13413,Oneida,POINT (-75.320503281 43.081212734)
"Berkshire Bank (Pittsfield, MA)",1629 Black River Boulevard,Rome,13440,Oneida,POINT (-75.440107926 43.230306591)
"Berkshire Bank, The",80 Route 17M,Harriman,10926,Orange,POINT (-74.152312071 41.307469756)
"Berkshire Bank, The",2 South Church Street,Goshen,10924,Orange,POINT (-74.323832465 41.40175527)
"Berkshire Bank, The",210 Pinehurst Avenue,New York,10033,New York,POINT (-73.938028633 40.855130586)
"Berkshire Bank, The",5 Broadway,New York,10004,New York,POINT (-74.014034138 40.705117234)
"Berkshire Bank, The",4 East 39th Street,New York,10016,New York,POINT (-73.98174864 40.751250266)
"Berkshire Bank, The",4917 16th Avenue,Brooklyn,11204,Kings,POINT (-73.985782514 40.630581999)
"Berkshire Bank, The",1421 Kings Highway,Brooklyn,11229,Kings,POINT (-73.958515932 40.608802252)
"Berkshire Bank, The",5010 13th Avenue,Brooklyn,11219,Kings,POINT (-73.993087762 40.634300923)
Bethpage Federal Credit Union,501 WALT WHITMAN RD,MELVILLE,11747,Suffolk,POINT (-73.410144417 40.811895556)
Bethpage Federal Credit Union,3531 Hempstead Turnpike,Levittown,11756,Nassau,POINT (-73.505496696 40.725973673)
Bethpage Federal Credit Union,2055 Hillside Avenue,New Hyde Park,11040,Nassau,POINT (-73.674869395 40.751632019)
Bethpage Federal Credit Union,47-21 Queens Blvd,Sunnyside,11104,Queens,POINT (-73.917021488 40.743272119)
Bethpage Federal Credit Union,899 South Oyster Bay Road,Bethpage,11714,Nassau,POINT (-73.499086468 40.761409845)
Bethpage Federal Credit Union,4900B NESCONSET HIGHWAY,PORT JEFFERSON STATION,11776,Suffolk,POINT (-73.054752058 40.919149593)
Bethpage Federal Credit Union,591 EAST MAIN STREET,BAY SHORE,11706,Suffolk,POINT (-73.228736159 40.728027008)
Bethpage Federal Credit Union,33 GERARD STREET,HUNTINGTON,11743,Suffolk,POINT (-73.426694066 40.872845571)
Bethpage Federal Credit Union,1350 Deer Park Avenue,North Babylon,11703,Suffolk,POINT (-73.322418748 40.742673106)
Bethpage Federal Credit Union,111 WEST 26TH STREET,CHELSEA,10001,New York,POINT (-73.991993505 40.745157963)
Bethpage Federal Credit Union,240 MIDDLE COUNTRY ROAD,SMITHTOWN,11787,Suffolk,POINT (-73.181030587 40.855715219)
Bethpage Federal Credit Union,1095 Old Country Road,Riverhead,11901,Suffolk,POINT (-72.676197821 40.93212832)
Bethpage Federal Credit Union,1033 Route 109,Farmingdale,11735,Nassau,POINT (-73.43085154 40.72432192)
Bethpage Federal Credit Union,94 Harned Road,Commack,11725,Suffolk,POINT (-73.279930881 40.838871664)
Bethpage Federal Credit Union,613 Sunrise Highway,Lynbrook,11563,Nassau,POINT (-73.675616977 40.654708217)
Bethpage Federal Credit Union,170 FULTON AVENUE,HEMPSTEAD,11550,Nassau,POINT (-73.628917957 40.706922822)
Bethpage Federal Credit Union,111 SCHOOL STREET,GLEN COVE,11542,Nassau,POINT (-73.63150696 40.867558266)
Bethpage Federal Credit Union,750 Old Country Road,Westbury,11590,Nassau,POINT (-73.569732836 40.751097547)
Bethpage Federal Credit Union,131 Jericho Turnpike,Mineola,11501,Nassau,POINT (-73.640186588 40.748929694)
Bethpage Federal Credit Union,210 WEST MERRICK ROAD,FREEPORT,11520,Nassau,POINT (-73.589463753 40.652849782)
Bethpage Federal Credit Union,6257 Sunrise Highway,Massapequa,11758,Nassau,POINT (-73.428826925 40.684377514)
Bethpage Federal Credit Union,1644 DUTCH BROADWAY,ELMONT,11003,Nassau,POINT (-73.70347046 40.687655718)
Bethpage Federal Credit Union,233 South Research Place,Central Islip,11722,Suffolk,POINT (-73.200255946 40.771208876)
Bethpage Federal Credit Union,272 EAST MAIN STREET,PATCHOGUE,11772,Suffolk,POINT (-73.006386297 40.765736625)
Bethpage Federal Credit Union,26 West Park Avenue,Long Beach,11561,Nassau,POINT (-73.665019485 40.588156828)
Bethpage Federal Credit Union,834 Sunrise Highway,Bay Shore,11706,Suffolk,POINT (-73.278335637 40.725920783)
Bethpage Federal Credit Union,405 NASSAU ROAD,ROOSEVELT,11575,Nassau,POINT (-73.592143698 40.68248224)
Bethpage Federal Credit Union,555 Montauk Highway,West Babylon,11704,Suffolk,POINT (-73.341611051 40.687526476)
Bethpage Federal Credit Union,357 Larkfield Road,East Northport,11731,Suffolk,POINT (-73.322076347 40.869384264)
Bethpage Federal Credit Union,1800 Grand Avenue,Baldwin,11510,Nassau,POINT (-73.608468293 40.66674857)
Bethpage Federal Credit Union,4006 Merrick Road,Seaford,11783,Nassau,POINT (-73.484414533 40.666218414)
Bethpage Federal Credit Union,2245 Middle Country Road,Centereach,11720,Suffolk,POINT (-73.091295647 40.858476139)
Bethpage Federal Credit Union,1145 WILLIS AVENUE,ALBERTSON,11507,Nassau,POINT (-73.650306311 40.775216222)
Buffalo Metropolitan Federal CU,50 Delaware Avenue,Buffalo,14202,Erie,POINT (-78.879053769 42.885413069)
Buffalo Metropolitan Federal CU,2855 Main Street,Buffalo,14214,Erie,POINT (-78.833421107 42.944311962)
Buffalo Metropolitan Federal CU,65 Niagara Square,Buffalo,14202,Erie,POINT (-78.87941461 42.886373132)
Buffalo Metropolitan Federal CU,62 SOUTH ELMWOOD AVE,BUFFALO,14202,Erie,POINT (-78.880085498 42.887050515)
Buffalo Metropolitan Federal CU,257 West Genesee Street,Buffalo,14202,Erie,POINT (-78.883969923 42.885408962)
Buffalo Metropolitan Federal CU,110 14th Street,Buffalo,14213,Erie,POINT (-78.884725132 42.903782387)
Buffalo Service Credit Union,3495 Bailey Ave.,Buffalo,14215,Erie,POINT (-78.813598481 42.951223414)
Buffalo Service Credit Union,111 W. Huron St.,Buffalo,14202,Erie,POINT (-78.876710235 42.889268712)
CFCU Community Credit Union,"The Campus Store, Cornell University",Ithaca,14853,Tompkins,POINT (-76.472884453 42.448001814)
CFCU Community Credit Union,800 Warren Road,Ithaca,14850,Tompkins,POINT (-76.473892888 42.496717145)
CFCU Community Credit Union,1022 ELLIS HOLLOW ROAD,ITHACA,14850,Tompkins,POINT (-76.462213963 42.436339405)
CFCU Community Credit Union,182 PORT WATSON STREET,CORTLAND,13045,Cortland,POINT (-76.165220503 42.598759147)
CFCU Community Credit Union,3910 Route 281,Cortland,13045,Cortland,POINT (-76.205868023 42.596025466)
CFCU Community Credit Union,409 North Meadow Street,Ithaca,14850,Tompkins,POINT (-76.508259865 42.442891203)
CFCU Community Credit Union,15 NEUBIG ROAD,CORTLAND,13045,Cortland,POINT (-76.193637124 42.595956367)
CFCU Community Credit Union,1030 Craft Road,Ithaca,14850,Tompkins,POINT (-76.486243706 42.491727608)
CFCU Community Credit Union,130 STATLER DRIVE,ITHACA,14853,Tompkins,POINT (-76.482197594 42.445687951)
CFCU Community Credit Union,953 Danby Rd,Ithaca,14850,Tompkins,POINT (-76.500353551 42.421900822)
CFCU Community Credit Union,203 EAST SENECA STREET,ITHACA,14850,Tompkins,POINT (-76.496372063 42.440300985)
CFCU Community Credit Union,200-204 EAST STATE STREET,ITHACA,14850,Tompkins,POINT (-76.496662412 42.439726783)
CFCU Community Credit Union,1959 RT 5 AND 20,WATERLOO,13165,Seneca,POINT (-76.837576334 42.902759683)
CFCU Community Credit Union,7200 KIRKVILLE ROAD,EAST SYRACUSE,13057,Onondaga,POINT (-76.025395438 43.07985407)
CFCU Community Credit Union,651 CENTERVILLE PLACE,NORTH SYRACUSE,13212,Onondaga,POINT (-76.127239082 43.136168808)
CFCU Community Credit Union,99 SHERATON DRIVE,ITHACA,14850,Tompkins,POINT (-76.478952624 42.478716002)
CTBC Bank Corp. (USA),54-18 8th Avenue,Brooklyn,11220,Kings,POINT (-73.972031164 40.675171041)
CTBC Bank Corp. (USA),41-99 Main Street,Flushing,11355,Queens,POINT (-73.828132327 40.755599593)
Canandaigua Federal Credit Union,3210 Eastern Boulevard,Canandaigua,14424,Ontario,POINT (-77.247435721 42.875685191)
Canandaigua National Corporation,99 West Main Street,Honeoye Falls,14472,Monroe,POINT (-77.598880333 42.95026641)
Canandaigua National Corporation,2128 Hudson Avenue,Rochester,14617,Monroe,POINT (-77.600242727 43.206890404)
Canandaigua National Corporation,51 Assembly Drive,Mendon,14506,Monroe,POINT (-77.508419146 43.000223014)
Canandaigua National Corporation,6720 Pittsford Palmyra Road,Fairport,14450,Monroe,POINT (-77.439523422 43.069521362)
Canandaigua National Corporation,18 State Street,Pittsford,14534,Monroe,POINT (-77.514019849 43.090715885)
Canandaigua National Corporation,61 West Main Street,Victor,14564,Ontario,POINT (-77.411629957 42.983205655)
Canandaigua National Corporation,1998 Empire Boulevard,Webster,14580,Monroe,POINT (-77.500896388 43.193714806)
Canandaigua National Corporation,2075 Monroe Avenue,Rochester,14618,Monroe,POINT (-77.562466998 43.12398852)
Canandaigua National Corporation,1816 Penfield Road,Penfield,14526,Monroe,POINT (-77.476357192 43.130192847)
Canandaigua National Corporation,119 South Main Street,Manchester,14504,Ontario,POINT (-77.230186614 42.960605598)
Canandaigua National Corporation,45 East Main Street,Rochester,14614,Monroe,POINT (-77.611446985 43.155776511)
Canandaigua National Corporation,1155 Ridge Road,Webster,14580,Monroe,POINT (-77.443743291 43.209992295)
Canandaigua National Corporation,17 Chapin Street,Canandaigua,14424,Ontario,POINT (-77.282127232 42.88649352)
Canandaigua National Corporation,1575 Mount Hope Avenue,Rochester,14620,Monroe,POINT (-77.620576638 43.119200148)
Canandaigua National Corporation,3204 Latta Road,Rochester,14626,Monroe,POINT (-77.699021025 43.253555644)
Canandaigua National Corporation,1341 Mount Hope Avenue,Rochester,14620,Monroe,POINT (-77.618464901 43.123559618)
Canandaigua National Corporation,291 Hamilton Street,Geneva,14456,Ontario,POINT (-76.994635052 42.858430717)
Canandaigua National Corporation,4765 Lake Rd,Brockport,14420,Monroe,POINT (-77.943543509 43.199066845)
Canandaigua National Corporation,1225 Commons Way,Rochester,14623,Monroe,POINT (-77.607051012 43.083297062)
Canandaigua National Corporation,709 South Main Street,Canandaigua,14424,Ontario,POINT (-77.273423522 42.876970613)
Canandaigua National Corporation,210 Alexander Street,Rochester,14607,Monroe,POINT (-77.597170257 43.149316955)
Canandaigua National Corporation,2455 West Ridge Road,Rochester,14626,Monroe,POINT (-77.694086096 43.209175562)
Canandaigua National Corporation,8633 U.S. Route 20A,Honeoye,14471,Ontario,POINT (-77.510056698 42.789488315)
Canandaigua National Corporation,6183 Route 96,Farmington,14425,Ontario,POINT (-77.362829128 42.974292094)
Canandaigua National Corporation,3228 Chili Avenue,Rochester,14626,Monroe,POINT (-77.752859498 43.104342638)
Canandaigua National Corporation,60-70 South Main Street,Canandaigua,14424,Ontario,POINT (-77.280765902 42.886699867)
Canandaigua National Corporation,7979 Victor Pittsford Road,Victor,14564,Ontario,POINT (-77.4413978 43.03176071)
Canandaigua National Corporation,4 Main Street,Bloomfield,14469,Ontario,POINT (-77.420339844 42.901876803)
Capital Communications Federal CU,4 Century Hill Drive,Latham,12110,Albany,POINT (-73.754197067 42.770881864)
Capital Communications Federal CU,582 Balltown Road,Schenectady,12304,Schenectady,POINT (-73.892418004 42.783530742)
Capital Communications Federal CU,341 New Karner Road,Albany,12205,Albany,POINT (-73.854931702 42.728513187)
Capital Communications Federal CU,384 Bender Lane,Glenmont,12077,Albany,POINT (-73.7914615 42.606347703)
Capital Communications Federal CU,4 Winners Circle,Albany,12205,Albany,POINT (-73.796046066 42.720066953)
Capital Communications Federal CU,899 Western Ave,Albany,12203,Albany,POINT (-73.809173467 42.672460215)
Capital Communications Federal CU,219 Ontario Street,Cohoes,12047,Albany,POINT (-73.695904619 42.77428894)
Capital Communications Federal CU,2439 Route 9,Malta,12020,Saratoga,POINT (-73.791584044 42.966673944)
Capital Communications Federal CU,1744 Route 9,Clifton Park,12065,Saratoga,POINT (-73.774579425 42.870335492)
Capital Communications Federal CU,799 Hoosick Street,Brunswick,12180,Rensselaer,POINT (-73.636076136 42.748892323)
Capital Communications Federal CU,100 Van Rensselaer Square,Rensselaer,12144,Rensselaer,POINT (-73.689471005 42.653635341)
"Capital One, N.A.",501 BROADWAY,NEW YORK,10012,New York,POINT (-73.999688846 40.722239367)
"Capital One, N.A.",2003 SMITH HAVEN PLAZA,LAKE GROVE,11755,Suffolk,POINT (-73.130412313 40.868246002)
"Capital One, N.A.",557 MELROSE AVENUE,BRONX,10455,Bronx,POINT (-73.917807794 40.816391106)
"Capital One, N.A.",249 EAST 86TH STREET,NEW YORK,10028,New York,POINT (-73.951887774 40.778150056)
"Capital One, N.A.",215 WEST 34TH STREET,NEW YORK,10001,New York,POINT (-73.991373328 40.751492167)
"Capital One, N.A.",11700 MAIN ROAD,MATTITUCK,11952,Suffolk,POINT (-72.534902419 40.988330151)
"Capital One, N.A.",19 WEST JERICHO TURNPIKE,HUNTINGTON STATION,11746,Suffolk,POINT (-73.410235612 40.828773901)
"Capital One, N.A.",301 WEST 125TH STREET,NEW YORK,10027,New York,POINT (-73.951448646 40.810461706)
"Capital One, N.A.",341 EASTERN PARKWAY,BROOKLYN,11216,Kings,POINT (-73.957511528 40.670966553)
"Capital One, N.A.",1328 BROADWAY,MANHATTAN,10001,New York,POINT (-73.987480353 40.749846464)
"Capital One, N.A.",299 PARK AVE,NEW YORK,10171,New York,POINT (-73.974449427 40.756047941)
"Capital One, N.A.",731 Lexington Avenue,New York,10022,New York,POINT (-73.968257547 40.761882542)
"Capital One, N.A.",750 MIDDLE COUNTRY RD,Middle Island,11953,Suffolk,POINT (-72.94711434 40.880047386)
"Capital One, N.A.",1307 WALT WHITMAN RD,MELVILLE,11747,Suffolk,POINT (-73.425321865 40.784331332)
"Capital One, N.A.",611 FIFTH AVENUE,New York,10022,New York,POINT (-73.977263483 40.758160684)
"Capital One, N.A.",61-24 188TH ST,FLUSHING,11365,Queens,POINT (-73.786459013 40.739862025)
"Capital One, N.A.",1223 Avenue J,Brooklyn,11230,Kings,POINT (-73.96341331 40.625094828)
"Capital One, N.A.",1523 AVENUE U,Brooklyn,11229,Kings,POINT (-73.955628366 40.599050452)
"Capital One, N.A.",422 Hillside Avenue,Williston Park,11596,Nassau,POINT (-73.657079308 40.754248179)
"Capital One, N.A.",300 SOUTH WELLWOOD AVENUE,LINDENHURST,11757,Suffolk,POINT (-73.370087889 40.684241811)
"Capital One, N.A.",216-19 JAMAICA AVENUE,QUEENS VILLAGE,11423,Queens,POINT (-73.738246976 40.717851525)
"Capital One, N.A.",37-02 82 STREET,JACKSON HEIGHTS,11372,Queens,POINT (-73.884450166 40.749620865)
"Capital One, N.A.",2050 JERICHO TURNPIKE,COMMACK,11725,Suffolk,POINT (-73.273599191 40.844644783)
"Capital One, N.A.",3230 SUNRISE HIGHWAY,WANTAGH,11793,Nassau,POINT (-73.509918905 40.671361382)
"Capital One, N.A.",466 CENTRAL AVENUE,CEDARHURST,11516,Nassau,POINT (-73.725001139 40.621083291)
"Capital One, N.A.",225 GLEN COVE ROAD,CARLE PLACE,11514,Nassau,POINT (-73.617377083 40.748118325)
"Capital One, N.A.",611 HEMPSTEAD AVENUE,WEST HEMPSTEAD,11552,Nassau,POINT (-73.657151407 40.693320473)
"Capital One, N.A.",144 MANETTO HILL ROAD,PLAINVIEW,11803,Nassau,POINT (-73.472892266 40.782273701)
"Capital One, N.A.",75-21 MAIN STREET,KEW GARDENS HILLS,11367,Queens,POINT (-73.819924851 40.723542418)
"Capital One, N.A.",2150-54 86TH STREET,BROOKLYN,11214,Kings,POINT (-73.994966398 40.602432299)
"Capital One, N.A.",2530 FLATBUSH AVENUE,BROOKLYN,11234,Kings,POINT (-73.92161804 40.608620448)
"Capital One, N.A.",95-25 QUEENS BOULEVARD,REGO PARK,11374,Queens,POINT (-73.863610324 40.730911871)
"Capital One, N.A.",1701 SUNRISE HIGHWAY,BAY SHORE,11706,Suffolk,POINT (-73.245995237 40.739489994)
"Capital One, N.A.",315 WYCKOFF AVENUE,BROOKLYN,11237,Kings,POINT (-73.911838789 40.700100665)
"Capital One, N.A.",3345 FULTON STREET,BROOKLYN,11208,Kings,POINT (-73.871922742 40.683855196)
"Capital One, N.A.",40-20 QUEENS BOULVARD,SUNNYSIDE,11104,Queens,POINT (-73.923575549 40.743451324)
"Capital One, N.A.",530 NORTH BROADWAY,WHITE PLAINS,10603,Westchester,POINT (-73.770050599 41.05156669)
"Capital One, N.A.",31-17 BROADWAY,ASTORIA,11102,Queens,POINT (-73.924659413 40.761777391)
"Capital One, N.A.",1425 ROCKAWAY PARKWAY,BROOKLYN,11236,Kings,POINT (-73.902254838 40.645407322)
"Capital One, N.A.",41-60 MAIN STREET,FLUSHING,11355,Queens,POINT (-73.828847638 40.75626629)
"Capital One, N.A.",1745 Broadway,New York,10019,New York,POINT (-73.982263959 40.765243643)
"Capital One, N.A.",244 BEDFORD AVE,BROOKLYN,11249,Kings,POINT (-73.959894168 40.715971841)
"Capital One, N.A.",369 MERRICK AVE,EAST MEADOW,11554,Nassau,POINT (-73.57260104 40.71337739)
"Capital One, N.A.",380 HILLSIDE AVE,WILLISTON PARK,11596,Nassau,POINT (-73.654948377 40.754039428)
"Capital One, N.A.",750 W SUNRISE HWY,VALLEY STREAM,11581,Nassau,POINT (-73.727144978 40.663953163)
"Capital One, N.A.",853 BROADWAY,NEW YORK,10003,New York,POINT (-73.990979965 40.734598944)
"Capital One, N.A.",991 THIRD AVE,NEW YORK,10022,New York,POINT (-73.966353933 40.761569101)
"Capital One, N.A.",46 EAST ROUTE 59,NANUET,10954,Rockland,POINT (-74.009852407 41.096875654)
"Capital One, N.A.",7110 5TH AVENUE,BROOKLYN,11209,Kings,POINT (-74.021643146 40.632350412)
"Capital One, N.A.",190 Broadway,Hicksville,11801,Nassau,POINT (-73.520452191 40.764288232)
"Capital One, N.A.",991 THIRD AVENUE,NEW YORK,10022,New York,POINT (-73.966353933 40.761569101)
"Capital One, N.A.",3721 HEMPSTEAD TURNPIKE,LEVITTOWN,11756,Nassau,POINT (-73.498468387 40.72590251)
"Capital One, N.A.",764 WHITE PLAINS ROAD,SCARSDALE,10583,Westchester,POINT (-73.803198344 40.973788202)
"Capital One, N.A.",2159 WHITE PLAINS ROAD,BRONX,10462,Bronx,POINT (-73.867883083 40.855261218)
"Capital One, N.A.",131 PORTION ROAD,RONKONKOMA,11779,Suffolk,POINT (-73.108455834 40.826068265)
"Capital One, N.A.",5102 CHURCH AVENUE,BROOKLYN,11203,Kings,POINT (-73.929105259 40.651887036)
"Capital One, N.A.",516 5TH AVENUE,BROOKLYN,11215,Kings,POINT (-73.988368248 40.666933391)
"Capital One, N.A.",510 GRAMATAN AVENUE,MOUNT VERNON,10552,Westchester,POINT (-73.836607688 40.924742921)
"Capital One, N.A.",40 NEWTOWN LANE,EAST HAMPTON,11937,Suffolk,POINT (-72.186500212 40.964422347)
"Capital One, N.A.",20-02 FRANCIS LEWIS BOULEVARD,WHITESTONE,11357,Queens,POINT (-73.802883352 40.78023715)
"Capital One, N.A.",1080 ROUTE 58,RIVERHEAD,11901,Suffolk,POINT (-72.675706615 40.932473776)
"Capital One, N.A.",4625 SUNRISE HIGHWAY,BOHEMIA,11716,Suffolk,POINT (-73.114599769 40.755882818)
"Capital One, N.A.",46 WINDMILL LANE,SOUTHAMPTON,11968,Suffolk,POINT (-72.392350786 40.884761452)
"Capital One, N.A.",45-05 BELL BOULEVARD,BAYSIDE,11364,Queens,POINT (-73.768962544 40.76006413)
"Capital One, N.A.",115 FOREST AVENUE,GLEN COVE,11542,Nassau,POINT (-73.620907876 40.873935386)
"Capital One, N.A.",620 WEST 181ST STREET,NEW YORK,10033,New York,POINT (-73.934886928 40.849673255)
"Capital One, N.A.",800 MONTAUK HIGHWAY,SHIRLEY,11967,Suffolk,POINT (-72.869230869 40.800200706)
"Capital One, N.A.",1085 NORTHERN BOULEVARD,ROSLYN,11576,Nassau,POINT (-73.660167453 40.799450442)
"Capital One, N.A.",1166 AVENUE OF THE AMERICAS,NEW YORK,10036,New York,POINT (-73.982259936 40.757013536)
"Capital One, N.A.",121 MIDDLE NECK ROAD,GREAT NECK,11021,Nassau,POINT (-73.729982923 40.790117402)
"Capital One, N.A.",151 EAST FORDHAM ROAD,BRONX,10468,Bronx,POINT (-73.897911503 40.862566466)
"Capital One, N.A.",2303 GRAND AVENUE,BALDWIN,11510,Nassau,POINT (-73.610042498 40.654663919)
"Capital One, N.A.",1941 WILLIAMSBRIDGE ROAD,BRONX,10461,Bronx,POINT (-73.853823279 40.853163354)
"Capital One, N.A.",4201 WHITE PLAINS ROAD,BRONX,10466,Bronx,POINT (-73.857415763 40.89373122)
"Capital One, N.A.",3159 BAINBRIDGE AVENUE,BRONX,10467,Bronx,POINT (-73.879592351 40.874769343)
"Capital One, N.A.",114-19 LIBERTY AVENUE,RICHMOND HILL,11419,Queens,POINT (-73.827935268 40.685845311)
"Capital One, N.A.",1995 New Highway,Farmingdale,11735,Nassau,POINT (-73.414143004 40.754435305)
"Capital One, N.A.",155-14 CROSS BAY BOULEVARD,HOWARD BEACH,11414,Queens,POINT (-73.841496014 40.664521666)
"Capital One, N.A.",175 West 72nd Street,New York,10023,New York,POINT (-73.981194931 40.778604858)
"Capital One, N.A.",116 E.MAIN STREET,PATCHOGUE,11772,Suffolk,POINT (-73.012540207 40.765348459)
"Capital One, N.A.",257-03 HILLSIDE AVENUE,FLORAL PARK,11004,Nassau,POINT (-73.710828346 40.736976848)
"Capital One, N.A.",347 Sixth Avenue,New York,10014,New York,POINT (-74.000917294 40.731880454)
"Capital One, N.A.",3517 Johnson Avenue,Bronx,10463,Bronx,POINT (-73.910002734 40.886139437)
"Capital One, N.A.",11 East Park Avenue,Long Beach,11561,Nassau,POINT (-73.664102672 40.588910361)
"Capital One, N.A.",380 Hillside Avenue,Williston Park,11596,Nassau,POINT (-73.654948377 40.754039428)
"Capital One, N.A.",470 PARK AVENUE,NEW YORK,10016,New York,POINT (-73.982601917 40.745671941)
"Capital One, N.A.",4612 13TH AVENUE,BROOKLYN,11219,Kings,POINT (-73.990790618 40.636512027)
"Capital One, N.A.",172 MONTAUK HIGHWAY,SPEONK,11972,Suffolk,POINT (-72.693215512 40.818826259)
"Capital One, N.A.",146-21 JAMAICA AVENUE,JAMAICA,11435,Queens,POINT (-73.810452421 40.702081425)
"Capital One, N.A.",1745 BROADWAY,NEW YORK,10019,New York,POINT (-73.982263959 40.765243643)
"Capital One, N.A.",61-24 188TH STREET,FLUSHING,11365,Queens,POINT (-73.786459013 40.739862025)
"Capital One, N.A.",927 FLATBUSH AVENUE,BROOKLYN,11226,Kings,POINT (-73.95822508 40.649151141)
"Capital One, N.A.",211 DYCKMAN STREET,NEW YORK,10040,New York,POINT (-73.926856142 40.865262547)
Carver Federal Savings Bank,833 FLATBUSH AVENUE,BROOKLYN,11226,Kings,POINT (-73.958922622 40.651895334)
Carver Federal Savings Bank,1392 Fulton Street,Brooklyn,11216,Kings,POINT (-73.945072281 40.680029779)
Carver Federal Savings Bank,142 Malcolm X Boulevard,New York,10026,New York,POINT (-73.948863303 40.802896175)
Carver Federal Savings Bank,4 Hanson Place,Brooklyn,11217,Kings,POINT (-73.977004566 40.685076942)
Carver Federal Savings Bank,141 FLUSHING AVENUE BUILDING 77,BROOKLYN,11205,Kings,POINT (-73.971195404 40.698121363)
Carver Federal Savings Bank,1009 Nostrand Avenue,Brooklyn,11225,Kings,POINT (-73.950789577 40.663758745)
Carver Federal Savings Bank,115-02 Merrick Boulevard,Jamaica,11434,Queens,POINT (-73.777976359 40.689729024)
Carver Federal Savings Bank,160 CONVENT AVE,NEW YORK,10031,New York,POINT (-73.950170658 40.81941559)
Carver Federal Savings Bank,139 Flatbush Avenue,Brooklyn,11217,New York,POINT (-73.977483592 40.684492262)
Carver Federal Savings Bank,75 West 125th Street,New York,10027,New York,POINT (-73.944790649 40.807659342)
Cathay Bank,45 EAST BROADWAY,NEW YORK,10002,New York,POINT (-73.995915397 40.713471896)
Cathay Bank,159 Canal St,NY,10013,New York,POINT (-73.996511267 40.71654466)
Cathay Bank,6912 18th Ave,Brooklyn,11201,Kings,POINT (-73.992940324 40.616609156)
Cathay Bank,41-48 Main Street,Flushing,11355,Queens,POINT (-73.829106471 40.756656467)
Cathay Bank,82-62 Broadway,Elmhurst,11373,Queens,POINT (-73.881068739 40.741698542)
Cathay Bank,36-54 Main Street,Flushing,11354,Queens,POINT (-73.831443178 40.761804423)
Cathay Bank,5402 8th Avenue,Brooklyn,11220,Kings,POINT (-74.006261851 40.638873712)
Cathay Bank,40-14 Main Street,Flushing,11354,Queens,POINT (-73.830134512 40.75914539)
Catskill Hudson Bank,148 GEORGE STREET,GREEN ISLAND,12183,Albany,POINT (-73.691338326 42.745642277)
Catskill Hudson Bank,643 Route 211 East,Middletown,10941,Orange,POINT (-74.36558264 41.465395163)
Catskill Hudson Bank,101 KINGS MALL COURT,KINGSTON,12401,Ulster,POINT (-73.98920627 41.964149793)
Catskill Hudson Bank,244 Rock Hill Drive,Rock Hill,12775,Sullivan,POINT (-74.594905309 41.624197444)
Catskill Hudson Bank,120 Kirk Road,Narrowsburg,12764,Sullivan,POINT (-75.056001262 41.612139406)
Catskill Hudson Bank,9 Lower Main Street,Callicoon,12723,Sullivan,POINT (-75.056307118 41.765069408)
Catskill Hudson Bank,103 Canal Street,Ellenville,12428,Ulster,POINT (-74.393909031 41.716806535)
Catskill Hudson Bank,1987 State Route 52,Liberty,12754,Sullivan,POINT (-74.72505816 41.784318449)
Catskill Hudson Bank,279 Main Street,Grahamsville,12740,Sullivan,POINT (-74.548407958 41.84759725)
Catskill Hudson Bank,4445 STATE ROUTE 42 NORTH,MONTICELLO,12701,Sullivan,POINT (-74.67433105 41.668936481)
Catskill Hudson Bank,1685 State Route 9,Halfmoon,12065,Saratoga,POINT (-73.7668152 42.861006124)
Cattaraugus County Bank,42 Main Street,Randolph,14772,Cattaraugus,POINT (-78.969962466 42.163778395)
Cattaraugus County Bank,517 PINE STREET,SOUTH DAYTON,14138,Cattaraugus,POINT (-79.057344226 42.364418401)
Cattaraugus County Bank,1165 Main Street,Dunkirk,14048,Chautauqua,POINT (-79.324835449 42.457983342)
Cattaraugus County Bank,284 East Fairmount Avenue,Lakewood,14750,Chautauqua,POINT (-79.30677332 42.097820319)
Cattaraugus County Bank,325 South Cascade Drive,Springville,14141,Erie,POINT (-78.690402274 42.500527684)
Cattaraugus County Bank,550 Broad Street,Salamanca,14779,Cattaraugus,POINT (-78.735392307 42.158544274)
Cattaraugus County Bank,120 Main Street,Little Valley,14755,Cattaraugus,POINT (-78.798518096 42.249947503)
Cayuga Lake National Bank,3077 N Triphammer Rd,Lansing,14882,Tompkins,POINT (-76.492325615 42.536681263)
Cayuga Lake National Bank,397 Main Street,Aurora,13026,Cayuga,POINT (-76.703088487 42.754979172)
Cayuga Lake National Bank,165 CAYUGA STREET,UNION SPRINGS,13160,Cayuga,POINT (-76.692261331 42.842617879)
Champlain National Bank,2687 Main Street,Crown Point,12928,Essex,POINT (-73.422376715 43.950272679)
Champlain National Bank,6478 Main Street,Westport,12993,Essex,POINT (-73.433007651 44.182516483)
Champlain National Bank,3900 State Route 22,Willsboro,12996,Essex,POINT (-73.395866124 44.369982492)
Champlain National Bank,10849 NYS Route 9N,Keene,12942,Essex,POINT (-73.787290498 44.252226886)
Champlain National Bank,2040 Saranac Avenue,Lake Placid,12946,Essex,POINT (-74.002193694 44.295864079)
Champlain National Bank,636 Route 11,Champlain,12919,Clinton,POINT (-73.423394362 44.983522163)
Champlain National Bank,7558 Court Street,Elizabethtown,12932,Essex,POINT (-73.594003307 44.214265162)
Champlain National Bank,32 Cornelia Street,Plattsburgh,12901,Clinton,POINT (-73.453263274 44.699628276)
Champlain National Bank,151Church Street,Saranac Lake,12983,Franklin,POINT (-74.130848867 44.328720846)
Champlain National Bank,500 State Route 3,Plattsburg,12901,Clinton,POINT (-73.497077578 44.69672445)
Chemung Canal Trust Company,201 BATH PLAZA,BATH,14810,Steuben,POINT (-77.332266829 42.338438063)
Chemung Canal Trust Company,149 West Market Street,Corning,14830,Steuben,POINT (-77.060273903 42.14487733)
Chemung Canal Trust Company,100 West McCann's Boulevard,Elmira Heights,14903,Chemung,POINT (-76.823419089 42.118977877)
Chemung Canal Trust Company,602 South Main Street,Horseheads,14845,Chemung,POINT (-76.818415596 42.16329346)
Chemung Canal Trust Company,303 West Main Street,Montour Falls,14865,Schuyler,POINT (-76.847879578 42.346003359)
Chemung Canal Trust Company,203 Main Street,Owego,13827,Tioga,POINT (-76.261712469 42.10413097)
Chemung Canal Trust Company,951 Pennsylvania Avenue,Elmira,14904,Chemung,POINT (-76.808768277 42.06119706)
Chemung Canal Trust Company,318 North Franklin Street,Watkins Glen,14891,Schuyler,POINT (-76.873286467 42.380820486)
Chemung Canal Trust Company,405 Chemung St.,Waverly,14892,Tioga,POINT (-76.535056474 42.007401293)
Chemung Canal Trust Company,628 West Church Street,Elmira,14905,Chemung,POINT (-76.821937755 42.086177562)
Chemung Canal Trust Company,29 Arnot Road,Horseheads,14845,Chemung,POINT (-76.875106262 42.162108888)
Chemung Canal Trust Company,65 Wolf Road,Albany,12205,Albany,POINT (-73.814103871 42.713530954)
Chemung Canal Trust Company,909 Hanshaw Road,Ithaca,14850,Tompkins,POINT (-76.478801331 42.468698831)
Chemung Canal Trust Company,594 LOUDON ROAD,LATHAM,12110,Albany,POINT (-73.761138876 42.727865392)
Chemung Canal Trust Company,806 West Buffalo Street,Ithaca,14850,Tompkins,POINT (-76.513138216 42.441469255)
Chemung Canal Trust Company,127 Court Street,Binghamton,13901,Broome,POINT (-75.909350336 42.099528719)
Chemung Canal Trust Company,1365 New Scotland Road,Slingerlands,12159,Albany,POINT (-73.857979362 42.638805533)
Chemung Canal Trust Company,110 GENESEE STREET,AUBURN,13021,Cayuga,POINT (-76.567352785 42.930796129)
Chemung Canal Trust Company,185 Grant Avenue,Auburn,13021,Cayuga,POINT (-76.549412243 42.946928527)
Chemung Canal Trust Company,953 Danby Rd,Ithaca,14850,Tompkins,POINT (-76.500353551 42.421900822)
Chemung Canal Trust Company,2 Rush St,Schenectady,12305,Schenectady,POINT (-73.93544424 42.822101201)
Chemung Canal Trust Company,3057 Route 50,Saratoga Springs,12866,Saratoga,POINT (-73.741242166 43.103867971)
Chemung Canal Trust Company,9159 Main St,Clarence,14031,Erie,POINT (-78.649279819 42.968894394)
Chemung Canal Trust Company,55 Eagle St,Albany,12207,Albany,POINT (-73.756136724 42.650062806)
Chemung Canal Trust Company,25 PARK AVE,CLIFTON PARK,12065,Albany,POINT (-73.783726261 42.865233972)
Chemung Canal Trust Company,100 Rano Boulevard,Vestal,13850,Broome,POINT (-76.004943175 42.093665829)
Chemung Canal Trust Company,54 Fall Street,Seneca Falls,13148,Seneca,POINT (-76.796625078 42.910562802)
Chemung Canal Trust Company,1094 Highway 222,Cortland,13045,Cortland,POINT (-76.202469764 42.598402371)
Chemung Canal Trust Company,One Chemung Canal Plaza,Elmira,14902,Chemung,POINT (-76.803143433 42.08866485)
Citibank N. A.,730 Veterans Memorial Highway,Hauppauge,11788,Suffolk,POINT (-73.235407133 40.824773009)
Citibank N. A.,15 Southdown Road,Huntington,11743,Suffolk,POINT (-73.42565186 40.880543427)
Citibank N. A.,4175 Veterans Memorial Highway,Ronkonkoma,11779,Suffolk,POINT (-73.098696281 40.782992952)
Citibank N. A.,Robbins Lane,Jericho,11753,Nassau,POINT (-73.525602088 40.801461544)
Citibank N. A.,100 Sunnyside Boulevard,Plainview,11803,Nassau,POINT (-73.470668715 40.794352442)
Citibank N. A.,4800 Nesconset Highway,Port Jefferson Station,11776,Suffolk,POINT (-73.054718614 40.91764018)
Citibank N. A.,684 Middle Country Road,Selden,11784,Suffolk,POINT (-73.036445311 40.865889052)
Citibank N. A.,300 Walt Whitman Center,Huntington Station,11746,Suffolk,POINT (-73.41111127 40.819530967)
Citibank N. A.,200 Belle Terre Road,Port Jefferson Station,11777,Suffolk,POINT (-73.06121132 40.946537545)
Citibank N. A.,8900 Van Wyck Expressway,Jamaica,11418,Queens,POINT (-73.81579274 40.700265915)
Citibank N. A.,4 Columbus Circle,New York,10019,New York,POINT (-73.982809286 40.76746929)
Citibank N. A.,340 East 93rd Street,New York,10128,New York,POINT (-73.946509526 40.781317535)
Citibank N. A.,1445 East 82nd Street,New York,10028,New York,POINT (-73.954463896 40.775640797)
Citibank N. A.,86 Main Street,Yonkers,10701,Westchester,POINT (-73.902071358 40.934610055)
Citibank N. A.,80 Broad Street,New York,10004,New York,POINT (-74.011713441 40.704277661)
Citibank N. A.,1391 Madison Avenue,New York,10128,New York,POINT (-73.953670437 40.787678436)
Citibank N. A.,333 Park Avenue South,New York,10022,New York,POINT (-73.985448747 40.741161849)
Citibank N. A.,1384 Broadway,New York,10018,New York,POINT (-73.987175754 40.752621671)
Citibank N. A.,441 Columbus Avenue,New York,10024,New York,POINT (-73.974269635 40.783308866)
Citibank N. A.,666 Fifth Avenue,New York,10103,New York,POINT (-73.976420934 40.760557196)
Citibank N. A.,974 Third Avenue,New York,10022,New York,POINT (-73.967007303 40.761300126)
Citibank N. A.,170 North Main Street,New City,10956,Rockland,POINT (-73.988018052 41.154588746)
Citibank N. A.,785 Fifth Avenue,New York,10022,New York,POINT (-73.972516476 40.7646479)
Citibank N. A.,1727 Veterans Memorial Highway,Islandia,11749,Nassau,POINT (-73.179975596 40.805884977)
Citibank N. A.,3924 East Tremont Avenue,Bronx,10465,Bronx,POINT (-73.819053552 40.821692199)
Citibank N. A.,2481 Adam Clayton Boulevard,New York,10030,New York,POINT (-73.939214253 40.821000943)
Citibank N. A.,18 East Main Street,Smithtown,11787,Suffolk,POINT (-73.193348252 40.854445449)
Citibank N. A.,263 Sea Cliff Avenue,Sea Cliff,11579,Nassau,POINT (-73.646420712 40.849000523)
Citibank N. A.,51 Middle Neck Road,Great Neck,11022,Nassau,POINT (-73.728693115 40.788048874)
Citibank N. A.,1330 First Avenue,New York,10021,New York,POINT (-73.956048886 40.767412084)
Citibank N. A.,3002 Mermaid Avenue,Brooklyn,11224,Kings,POINT (-73.996581423 40.575202136)
Citibank N. A.,1050 Franklin Avenue,Garden City,11530,Nassau,POINT (-73.636493941 40.730827256)
Citibank N. A.,190 West Montauk Highway,Hampton Bays,11946,Suffolk,POINT (-72.537319321 40.875986396)
Citibank N. A.,3195 Long Beach Road,Oceanside,11572,Nassau,POINT (-73.639741174 40.633474887)
Citibank N. A.,115 East 23rd Street,New York,10010,New York,POINT (-73.985531393 40.740015079)
Citibank N. A.,842 Ninth Avenue,New York,10019,New York,POINT (-73.986421886 40.766653563)
Citibank N. A.,787 Seventh Avenue,New York,10019,New York,POINT (-73.982373427 40.761950938)
Citibank N. A.,1285  First Avenue,New York,10021,New York,POINT (-73.957442881 40.766143441)
Citibank N. A.,200 Varick Street,New York,10014,New York,POINT (-74.005213107 40.728010349)
Citibank N. A.,68 South Service Road,Melville,11747,Suffolk,POINT (-73.438189008 40.781783946)
Citibank N. A.,78-09 Metropolitan,Middle Village,11379,New York,POINT (-73.875037876 40.713270353)
Citibank N. A.,145 East 42nd Street,New York,10017,New York,POINT (-73.975245456 40.751283584)
Citibank N. A.,22 West 32nd Street,New York,10001,New York,POINT (-73.986861265 40.747631085)
Citibank N. A.,64-20 108th Street,Forest Hills,11375,Queens,POINT (-73.849551693 40.732346643)
Citibank N. A.,1042 Madison Avenue,New York,10075,New York,POINT (-73.962026021 40.776712057)
Citibank N. A.,1900 Broadway,New York,10023,New York,POINT (-73.981886354 40.77171682)
Citibank N. A.,702 Brighton Beach Avenue,Brooklyn,11235,Kings,POINT (-73.960408482 40.577664445)
Citibank N. A.,400 Madison Avenue,New York,10017,New York,POINT (-73.976878251 40.756365992)
Citibank N. A.,424 5th Avenue,Brooklyn,11215,Kings,POINT (-73.98584739 40.669959341)
Citibank N. A.,139 Flatush Avenue,Brooklyn,11217,Kings,POINT (-73.977483592 40.684492262)
Citibank N. A.,476 Broadway,New York,10013,New York,POINT (-74.000098637 40.721315598)
Citibank N. A.,388 Greenwich Street,New York,10013,New York,POINT (-74.010719431 40.72060783)
Citibank N. A.,52 East 14th Street,New York,10003,New York,POINT (-73.990134734 40.734366388)
Citibank N. A.,749 Broadway,New York,10003,New York,POINT (-73.992789618 40.7303748)
Citibank N. A.,1781 First Avenue,New York,10128,New York,POINT (-73.946569038 40.781095624)
Citibank N. A.,3454 Jerome Avenue,Bronx,10467,Bronx,POINT (-73.882313284 40.881554159)
Citibank N. A.,2872 Broadway,New York,10025,New York,POINT (-73.965685896 40.805114722)
Citibank N. A.,120 West Broadway,New York,10013,New York,POINT (-74.008627894 40.716548097)
Citibank N. A.,1105 Old Country Road,Plainview,11803,Nassau,POINT (-73.465992284 40.77531802)
Citibank N. A.,2201 86th Street,Brooklyn,11214,Kings,POINT (-73.993522448 40.601982735)
Citibank N. A.,1065 Avenue of the Americas,New York,10018,New York,POINT (-73.985085559 40.753827743)
Citibank N. A.,94-20 Guy R. Brewer Boulevard,Jamaica,11452,Queens,POINT (-73.796003151 40.701813968)
Citibank N. A.,Hofstra University,Hempstead,11550,Nassau,POINT (-73.602089106 40.718769893)
Citibank N. A.,36 Avenue C,New York,10009,New York,POINT (-73.980389346 40.721752965)
Citibank N. A.,1108 Route 112,Port Jefferson,11776,Suffolk,POINT (-73.040723853 40.918369363)
Citibank N. A.,60 Loehmann Plaza,Lake Grove,11755,Suffolk,POINT (-73.11865 40.855626)
Citibank N. A.,603 Burnside Avenue,Inwood,11096,Queens,POINT (-73.743184755 40.624230863)
Citibank N. A.,248 Sunrise Highway,Freeport,11520,Nassau,POINT (-73.572271715 40.655684206)
Citibank N. A.,45 7th Street,Garden City,11530,Nassau,POINT (-73.640628398 40.724616056)
Citibank N. A.,1141 Richmond Avenue,Staten Island,10302,Richmond,POINT (-74.152957607 40.620150907)
Citibank N. A.,5508 Sunrise Highway,Massapequa,11758,Nassau,POINT (-73.437058289 40.675500869)
Citibank N. A.,3955 Baychester Avenue,Bronx,10466,Bronx,POINT (-73.842785821 40.889954293)
Citibank N. A.,1800 Williamsbridge Road,Bronx,10461,Bronx,POINT (-73.851316838 40.850547571)
Citibank N. A.,80 Jamaica Avenue,Brooklyn,11207,Kings,POINT (-73.896932664 40.678284038)
Citibank N. A.,1 Rockefeller Plaza,New York,10020,New York,POINT (-73.979008679 40.758097149)
Citibank N. A.,1345 Avenue of the Americas,New York,10105,New York,POINT (-73.978725622 40.762888077)
Citibank N. A.,90 Park Avenue,New York,10016,New York,POINT (-73.978946988 40.75080724)
Citibank N. A.,800 Third Avenue,New York,10022,New York,POINT (-73.971203786 40.75559821)
Citibank N. A.,866 United Nations Plaza,New York,10017,New York,POINT (-73.966040282 40.752324448)
Citibank N. A.,1871 Nostrand Avenue,Brooklyn,11226,Kings,POINT (-73.948270061 40.640173033)
Citibank N. A.,50 Avenue A,New York,10009,New York,POINT (-73.984896044 40.72393138)
Citibank N. A.,168-48 Hillside Avenue,Jamaica,11432,Queens,POINT (-73.793132936 40.710507133)
Citibank N. A.,133-07 Rockaway Boulevard,South Ozone Park,11420,Queens,POINT (-73.80498436 40.674830401)
Citibank N. A.,120 Broadway,New York,10271,New York,POINT (-74.011013468 40.708363881)
Citibank N. A.,1107 Broadway,New York,10010,New York,POINT (-73.989345661 40.742652193)
Citibank N. A.,199 Second Street,Mineola,11501,Nassau,POINT (-73.639777467 40.741294576)
Citibank N. A.,215 Jericho Turnpike,Floral Park,11001,Nassau,POINT (-73.702640232 40.729149073)
Citibank N. A.,23 Glen Cove Avenue,Glen Cove,11542,Nassau,POINT (-73.63277489 40.862522251)
Citibank N. A.,1650 Bedford Avenue,Brooklyn,11225,Kings,POINT (-73.956990928 40.666088243)
Citibank N. A.,2445 Oceanside Road,Oceanside,11572,Nassau,POINT (-73.631715709 40.652462647)
Citibank N. A.,99 Garnsey Road,Pittsford,14534,Monroe,POINT (-77.466211402 43.052948622)
Citibank N. A.,1524 Union Turnpike,New Hyde Park,11040,Nassau,POINT (-73.691719786 40.753500387)
Citibank N. A.,66 Bayview Avenue,Manhasset,11030,Nassau,POINT (-73.702077388 40.797647285)
Citibank N. A.,114 Old Country Road,Mineola,11501,Nassau,POINT (-73.634873132 40.740072704)
Citibank N. A.,830 Port Washington Boulevard,Port Washington,11050,Nassau,POINT (-73.684085549 40.828360715)
Citibank N. A.,1075 Old Northern Boulevard,Roslyn,11576,Nassau,POINT (-73.657460843 40.800702203)
Citibank N. A.,2160 Bedford Avenue,Bellmore,11710,Nassau,POINT (-73.528024905 40.670042071)
