Business Name,Street,Street2,City,State,Zip
"108 COMPANIES, LLC",5 PORTER ROAD,,ASHTON,MD,20861
"11200 ROCKVILLE PIKE, LLC",4520 EAST WEST HWY,SUITE 200,BETHESDA,MD,20814
1600 VEIRS MILL LLC,304 MISTY KNOLL,304 MISTY KNOLL DR,ROCKVILLE,MD,20850
"1750 ROCKVILLE PIKE, LLC",11770 US HIGHWAY 1,SUITE 202,NORTH PALM BEACH,FL,33408
"1788 HOLDINGS, L.L.C.",4421 EAST-WEST HIGHWAY,,BETHESDA,MD,20814
"180 HALPINE ROAD, LLC",11401 PATRIOT LANE,,POTOMAC,MD,20854
"18201 BROOKE ROAD, LLC",1916 NARROWS LN,,SILVER SPRING,MD,20906-1139
1907 VMR L.L.C.,343 HICKMAN ST,,REHOBOTH,DE,19971
"1910 ROCKVILLE, LLC",2900 TELESTAR CT,,FALLS CHURCH,VA,22042-1206
"19725A, INC.",19725-A GERMANTOWN ROAD,,GERMANTOWN,MD,20874
"1ST AMENDMENT SPORTS, LLC",4014 SPRUELL DR,,KENSINGTON,MD,20895
"1ST CHOICE COLLISION, LLC",5531 NICHOLSON LN,,ROCKVILLE,MD,20852-3181
"1ST CHOICE, LLC","8121 GEORGIA AVE, STE 203",,SILVER SPRING,MD,20910
2 HORSES LLC,28901 KEMPTOWN ROAD,,DAMASCUS,MD,20872
20 RIVERWOOD LLC,11903 CENTURION WAY,,POTOMAC,MD,20854
"20/20 GENESYSTEMS, INC.",15810 GAITHER DR,,GAITHERSBURG,MD,20877-1429
"2000 OFFICE PARTNERS, LLC",2000 TOWER OAKS BLVD    8TH FL,,ROCKVILLE,MD,20852-4284
"2000 TOWER OAKS BOULEVARD, LLC",2000 TOWER OAKS BOULEVARD,FLOOR 9,ROCKVILLE,MD,20852-4282
"20921 NEW HAMPSHIRE AVENUE, LLC",20931 NEW HAMPSHIRE AVE,,BROOKEVILLE,MD,20833
"21000 FREDERICK ROAD MILESTONE SHELL, LL",21000 FREDERICK ROAD,,GERMANTOWN,MD,20876
2101 FAIRLAND ROAD OPERATIONS LLC,101 EAST STATE STREET,,KENNETT SQUARE,PA,19348
"21101 FREDERICK ROAD, INC.",15500 KRUHM ROAD,,BURTONSVILLE,MD,20866
"220 TO GO, INC.",5465 RANDOLPH ROAD,,ROCKVILLE,MD,20852
"22ND CENTURY GROUP, INC.",500 SENECA STREET,SUITE 507,BUFFALO,NY,14204
"2405 PRICE, LLC",3101 MOORE LN,,KENSINGTON,MD,20895-2200
2428392 INC.,38 CORPORATE CIRCLE,,ALBANY,NY,12203
"2600 TOWER OAKS ACQUISITIONS, LLC","CIRA CENTRE, 28TH FLOOR",2929 ARCH ST.,PHILADELPHIA,PA,19104-2868
290 SPORTS LLC,2001 VEIRS MILL RD #645,,ROCKVILLE,MD,20851
2C INCORPORATED,7 TANAGER CT,,POTOMAC,MD,20854-6314
2CBREWING LLC,19124 JERUSALEM ROAD,,POOLESVILLE,MD,20837
3 POINT ELITE GYNECOLOGY AND WELLNESS SP,3 POINT ELITE GYNECOLOGY AND WELLNESS SP,8455 COLESVILLE RD,SILVER SPRING,MD,20910
3 STEF CORPORATION,5151 RIVER RD,,BETHESDA,MD,20816-1517
"311 DAWSON AVENUE, INC.",9000 COLLESVILLE RD,,SILVER SPRING,MD,20910
"3124 ENTERPRISES, INC.",5455 RANDOLPH RD,STE A,ROCKVILLE,MD,20852
"333 MAIN STREET, LLC",333 MAIN STREET,,GAITHERSBURG,MD,20878
3415 GREENCASTLE ROAD OPCO LLC,3415 GREENCASTLE ROAD OPCO LLC,4481 ROUTE 9,HOWELL,NJ,7731
3801 SANDY SPRING ROAD L.L.L.P.,3801 SANDY SPRING RD,,BURTONSVILLE,MD,20866-1154
"3CLOGIC, INC.",9201 CORPORATE BLVD   STE 470,,ROCKVILLE,MD,20850
"3D ENVIROLOGICS, LLC",4774 BURNLEY STATION ROAD,,BARBOURSVILLE,VA,22923
"3D ORAL & MAXILLOFACIAL IMAGING CENTER,",11125 ROCKVILLE PIKE,SUITE 211,N. BETHESDA,MD,20852
"3D SCAPES, LLC",19611 HOOVER FARM DRIVE,,LAYTONSVILE,MD,20882
"3E TECHNOLOGIES INTERNATIONAL, INC.",12410 MILESTONE CENTER DR #650,,GERMANTOWN,MD,20876
"3H BROTHERS, INC.",7006 CARROLL AVE,,TAKOMA PARK,MD,20912-4436
"3I DIAGNOSTICS, INC.",V5,20271 GOLDENROD LANE,GERMANTOWN,MD,20876
"3LINKS TECHNOLOGIES, INC.",8701 GEORGIA AVE SUITE 705,,SILVER SPRING,MD,20910
3U CORPORATION,"13406 KINGSVIEW VILLAGE AVE., #D4",,GERMANTOWN,MD,20874
42 WELLNESS LLC,PO BOX 71660,,RICHMOND,VA,23255
430 ALLIED LLC,2110 POWERS FERRY ROAD,SUITE 150,ATLANTA,GA,30339
"4401 EAST WEST, L.L.C.",4520 EAST WEST HWY,SUITE 200,BETHESDA,MD,20814
"4504 WALSH STREET, L.L.C.",2401 RESEARCH BLVD,,ROCKVILLE,MD,20850-3215
"4520 EAST WEST, LLC",4520 EAST WEST HWY,SUITE 200,BETHESDA,MD,20814-3382
"4701 WILLARD AVE., LLC",4582 S. ULSTER ST,STE 1700,DENVER,CO,80237
4850 RUGBY AVENUE LLC,"7101 WISCONSIN AVENUE, SUITE 700",,BETHESDA,MD,20814
"4900 FAIRMONT RESIDENTIAL, L.L.C.",125 HIGH ST,HIGH ST TOWER FL 27,BOSTON,MA,2110
4913 HAMPDEN LANE LIMITED PARTNERSHIP,10400 DETRICK AVE,,KENSINGTON,MD,20895-2440
"5.11, INC.",3201 NORTH AIRPORT WAY,,MANTECA,CA,95336
"5055 NICHOLSON LANE ASSOCIATES, LLC",5505 NICHOLSON LN,,ROCKVILLE,MD,20852-3133
529 FITNESS LLC,6708 WISCONSIN AVENUE,SUITE 301,BETHESDA,MD,20815
"5309 GEORGIA AVENUE, L.L.C.",15007 PERRYWOOD DRIVE,,BURTONSVILLE,MD,20866
"5520 WISCONSIN HOTEL PROPERTY, LP",1455 PENNSYLVANIA AVENUE,SUITE 200,WASHINGTON,DC,20004
58UNITY LLC,1368 WOODSIDE DRIVE,,MC LEAN,VA,22102
61 VINEYARD LLC,28639 KEMPTOWN RD,,DAMASCUS,MD,20872
6809 SUPERWASH INC,6809 NEW HAMPSHIRE AVE,,TAKOMA PARK,MD,20912
"7 BILLIARDS, INC.",15966 SHADY GROVE ROAD,,GAITHERSBURG,MD,20877
"7-ELEVEN, INC.",PO BOX 4900 #711,,SCOTTSDALE,AZ,85261
"7-FAIRLAND, INC.",13318 OLD COLUMBIA PIKE,,SILVER SPRING,MD,20904-5232
7005 SOLAR NAILS & SPA INC.,7005 CARROLL AVE,,TAKOMA PARK,MD,20912-4429
"7060 CARROLL AVENUE, LLC",7060 CARROLL AVE LLC,7060 CARROLL AVE,TAKOMA PARK,MD,20912
71 INC.,118 DERWOOD CIRCLE,,ROCKVILLE,MD,20850-1264
"7101 WISCONSIN OWNER, LLC",SUITE 700,7101 WISCONSIN AVE.,BETHESDA,MD,20814
7501 WISCONSIN LLC,7501 WISCONSIN AVENUE,SUITE 1500 E,BETHESDA,MD,20814
7550IAD LLC,601 13TH STREET NW,SUITE 300,WASHINGTON,DC,20005
"7700 OGR FINANCIAL, LLC",7700 OLD GEORGETOWN ROAD,SUITE 630,BETHESDA,MD,20814
"7900 WISCONSIN RESIDENTIAL, L.L.C.",4747 BETHESDA AVENUE SUITE 200,,BETHESDA,MD,20814
7T7 CAFE LLC,2525 PORT POTOMAC AVE,,WOODBRIDGE,MD,22191
"8121 PINEY BRANCH, LLC",8121A PINEY BRANCH RD,,SILVER SPRING,MD,20910-4698
"8131 GEORGIA AVENUE, LLC",7621 RICKENBACKER DRIVE,STE 700,GAITHERSBURG,MD,20879
"8455CSC, LLC",8226 GEORGIA AVE,,SILVER SPRING,MD,20910-4519
8515 GEORGIA AVENUE ASSOCIATES L.L.C.,12435 PARK POTOMAC AVE,SUITE 200,POTOMAC,MD,20854
"8701 RAM, INC.",8701 RAMSEY AVENUE,,SILVER SPRING,MD,20910
8711 APARTMENTS OWNER LLC,STE 400,6000 EXECUTIVE BOULEVARD,NORTH BETHESDA,MD,20852-3857
"9-11 SECURITY & INVESTIGATION SERVICES,",8115 FENTON ST,STE 303,SILVER SPRING,MD,20910
901 ARCOLA AVENUE OPCO LLC,901 ARCOLA AVENUE OPCO LLC,4481 ROUTE 9,HOWELL,NJ,7731
"A & A HEARING GROUP, LLC",8836 BELAIR ROAD,,BALTIMORE,MD,21236
A & A LANDSCAPING INC,16101 ASA DR.,,SPENCERVILLE,MD,20868
A & B AUTOMOTIVE CARE INC.,8220 GEORGIA AVE.,,SILVER SPRING,MD,20910
A & B'S BARBERSHOP LLC,11520-D ROCKVILLE PIKE,,ROCKVILLE,MD,20852-2762
A & C FINE DINNING INC.,2646 UNIVERSITY BLVD,,SILVER SPRING,MD,20902
A & F SOLUTIONS REMODELING LLC,7930 BRINK ROAD,,GAITHERSBURG,MD,20882
"A & G AUTOMOTIVE, LLC",11750 PARKLAWN DRIVE,,ROCKVILLE,MD,20852-2533
"A & H LANDSCAPING, INC.",14016 SCHAFFER ROAD,,GERMANTOWN,MD,20874
"A & H SEAFOOD MARKET PARTNERS, LLC",SUITE B,4215 HOWARD AVENUE,KENSINGTON,MD,20895
"A & I ENTERPRISE VI, INC.",10755 COLESVILLE RD,,SILVER SPRING,MD,20901
"A & I ENTERPRISE VIII, INC.",16705 CRABBS BRANCH WAY,,ROCKVILLE,MD,21136
A & J CORPORATION,525 DALE DR,,SILVER SPRING,MD,20910-4210
A & J RESTAURANT CORPORATION,1319-C ROCKVILLE PIKE,,ROCKVILLE,MD,20852-1437
A & R DECORATING GROUP INC.,14217 CHADWICK LN,,ROCKVILLE,MD,20853
"A & S REALTY ASSOCIATES, INC.",12410 MILESTONE CENTER DR,,GERMANTOWN,MD,20876-7101
"A & T AUTOMOTIVE CARE, LLC",8129 GEORGIA AVE.,,SILVER SPRING,MD,20910
"A BIT BETTER FARM, L.L.C.",3400 DAMASCUS RD,,BROOKEVILLE,MD,20833-1209
"A C GRACE, LLC",3303 ROLLING RD,,CHEVY CHASE,MD,20815-4033
"A CENTER FOR ACUPUNCTURE & HERBS, INC.",751 ROCKVILLE PIKE STE 6A,,ROCKVILLE,MD,20852
"A MARK ST. GEORGE, LLC",10128 CEDAR LN,,KENSINGTON,MD,20895-3842
A PLUS ADULT MEDICAL DAY CARE CENTER COR,50 W GUDE DR,,ROCKVILLE,MD,20850
"A PLUS AUTOMOTIVE SERVICES, INC.",15563 FREDERICK RD # 0,,ROCKVILLE,MD,20855-2116
A PLUS MEDICAL P.C.,7505 NEW HAMPSHIRE AVENUE ST 314,SUITE 314,TAKOMA PARK,MD,20912
"A PLUS PEDIATRICS, LLC",15221 GRAVENSTEIN WAY,,NORTH POTOMAC,MD,20850
"A TO Z HOME REPAIR SERVICE, INC.",313 MAIN STREET,,GAITHERSBURG,MD,20878
"A&B LUCK PLUMBING & HEATING, INC.",10001E LEWIS DR,,DAMASCUS,MD,20872
"A&C INTERNATIONAL IMPORT AND EXPORT, LLC",1262 CARRINGTON HILL DR,,GAITHERSBURG,MD,20878
A&D LANDSCAPING AND CONSTRUCTION SERVICE,15600 RIDING STABLE RD,,LAUREL,MD,20707-2645
"A&H CONVENIENCE MARKET, L.L.C.",11235 OAK LEAF DR. BO 7,,SILVER SPRING,MD,20901
"A+ GOVERNMENT SOLUTIONS, LLC",2600 JOHN SAXON BLVD.,,NORMAN,OK,73071
A-GO LIMITED PARTNERSHIP,10500 DARNESTOWN RD,,ROCKVILLE,MD,20850
"A-SERVICE COMPANY, INC.",419 EAST GUIDE DRIVE,,ROCKVILLE,MD,20850-1270
"A-TECH NORTH AMERICA, INC.",8539 ZIGGY LANE,,GAITHERSBURG,MD,20877
"A. & H. D. ENTERPRISES, INC.",327,4701 WILLARD AVE,CHEVY CHASE,MD,20815-4611
"A. ALIBAKHSHI & ASSOCIATES, P.C.",19512 AMARANTH DRIVE,,GERMANTOWN,MD,20874-1212
A. B. E. CORPORATION,12250 WILKINS AVENUE,,ROCKVILLE,MD,20852
"A. B. VEIRS & SONS, INC.",7411 LINDBERGH DR STE L,,GAITHERSBURG,MD,20879-5416
"A. ESTEBAN & COMPANY, INC.",132 W 36TH ST,,NEW YORK,NY,10018-6903
A. H. BLAND ENTERPRISES LLC,700 AMER DRIVE,,FORT WASHINGTON,MD,20744
"A. MARQUEZ SERVICES, INC.",1101 EDNOR RD,,SILVER SPRING,MD,20905
"A. R. DAVE, P. A.",107 ALDERWOOD DRIVE,,GAITHERSBURG,MD,20878-2681
"A. ROY ROSENTHAL, M.D.",10313 GEORGIA AVE STE 107,,SILVER SPRING,MD,20902
A. TASKER INCORPORATED,507 OAK KNOLL TERRACE,,ROCKVILLE,MD,20850
"A.A.M., INC.",120 N FREDERICK AVE,,GAITHERSBURG,MD,20877-2411
"A.D.H. ENTERPRISES, LLC",32 BRINKWOOD RD,,BROOKEVILLE,MD,20833-2303
"A.P.B, INC.",2401 BLUERIDGE AVE,,WHEATON,MD,20902
"A.R. KRONSTADT REALTY INVESTORS, INC.",5515 SECURITY LANE SUITE 1115,,ROCKVILLE,MD,20852
"A/X CARPENTERS, LLC",4108 WARNER ST,,KENSINGTON MD,MD,20895
A2F CONSULTING LLC,50 W MONTGOMERY AVE,SUITE 260,ROCKVILLE,MD,20850
A3F CREATIVE LLC,12723 TURQUOISE TER,12723 TURQUOISE TER,SILVER SPRING,MD,20904
AA ART ASSOCIATES LLC,8923 BROOKVILLE RD,,SILVER SPRING,MD,20910
AA CONSTRUCTION & REMODELING LLC,16700 NORBROOK DR.,,OLNEY,MD,20832
"AAA LUMBAR CHIROPRACTIC, LLC",418 E. DIAMOND AVE,,GAITHERSBURG,MD,20877
"AAA RESEARCH, LLC",21515 MANOR VIEW CIRCLE,,GERMANTOWN,MD,20876
"AAA WARMAN HOME CARE, LLC",604 S FREDERICK AVE,,GAITHERSBURG,MD,20877-1275
"AAA WARMCARE OF POTOMAC, INC.",2305 FOLLING CREEK ROAD,,SILVER SPRING,MD,20904
"AAANTIQUES, INC",10125 LLOYD RD,,POTOMAC,MD,20854
AABHA LLC,AABHA LLC,901 RUSSELL AVE STE 125,GAITHERSBURG,MD,20879
"AARAMVA, LLC",11920 BLUHILL ROAD,,SILVER SPRING,MD,20902
"AARON LEE STEIN REAL ESTATE SETTLEMENTS,",917 N. RUSSELL AVE.,,"GAITHERSBURG,",MD,20879
AARVI FOOD LLC,7904 MERIDIAN DRIVE,,PASADENA,MD,21122
"AARYAN, INC.",925 EAST UNIVERSITY BLVD,,SILVER SPRING,MD,20903
AASTHA AMDC LLC,12210 PLUM ORCHARD DRIVE,SUITE 214,SILVER SPRING,MD,20904
AAVNERGENE INC.,9620 MEDICAL CENTER DRIVE,SUITE 100,ROCKVILLE,MD,20850
"AB ORTHODONTICS, LLC",113 ELLINGTON BLVD,APT 417,GAITHERSBURG,MD,20878
ABACUS TECHNOLOGY CORPORATION,5404 WISCONSIN AVE SUITE 1100,,CHEVY CHASE,MD,20815
ABBERIOR INSTRUMENTS AMERICA LLC,4350 EAST WEST HWY SUITE 410,,BETHESDA,MD,20814
ABBVIE US LLC,1 N. WAUKEGAN ROAD,,NORTH CHICAGO,IL,60064
ABC FRANCO PAINTING COMPANY INC.,8430 12TH AVE.,,SILVER SPRING,MD,20903
"ABC GENERAL AND MECHANICAL SERVICES, INC",15732 CRABBS BRANCH WAY,,DERWOOD,MD,20855
"ABC IMAGING OF WASHINGTON, INC.",5290 SHAWNEE RD STE 300,,ALEXANDRIA,AV,22312
"ABDVALI, INC",PO BOX 773,,VIENNA,VA,22183
"ABE & NIKI, INC.",405 N. FREDERICK AVE.,,GAITHERSBURG,MD,20877
ABEL & PATEL LLC,5530 WISCONSIN AVENUE,SUITE 930,CHEVY CHASE,MD,20815
"ABERCROMBIE & ASSOCIATES, LLC",8609 SECOND AVE #507B,,SILVER SPRING,MD,20910
"ABERCROMBIE & FITCH STORES, INC.",6301 FITCH PATH,,NEW ALBANY,OH,43054
"ABERNETHY STICKS, INC.",3837 PLYERS MILL ROAD,,KENSINGTON,MD,20895-2015
"ABESS, INC.",1301 UNIVERSITY BLVD.,,TAKOMA PARK,MD,20912
ABI III CORPORATION,425 S FREDERICK AVE,,GAITHERSBURG,MD,20877-2326
ABI NKWA INC.,6104 CHESHIRE DRIVE,,BETHESDA,MD,20814
"ABM INDUSTRY GROUPS, LLC",SUITE 477,14141 SW FWY,SUGAR LAND,TX,77478
"ABM LIMITED, INC.",SUITE 1010,10212 GOVERNOR LANE BLVD.,WILLIAMSPORT,MD,21795
"ABOD & CARUSO, L.L.C.",18524 OFFICE PARK DR,,GAITHERSBURG,MD,20886
"ABOVE ALL MARBLE & GRANITE, INC.",567 SOUTHLAWN LN,,ROCKVILLE,MD,20850-1467
"ABRAHAMS LAWN SERVICE, INC.",PO BOX 593,,SPENCERVILLE,MD,20868-0593
"ABRAMS & WEST, P.C.",4550 MONTGOMERY AVENUE,SUITE 760N,BETHESDA,MD,20814-3304
"ABRAMS BISON INVESTMENTS, LLC",3 BETHESDA METRO CENTER,SUITE 1250,BETHESDA,MD,20814
"ABRAMS TRAVEL, INC.",2909 FRIENDLYWOOD WAY,,BURTONSVILLE,MD,20866-1856
"ABRAZA SKIN STUDIO, LLC",1125 HAMMOND DR #679,,ATLANTA,GA,30328
ABSG CONSULTING INC.,1701 CITY PLAZA DRIVE,,SPRING,TX,77389
"ABSOLUTE ASSISTED LIVING, INC.",4911 BROOKS RD,,ROCKVILLE,MD,20853-1008
ABSOLUTE CONCRETE CONCEPT. INC.,P O BOX 3059,,GERMANTOWN,MD,20875-3059
ABSOLUTE GENERAL CONTRACTING SERVICES LL,16808 OAK HILL RD,,SILVER SPRING,MD,20905-3944
ABSOLUTE PAIN MANAGEMENT LLC,4938 HAMPDEN LN.,SUITE 206,BETHESDA,MD,20814
"ABSTRACT GROUP, INC.",9689 GERWIG LANE,STE A,COLUMBIA,MD,21046
"ABT ASSOCIATES, INC.",10 FAWCETT STREET,,CAMBRIDGE,MA,2138
ABVIRO LLC,4800 HAMPDEN LANE,SUITE 200,BETHESDA,MD,20814
"AC CRANE & SIGN SERVICE, INC.",651 SOUTHLAWN LN,,ROCKVILLE,MD,20850-1495
"AC CRANE LEASING, INC.",16912 NORBROOK DR,,OLNEY,MD,20832-2622
"AC GROUP OF MARYLAND, LLC A/K/A/ AC GROU",19200-D CHENNAULT WAY,,GAITHERSBURG,MD,20879
ACADEMY OF ACUPUNCTURE AND CHINESE MEDIC,6410 ROCKLEDGE DR STE 418,,BETHESDA,MD,20817
"ACADIA CONTRACTORS, INC.",7945 MACARTHUR BLVD,,CABIN JOHN,MD,20818
"ACCELERED, LLC",7315 WISCONSIN AVENUE,SUITE 400,BETHESDA,MD,20814
"ACCENT GENERAL CONTRACTING, INC.",8608 DAKOTA DRIVE,,GAITHERSBURG,MD,20877
ACCESS INTELLIGENCE LLC,9211 CORPORATE BOULEVARD 4TH FLOOR,,ROCKVILLE,MD,20850
"ACCESS NOW URGENT CARE, LLC",405 NATURE LN,,ROCKVILLE,MD,20850
"ACCESSIBLE BELTWAY CLINICS, LLC",30 W GUDE DRIVE STE 375,,ROCKVILLE,MD,20850
"ACCESSIBLE INTEGRATIVE MEDICINE, LLC",9406 HALE PLACE,,SILVER SPRING,MD,20910
"ACCOUNTABLE HEALTH, INC.","1101 WOOTON PARKWAY, 10TH FLOOR",10TH FLOOR,ROCKVILLE,MD,20852
"ACCOUNTING RESEARCH & ANALYTICS, LLC",12300 TWINBROOK PKWY,STE 510,ROCKVILLE,MD,20852
"ACCRETIVE HEALTHCARE SOLUTIONS, LLC","450 S ORANGE AVE., 4TH FLOOR",,ORLANDO,FL,32801
"ACD OPERATIONS, LLC","ACD OPERATIONS, LLC",31 BOLAND COURT.  PO BOX A14,GREENVILLE,SC,29615
ACE FAMILIA FOOD LLC,8041 QUEENAIR DR,STE 1,GAITHERSBURG,MD,20879
"ACE MAINTENANCE & SERVICE, INC.",7710 RIALTO BLVD UNIT 200,,AUSTIN,TX,78735
"ACE PRO SERVICES, LLC",1116 SNIDER LN,,SILVER SPRING,MD,20905-4160
"ACE UNIFORM SERVICES, INC.",1800 PARKMAN AVE,,BALTIMORE,MD,21230-1024
"ACEJ HOLDINGS, LLC",5465 RANDOLPH ROAD,SUITE A,ROCKVILLE,MD,20852
ACH GROUP LLC,"1680 E. GUDE DR., STE.100",,ROCKVILLE,MD,20850
ACHIEVE YE INC,9805 MAIN ST,,DAMASCUS,MD,20872
"ACHIEVE, INC.",5110 TALBOT LANDING,,ELLICOTT CITY,MD,21043
ACK RESTAURANT GROUP LLC,PO BOX 661,,FREDERICK,MD,21705-0661
"ACKER AND SONS, INC.",10516 SUMMIT AVENUE,,KENSINGTON,MD,20895
"ACL, INC.",TWO WISCONSIN CIRCLE #670,,CHEVY CHASE,MD,20815
"ACM SERVICES, INC.",12022 PARKLAWN DR,,ROCKVILLE,MD,20852
"ACME MARKETS, INC.",PO BOX 800729,,DALLAS,TX,75380
ACO INCORPORATED,1002 W. MISSION AVE.,,BELLEVUE,NE,68005
"ACORN MEDIA GROUP, INC.",8515 GEORGIA AVE STE 650,,SILVER SPRING,MD,20910
ACQUA LLC,4701 SANGAMORE RD STE M7,,BETHESDA,MD,20816
ACQUALUXE NAILS SPA LLC,ACQUALUXE NAILS SPA LLC,5330 WESTERN AVE STE D-102,CHEVY CHASE,MD,20815
"ACQUANAILS, INC.",4701 SANGAMORE ROAD,#M8,BETHESDA,MD,20816
"ACRE GRAPHICS, LLC",4131 HOWARD AVENUE,,KENSINGTON,MD,20895
"ACREBAY INVESTMENT MANAGEMENT, INC.",27 PEPPERTREE,,NEWPORT BEACH,CA,92660
"ACTION TAXICAB, INCORPORATED",15805 PARAMOUNT DRIVE,,ROCKVILLE,MD,20855
"ACTUALIZE STUDIO, LLC",510 FLEETWOOD ST.,,SILVER SPRING,MD,20910
"ACUMEN SECURITY, LLC",545 E. ALGONQUIN ROAD,,ARLINGTON HEIGHTS,IL,60005
ACV AUCTIONS INC.,640 ELLICOTT STREET,,BUFFALO,NY,14203
"ADABTEK, CORP.",P.O. BOX 130,,GLENELG,MD,21737
"ADALBERTO LAWN SERVICE, INC.",12225 KENDALL ST,,SILVER SPRING,MD,20902
"ADAM KESHISHIAN JEWELERS, INC.",4405 WILLARD AVENUE,,CHEVY CHASE,MD,20815-3649
"ADAM N. SHERMAN, DMD, LLC",5 LILY POND CT,,ROCKVILLE,MD,20852-4230
"ADAM T. SCHNEIDER, D.D.S., P.A.",22 MONTGOMERY VILLAGE AVE,,GAITHERSBURG,MD,20879
ADAMS BRASS BASEMENT LLC,4809 DE RUSSEY PKWY,,CHEVY CHASE,MD,20815
"ADAMSON, JONATHAN",19300 MOUTH OF MONOCACY RD,,DICKERSON,MD,20842
ADAPTABLE SYSTEMS CORPORATION,230 SCIENTIFIC DR.,SUITE 100,PEACHTREE CORNERS,GA,30092
"ADAPTIVE PHAGE THERAPEUTICS, INC.",708 QUINCE ORCHARD RD,SUITE 205,GAITHERSBURG,MD,20878
"ADARASH MARKET II, INC.",11249 NEW HAMPSHIRE AVE,,SILVER SPRING,MD,20904
"ADARASH MARKET, INC.",8706-A FLOWER AVE.,,SILVER SPRING,MD,20901
"ADCS CLINICS, LLC",151 SOUTHHALL LANE SUITE 300,,MAITLAND,FL,32751
"ADDED DIMENSIONS, INC.",7527 NEW HAMPSHIRE AVE,,TAKOMA PARK,MD,20912-6969
"ADEN CONVENIENCE SOLUTIONS, L.L.C.",16553 SIOUX LANE,,GAITHERSBURG,MD,20878
"ADEPTUS PARTNERS, LLC",733 STATE ROUTE 35,SUITE A,OCEAN,NJ,7712
"ADIDAS AMERICA, INC.",5055 N GREELEY AVENUE,,PORTLAND,OR,97217
ADIGE LLC,200A MONROE ST,,ROCKVILLE,MD,20850
ADL CONSTRUCTION LIMITED LIABILITY COMPA,16713 BROGDEN ROAD,,SPENCERVILLE,MD,20868
"ADLER & MANDEL, INC.",12298 WILKINS AVE,# B,ROCKVILLE,MD,20852
ADM CONCEPTS LLC,19100 WARRIOR BROOK DR,,GERMANTOWN,MD,20874
"ADMARK, INC.",121 CONGRESSIONAL LN STE 603,,ROCKVILLE,MD,20852
"ADNAN, INC.",10615 REISTERSTOWN ROAD,,OWINGS MILLS,MD,21117
"ADNET SYSTEMS, INC.",6720 B ROCKLEDGE DRIVE,SUITE 500,BETHESDA,MD,20817
"ADOJAM, LLC",2909 PLYERS MILL RD.,,SILVER SPRING,MD,20902
"ADONIS & BLACK HOLDINGS, LLC",13223 FOXHALL DR,,SILVER SPRING,MD,20906
ADORE INC.,8564 DAKOTA DR,,GAITHERSBURG,MD,20877
"ADRENALINE OFF ROAD, L.L.C.",15201 B1RMINGHAM DR,,BURTONSVILLE,MD,20866
ADRIA POOL SERVICE LLC,11413 GRAYING LANE,,ROCKVILLE,MD,20852
"ADRIAN J. CUMMINS, DDS, LLC","ADRIAN J. CUMMINS, DDS, LLC",9801 GEORGIA AVE STE 225,SILVER SPRING,MD,20902
"ADU, INC.",823 N HAMMONDS FERRY RD,STE 3,LINTHICUM HTS,MD,21090
"ADULT DAY HEALTH, INC.",313 CONGRESS STREET,5TH FLOOR,BOSTON,MA,2210
"ADVAGENIX, LLC",SUITE 130,9430 KEY WEST AVE.,ROCKVILLE,MD,20850
ADVANCE ACCEPTANCE ALL LINES CO. A/K/A F,PO BOX 2068,,MINOT,ND,58702-2068
"ADVANCE BUSINESS SYSTEMS & SUPPLY, LLC",10755 YORK RD,,COCKEYSVILLE,MD,21030-2114
"ADVANCE DIAGNOSTICS SERVICES, INC.",8027-F SNOUFFER SCHOOL ROAD,,GAITHERBURG,MD,20879
"ADVANCE STORES COMPANY, INCORPORATED",PO BOX 20117,,ATLANTA,GA,30325
"ADVANCE SURGERY CENTER, L.L.C.",10110 MOLECULAR DR,,ROCKVILLE,MD,20850-7539
"ADVANCED BEHAVIORAL HEALTH, INC.",ADVANCED BEHAVIORAL HEALTH INC,1003 WEST SEVENTH STREET SUITE 500,FREDERICK,MD,21701
"ADVANCED BIOSCIENCE LABORATORIES, INC.","9800 MEDICAL CENTER DRIVE, SUITE D",,ROCKVILLE,MD,20850
"ADVANCED CHIROPRACTIC & REHAB, INC.",2730 UNIVERSITY BLVD W STE 1050,,WHEATON,MD,20902
"ADVANCED CONSERVATION TECHNOLOGIES, INC.",13813 TURKEY FOOT RD,,NORTH POTOMAC,MD,20878-3935
"ADVANCED DATA TECHNOLOGIES, INC.",207 JERSEY LANE,,ROCKVILLE,MD,20850
ADVANCED DERMATOLOGY AND COSMETIC CENTER,11125 ROCKVILLE PIKE SUITE 105,,NORTH BETHESDA,MD,20852
"ADVANCED DIALYSIS CENTER, LLC",9320 ANNAPOLIS RD,#200,LANHAM,MD,20706
"ADVANCED ENDODONTIC ASSOCIATES, P.A.",5454 WISCONSIN AVE,SUITE 1355,CHEVY CHASE,MD,20815-6901
"ADVANCED HOME SUPPORT, INC.",15800 CRABBS BRANCH WAY #205,,ROCKVILLE,MD,20855
"ADVANCED IT SOLUTIONS, INC.",1231 MAIN STREET,,GAITHERSBURG,MD,20878
"ADVANCED LIGHTNING SYSTEMS, INC.",PO BOX 547,,DAMASCUS,MD,20872-0547
"ADVANCED MEDICAL MANAGEMENT, LLC",9601 PULASKI PARK DR,STE 417,BALTIMORE,MD,21220
"ADVANCED NETWORK SOLUTIONS, INC.",15908 GREEN MEADOW WAY,,DARNESTOWN,MD,20878
"ADVANCED RESTORATION SOLUTIONS, LLC",870 STILL CREEK LANE,,GAITHERSBURG,MD,20878
"ADVANCED RNA VACCINE TECHNOLOGIES, INC.",12358 PARKLAWN DR,,ROCKVILLE,MD,20852
"ADVANCED SURGERY CENTER OF BETHESDA, LLC",14400 METCALF AVE,,OVERLAND PARK,KS,66223
"ADVANCED SURGERY, P.C.",9715 MEDICAL CENTER DRIVE STE 233,,ROCKVILLE,MD,20850
"ADVANCED TECHNOLOGY EXPERTS, LLC",9832 WATTS BRANCH DRIVE,,ROCKVILLE,MD,20850
"ADVANCED WELLNESS SYSTEMS, LLC",50 WEST GUDE DR SUITE 46B,,ROCKVILLE,MD,20850
"ADVANI, TANVIR",11414 GEORGIA AVE,,SILVER SPRING,MD,20902-1907
"ADVANOSYS, LLC",20813 FAIRWAY VIEW DRIVE PO BOX 5247,,LAYTONSVILLE,MD,20882
ADVANTAGE SALES & MARKETING INC.,1611 N INTERSTATE 35E,SUITE 428,CARROLLTON,TX,75006
ADVANTIA HEALTH LLC,1001 19TH ST NORTH,SUITE 1001,ARLINGTON,VA,2209
ADVANTRA RX LLC,5530 WISCONSIN AVE,SUITE 100,CHEVY CHASE,MD,20815
"ADVENTIST CANCER CARE, LLC",820 W DIAMOND AVE STE 600,,GAITHERSBURG,MD,20878
"ADVISER COMPLIANCE ASSOCIATES, LLC",909 ROSE AVENUE,SUITE 950,NORTH BETHESDA,MD,20852
"ADVISORS, LLC",SUITE 680,10411 MOTOR CITY DRIVE,BETHESDA,MD,20817
"ADVISORSHARES INVESTMENTS, LLC",4800 MONTGOMERY LN,STE 150,BETHESDA,MD,20814
AE RENTALS LLC,17709 OLNEY LANE,,ROCKVILLE,MD,20853
"AECOM TECHNICAL SERVICES, INC.",4840 COX RD,,GLEN ALLEN,VA,23060-6292
"AED STRATECON, LLC",11730 PLAZA AMERICA DR.,SUITE 405,RESTON,VA,20190
AEGIS PROJECT CONTROLS CORP.,8455 COLESVILLE ROAD,SUITE 1500,SILVER SPRING,MD,20910
AEGIS WEALTH MANAGEMENT LLC,6903 ROCKLEDGE DR,SUITE 940,BETHESDA,MD,20817
"AEGIS.NET, INC.",PO BOX 3897,,MERRIFIELD,VA,22116-3897
"AEROTEK AFFILIATED SERVICES, INC.",7301 PARKWAY DRIVE,,HANOVER,MD,21076
"AESOLUTIONS, LLC",11404 TALL FOREST CIRCLE,,GERMANTOWN,MD,20876
AESTHETIC COLLECTIVE (THE) LLC,5480 WISCONSIN AVE,SUITE LL6,CHEVY CHASE,MD,20815
AETNA LIFE INSURANCE COMPANY,PO BOX 1610,,COCKEYSVILLE,MD,21030-7610
"AEY, INC.",8369 SNOUFFERS SCHOOL ROAD C-9,,GAITHERSBURG,MD,20879
"AFEWERKI MOTORS, INC.",947 SELIM RD,,SILVER SPRING,MD,20910-4924
"AFFILIATED ENGINEERS METRO DC, INC.",800 UNIVERSITY BAY DR STE 200,,MADISON,WI,53705
AFFILIATED ORAL AND MAXILLOFACIAL SURGEO,"3401 OLANWOOD COURT, STE 104",,OLNEY,MD,20832-1485
"AFFILIATED PET SYSTEMS, L.L.C.",18201 VON KARMAN AVE,SUITE 600,IRVINE,CA,92612
"AFFILIATES IN PLASTIC SURGERY, LLC",4660 KENMORE AVE #220,,ALEXANDRIA,VA,22304
"AFFORDABLE CARE, LLC",P.O. BOX 829,,COLLEYVILLE,TX,76034
"AFFORDABLE CHINA, LLC",7613 HONESTY WAY,,BETHESDA,MD,20817
"AFFORDABLE PRESSURE WASHING SOLUTIONS, L",718 ERIE AVENUE,,TAKOMA PARK,MD,20912
AFGHAN CORPORATION,12335 GEORGIA AVE,SUITE  G,SILVER SPRING,MD,20906
"AFOLABI MARTINS, DDS P.C.",11300 ROCKVILLE PIKE,STE 711,ROCKVILLE,MD,20852
AFRICAN INTERNATIONAL MARKET INC,66 VERDANT OAK ALY,,CLARKSBURG,MD,20871
"AFRIKUTZ, INC.",8217B GEORGIA AVE,,SILVER SPRING,MD,20910-4520
"AFS 401(K) RETIREMENT SERVICES, LLC",7700 OLD GEORGETOWN RD,,BETHESDA,MD,20814-6100
"AGATE, INC.",19847 M CENTURY BLVD,,GERMANTOWN,MD,20874
"AGE ONE PEDIATRIC DENISTRY, PROFESSIONAL",14012 WAGON WAY,,SILVER SPRING,MD,20906
"AGENCY TWO INSURANCE MARKETING GROUP, LL",11200 ROCKVILLE PIKE SUITE 500,SUITE 500,"ROCKVILLE, MD",MD,20852
"AGILE WORLD GROUP, LLC",11056  POWDER HORN DR,,POTOMAC,MD,20854
"AGLOW REALTY, INC.",14616 SILVERSTONE DR,,SILVER SPRING,MD,20905
"AGNC MORTGAGE MANAGEMENT, LLC",FMA AMERICAN CAPITAL MORTGAGE MANAGEMENT,2 BETHESDA METRO CENTER 12TH FL,BETHESDA,MD,20814
"AGNES BOLUS-ALIGNAY, D.D.S., P.A.",804 PERSHING DRIVE STE 003,,SILVER SPRING,MD,20910-4436
"AGNI CLINICS, LLC",5530 JOHNSON AVENUE,,BETHESDA,MD,20817
"AGNOVOS HEALTHCARE USA, LLC",7301 CALHOUN PL,100,DERWOOD,MD,20855
"AGORA, LLC",4304 OLD NATIONAL PIKE,,MIDDLETOWN,MD,20852
"AGPMD GAITHERSBURG, LLC",212 W PADONIA ROAD,,TIMONIUM,MD,21093
"AGPMD GERMANTOWN, LLC",212 W PADONIA RD,,TIMONIUM,MD,21093
"AGPMD ROCKVILLE, LLC",212 W PADONIA ROAD,,TIMONIUM,MD,21093
"AGPMD SILVER SPRING, LLC",212 W PADONIA RD,,TIMONIUM,MD,21093-2107
"AGPMD SS WAYNE AVENUE, LLC",212 WEST PADONIA ROAD,,TIMONIUM,MD,21093
"AHA MEDIA GROUP, LLC",11714 KEMP MILL ROAD,,SILVER SPRING,MD,20902
AHC HAMPTONS LIMITED PARTNERSHIP,THE CORPORATION TRUST COMPANY,1209 N ORANGE ST,WILMINGTON,VA,19801-1120
"AHD, INC.",STE 110,3 BETHESDA METRO CENTER,BETHESDA,MD,20814
"AHERN MANAGEMENT GROUP, LLC",4949 NEW DESIGN RD,,FREDERICK,MD,21703-7111
"AHMAD SOOLARI, D.M.D., P.C.",11616 TOULONE LN,,POTOMAC,MD,20854-3144
"AHMADI INTERNATIONAL, INC.",7400B LINDBERGH DR STE B,,GAITHERSBURG,MD,20879-5433
AHN & OH CORPORATION,18286 CONTOUR ROAD,,GAITHERSBURG,MD,20877
"AHSAN, ANEES",7610 CARROLL AVE,STE #410,TAKOMA PARK,MD,20912
"AIDAN DESIGN, LLC",8935 BROOKVILLE ROAD,,SILVER SPRING,MD,20910
"AIG, INC.",9510 GEORGIA AVE,,SILVER SPRING,MD,20910-1436
"AIKAM ENTERPRISES, INC.",13341 QUERY MILL ROAD,,N. POTOMAC,MD,20878
"AIL HOSPITALITY, LLC",3 RESEARCH CT,,ROCKVILLE,MD,20850
"AIMEE SEIDMAN, M.D., P.C.",9420 KEY WEST AVENUE SUITE 104,,ROCKVILLE,MD,20850-6369
AIMIE CORP.,16825 CRABBS BRANCH WAY,,DERWOOD,MD,20855-2215
"AIR FLOW ENVIRONMENTAL CONTROL, LTD.",7845 AIRPARK RD UNIT H,,GAITHERSBURG,MD,20879
"AIR FLOW SERVICES, INC.",1143 TAFT ST,,ROCKVILLE,MD,20850
AIR SUPPLY INC. AIRCONDITIONING & HEATIN,14672 SOUTHLAWN LANE #M,,ROCKVILLE,MD,20850-1376
"AIRECO SUPPLY, INC.",PO BOX 414,,SAVAGE,MD,20763-0414
"AIRFACTS, INC.",7200 WISCONSIN AVENUE,SUITE 500,BETHESDA,MD,20814
"AIRGAS USA, LLC",P O BOX 6675,,RADNOR,PA,19087
AIRIN TECHNOLOGIES INC.,10537 MACARTHUR BOULEVARD,,POTOMAC,MD,20854
AIRLINE TARIFF PUBLISHING COMPANY,45005 AVIATION DRIVE,STE 130,DULLES,VA,20166
AIRPARK APARTMENTS LIMITED PARTNERSHIP,9710 TRAVILLE GATEWAY DR,PMB 395,ROCKVILLE,MD,20850-7408
AIRPARK AUTO PROS LLC,8025 SNOUFFER SCHOOL RD,,GAITHERSBURG,MD,20879
"AIRPARK PETRO, LLC",19230 WOODFIELD ROAD,,GAITHERSBURG,MD,20879
"AIRPARK TOWING, LLC",8011 CESSNA,,GAITHERSBURG,MD,20879
AIRSYNC INC.,126 LULLABY CT,,GERMANTOWN,MD,20874
"AIS ENGINEERING, INC.",804 PERSHING DR,,SILVER SPRING,MD,20910-4434
AISHA HAIR BRAIDING LLC,7918 GEORGIA AVE,,SILVER SPRING,MD,20910-4837
AISHOK CO,14418 BAUER DR.,,ROCKVILLE,MD,20853
"AIX LA CHAPELLE FARM, LLC",4719 CHESTNUT ST,,BETHESDA,MD,20814
AJ & AJ CORPORATION,9902 HEDIN DRIVE,,SILVER SPRING,MD,20903
"AJ BAKERY, INC.",19725 GERMANTPWN RD STE B,,GERMANTOWN,MD,20874
"AJAY BAKSHI, M.D., LLC",9406 OLD GEORGETOWN ROAD,,BETHESDA,MD,20814
AJC ENTERPRISE LLC,7821 HORSESHOE LANE,,POTOMAC,MD,20854
"AJE NETWORKS, LLC",4512 ADRIAN ST,,ROCKVILLE,MD,20853
"AKSHAT ENTERPRISES, LLC",21326 EMERALD DR,,GERMANTOWN,MD,20876
AKSHAT LLC,21326 EMERALD DRIVE,,GERMANTOWN,MD,20876
"AKSHAT RISTORANTE, LLC",21326 EMERALD DR,,GERMANTOWN,MD,20876
"ALADDIN SURFACES, INC.",7400 LINDBERGH DR STE B,,GAITHERSBURG,MD,20879-5408
ALAM AND OBAIED INC.,280 N FREDERICK AVE,,GAITHERSBURG,MD,20877
ALAMDAR GLOBAL LLC,6226 GRACE MARIE DRIVE,,CLARKSVILLE,MD,21029
"ALAN ASSOCIATES, INC.",5950 AGER ROAD,,HYATTSVILLE,MD,20782
"ALAN FURMAN & CO., INC.",12250 ROCKVILLE PIKE,,ROCKVILLE,MD,20852-1600
"ALAN J. DINKIN, D.D.S., P.A.",6 MONTGOMERY VILLAGE AVE SUITE 300,6 MONTGOMERY VILLAGE AVE,GAITHERSBURG,MD,20879
"ALAN L. GORDON, CPA, P.A.",51 MONROE STREET,SUITE 1604,ROCKVILLE,MD,20850
"ALAN R. VINITSKY, M.D., LLC",2301 RESEARCH BLVD  STE 220,,ROCKVILLE,MD,20850
"ALAN R. WOLCOTT, DDS, P.A. DENTAL HEALTH",1734 ELTON RD    STE 231,,SILVER SPRING,MD,20903-5722
"ALAN SISLEN PHOTOGRAPHY, LLC",9139 MCDONALD DRIVE,,BETHESDA,MD,20817
"ALBERT USTER IMPORTS, INC.",9211 GAITHER ROAD,,GAITHERSBURG,MD,20877-1419
"ALC LEASING CO., INC.",3601 SW160TH AVENUE,SUITE 400,MIRAMAR,FL,33027
"ALDEBARON, INC.",15839 CRABBS BRANCH WAY,,ROCKVILLE,MD,20855
ALDI INC.(MARYLAND),PO BOX 460049,,HOUSTON,TX,77056-8049
ALDO U.S. INC.,6920 POINTE INVERMESS WAY STE 301,,FORT WAYNE,IN,46804
ALDON MANAGEMENT CORP.,8180 WISCONSIN AVENUE,,BETHESDA,MD,20814
"ALE MANAGEMENT GROUP, LLC",800 PLEASANT DRIVE,SUITE 110,ROCKVILLE,MD,20850
"ALEC M. ANDERS, M.D., P.A.","9715 MEDICAL CENTER DRIVE, SUITE 321",,ROCKVILLE,MD,20850
"ALEDADE, INC.",4550 MONTGOMERY AVE STE 950N,SUITE 400,BETHESDA,MD,20814
"ALEJANDRO R RABANAL, DDS, LLC",2021 HARBOUR GATES DRIVE,APT 223,ANNAPOLIS,MD,21401
ALEMAN'S LANDSCAPING LLC,12705 VALLEYWOOD DR,,SILVER SPRING,MD,20906-4161
ALEPH LLC,4835 LELAND STREET,,CHEVYCHASE,MD,20815
"ALEX MARTINEZ & PARTNERS, INC.","6101 EXECUTIVE BOULEVARD, SUITE#230",,ROCKVILLE,MD,20852-2667
ALEXANDER LIEB INCORPORATED,285 DERWOOD CIRCLE,,ROCKVILLE,MD,20850
"ALEXANDRIA REAL ESTATE EQUITIES, INC.",26 N EUCLID AVE,,PASADENA,CA,91101
"ALEXNO, LLC",11218 MIDVALE RD,,KENSINGTON,MD,20895-1909
"ALFA AND OMEGA FLOORING, LLC",1096 W. SIDE DR.,,GAITHERSBURG,MD,20878
ALFRED C. BURRIS M.D. P.C.,2204 PARALLEL LANE,,SILVER SPRING,MD,20904
ALFRED RESTAURANT GROUP LLC,5520 MUNCASTER MILL ROAD,,ROCKVILLE,MD,20855
"ALFREDHOUSE ELDERCARE, INC.",18100 CASHELL ROAD,,ROCKVILLE,MD,20853
ALG DRAPERY CLEANING AND INSTALLATIONS L,7895-S CESSNA AVE,,GAITHERSBURG,MD,20879
"ALI BEHNIA, D.M.D., M.S., P.A.",9707 KEY WEST AVE,,ROCKVILLE,MD,20850-3992
"ALI HENDI, M.D., P.C.",SUITE 725,5454 WISCONSIN AVE,CHEVY CHASE,MD,20815
"ALI REZAZADEH-TEHRANI, M.D., P.C.",10735 MIST HAVEN TER,,ROCKVILLE,MD,20852
ALI SARKARZADEH DDS PC,SUITE 10,1750 ROCKVILLE PIKE,ROCKVILLE,MD,20852-1613
"ALIANZA BUILDING SERVICES, INC.",ALIANZA BUILDING SERVICES INC,360 A CHRISTOPHER AVENUE,GAITHERSBURG,MD,20879
ALJCHEZIA LLC,"410 GIRARD STREET, APT. T2",,GAITHERSBURG,MD,20877
"ALL ABOUT LAWNS & LANDSCAPES, INC.",PO BOX 11,,DAMASCUS,MD,20872
"ALL ABOUT SOUND & VIDEO, INC.",1595 KIMBLEWICK ROAD,,POTOMAC,MD,20854
"ALL AFRICAN FOOD STORES, LLC",23450 TAILOR SHOP PLACE,,CLARKSBURG,MD,20871
"ALL AMERICAN BICYCLE CENTER, INC.",26039 RIDGE ROAD,,DAMASCUS,MD,20872-1848
"ALL AMERICAN PROTECTIVE SERVICES, LLC",7361 CALHOUN PLACE,SUITE 485,DERWOOD,MD,20855
"ALL AROUND TECHNOLOGY, INC.",8565 ATLAS DR,,GAITHERSBURG,MD,20877-4135
"ALL CREDIT CONSIDERED MORTGAGE, INC.",1801 RESEARCH BLVD,SUITE 410,ROCKVILLE,MD,20850
"ALL DAY MEDICAL CARE CLINIC, LLC",702 RUSSELL AVE,SUITE 100,GAITHERSBURG,MD,20877-1249
"ALL IN FITNESS, L.L.C.",4925 SAINT ELMO AVE,,BETHESDA,MD,20814
ALL PRO CHIMNEY SERVICE LLC,401 N STONESTREET AVE,,ROCKVILLE,MD,20850
"ALL SET HOSPITALITY, LLC",8630 FENTON STREET PLAZA 5,,SILVER SPRING,MD,20910
ALL SMILES BETHESDA LLC,11500 OLD GEORGETOWN ROAD,,NORTH BETHESDA,MD,20852
"ALL STAGE AND SOUND, INC",21500 LAYTONSVILLE ROAD,,LAYTONSVILLE,MD,20882-1624
ALL-STAT PORTABLE MD LLC,8235 CHRISTIANA AVE,,SKOKIE,IL,60076-2910
"ALLAN H. KAUFMAN, D.D.S., P.A.",14020 WEEPING CHERRY DRIVE,,ROCKVILLE,MD,20850
"ALLAN MYERS MD, INC.",PO BOX 278,,FALLSTON,MD,21047-0278
"ALLAN S. BERGER, M.D., P.A.",1302 MIDWOOD PL,,SILVER SPRING,MD,20910-1645
"ALLBIRDS, INC.",730 MONTGOMERY ST.,,SAN FRANCISCO,CA,94111
"ALLBRAND AUTO SERVICE, INC.",10566 METROPOLITAN AVE,,KENSINGTON,MD,20895-2606
ALLEGIANT PARTNERS INCORPORATED,STE 100,123 SW COLUMBIA ST,BEND,OR,97702-3608
"ALLEN RUSS PHOTOGRAPHY, LLC",3509 FREDERICK PLACE,,KENSINGTON,MD,20895
"ALLENTUCK LANDSCAPING, INC.",13711 TRAVILAH RD,,ROCKVILLE,MD,20850-3532
ALLERGY AND ASTHMA CLINIC OF MARYLAND LL,8630 FENTON ST STE 522,,SILVER SPRING,MD,20910
"ALLIANCE FOR MILITARY WOMEN & FAMILIES,",3005 BEAVERWOOD LANE,UPPER MARLBORO,SILVER SPRING,MD,20906
"ALLIANCE STRUCTURAL ENGINEERS, INC.",12355 SUNRISE VALLEY DR,SUITE 220,RESTON,VA,20191-3467
"ALLIANCEBIO, LLC","12154 DARNESTOWN ROAD, SUITE 508",,GAITHERSBURG,MD,20878
"ALLIANT INSURANCE SERVICES, INC.",701 B STREET 6TH FLOOR,,SAN DIEGO,CA,92101
"ALLIED COMPONENT WORKS, LLC",18908 PREMIERE COURT,,GAITHERSBURG,MD,20879
"ALLIED PHARMACEUTICAL SERVICES, INC.",ALLIED PHARMACEUTICAL SERVICES INC,1201 SEVEN LOCKS ROAD SUITE 203,ROCKVILLE,MD,20854
ALLIED REALTY CORPORATION,7605 ARLINGTON RD,,BETHESDA,MD,20814-6219
ALLIS SERVICES LLC,14127 CASTLE BLVD,APT 101,SILVER SPRING,MD,20904
"ALLISON WIN, M.D., L.L.C.",2401 RESEARCH BLVD,SUITE 102,ROCKVILLE,MD,20850
ALLNUTT SERVICES LLC,1310 EDNOR ROAD,,SILVER SPRING,MD,20905
ALLSAINTS USA LIMITED,750 N SAN VICENTE BLVD #1050E,,WEST HOLLYWOOD,CA,90069
"ALLSTATE REFRIGERATION, INC.",8111 PINEY BRANCH RD,,SILVER SPRING,MD,20910-4604
ALLY BANK,P.O. BOX 24770,,NASHVILLE,TN,37202
ALMA HAIR SALON LLC,5026 NICHOLSON LANE,,ROCKVILLE,MD,20852
"ALONSO LANDSCAPING, LLC",301 OLNEY SANDY SPRING RD,,ASHTON,MD,20861
"ALPHA ALLERGY & ASTHMA ASSOCIATES, LLC",2415 MUSGROVE ROAD,SUITE 107,SILVER SPRING,MD,20904
"ALPHA BUSINESS CONSULTANTS, LLC",11528 LAKE POTOMAC DR,,POTOMAC,MD,20854-1223
"ALPHASTRUXURE MONTGOMERY COUNTY, LLC",201 WASHINGTON ST,27TH FL,BOSTON,MA,2108
ALPINE DENTAL AND DENTURE CENTER LLC,9126 ROTHBURY DR,,GAITHERSBURG,MD,20886
"ALPINE SERVICES, INC.",5313 BROOKEVILLE RD,,GAITHERSBURG,MD,20882-1707
"ALSCO, INC.",505 E 200 S,STE 101,SALT LAKE CITY,UT,84102-2053
"ALSIKKAN FARM, LLC",1793 TROTTER COURT,,WELLINGTON,FL,33414
ALTA CONSTRUCTION EQUIPMENT L.L.C.,13211 MERRIMAN RD,,LIVONIA,MI,48150-1826
"ALTA IT SERVICES, LLC","210 SIXTH AVENUE,  STE 3100",,PITTSBURGH,PA,15222
"ALTA REALTY COMPANY, LLC",7550 WISCONSIN AVE,SUITE 1000,BETHESDA,MD,20814
"ALTEO, LLC",11870 GRAND PARK AVE,SUITE 221,ROCKVILLE,MD,20852-3458
"ALTER EGO CREATIVE, INC.",1111 E WEST HWY STE 200,,SILVER SPRING,MD,20910
"ALTERNATIVE SOLUTIONS CENTER, INC.",11110 WHISPERWOOD LANE,,ROCKVILLE,MD,20852
"ALTIMMUNE, INC.",910 CLOPPER RD,201S,GAITHERSBURG,MD,20878
"ALVARADO HAULING, LLC",19701 MUNCASTER RD,,DERWOOD,MD,20855
ALVAREZ AND CAMPOS INC,11423 GEORGIA AVENUE,,WHEATON,MD,20902
ALVORD AND ALVORD LLC A/K/A/ ALVORD AND,"5335 WISCONSIN AVENUE, N.W.",SUITE 440,WASHINGTON,DC,20015
AMAFHH HOLDINGS II LLC,8403 SONNET CT,,LAUREL,MD,20723
AMALGAMATED CASUALTY INSURANCE COMPANY,7910 WOODMONT AVE,SUITE 925,BETHESDA,MD,20814
"AMANO, INC.",7034 CARROLL AVENUE,,TAKOMA PARK,MD,20912
"AMARANTH DRIVE I, INC.",19544 AMARANTH DR,,GERMANTOWN,MD,20874-1202
"AMAREX CLINICAL RESEARCH, LLC",789 N DIXBORO RD,,ANN ARBOR,MI,48105
"AMATO INDUSTRIES, INC./AMCHLOR.",9120 TALBOT AVE,,SILVER SPRING,MD,20910-1920
"AMAZING ART STUDIO III, INC.",303 CALVIN LANE,,ROCKVILLE,MD,20851
"AMAZING BEAUTY SUPPLIES, L.L.C.","AMAZING BEAUTY SUPPLIES, L.L.C.",330 N STONESTREET AVENUE UNIT F,ROCKVILLE,MD,20850
AMAZON RETAIL LLC,PO BOX 80416,,SEATTLE,WA,98108-0416
AMAZON.COM SERVICES LLC,PO BOX 80416,,SEATTLE,WA,98108-0416
"AMBEKRUPA, LLC",18419 POLYNESIAN LANE,,BOYD,MD,20841
"AMBER HILL PHYSICAL THERAPY, INC.",187 THOMAS JOHNSON DR,SUITE 6,FREDERICK,MD,21702
AMBI ENTERPRISES LLC,"11910 PARKLAWN DRIVE, SUITE P",,ROCKVILLE,MD,20852
"AMBULATORY CARE PHARMACY, INC.",9601 BLACKWELL ROAD,230,ROCKVILLE,MD,20850
"AMBULATORY SURGERY CENTER OF BETHESDA, L",11210 OLD GEORGETOWN RD,,NORTH BETHESDA,MD,20852-3202
"AMCO METAL PRODUCTS, INC.",7901 BEECHCRAFT AVENUE,STE H,GAITHERSBURG,MD,20879
AMDEX CORPORATION,1395 PICCARD DR,STE 200,ROCKVILLE,MD,20850
"AMENTUM SERVICES, INC.",SUITE 200,20501 SENECA MEADOWS PKWY,GERMANTOWN,MD,20876-7016
AMERCO CABINETRY LLC,951 HILL SIDE LAKE TER,,GAITHERSBURG,MD,20878
AMERICA EAGLE CONSTRUCTION CORPORATION,3316 CLARIDGE CT,,WHEATON,MD,20902-2201
"AMERICA TRUST FUNDING-MORTGAGE, BANKERS",5912 HUBBARD DR,,ROCKVILLE,MD,20852
"AMERICA'S CLEANING SERVICES, LLC",13222 RIPPLING BROOK DRIVE,,SILVERSPRING,MD,20906
"AMERICAN BEAUTIFUL FLORIST, INC.",414 HUNGERFORD DR,STE 112,ROCKVILLE,MD,20850-4125
AMERICAN BLIND & SHADE LLC,4938 HAMPDEN LANE,STE 408,BETHESDA,MD,20814
AMERICAN BUILDERS & CONTRACTORS SUPPLY C,PO BOX 52427,,ATLANTA,GA,30355-0427
AMERICAN COLLEGE OF GASTROENTEROLOGY INC,SUITE 100,11333 WOODGLEN DRIVE,NORTH BETHESDA,MD,20852
"AMERICAN COLLEGE OF NURSE-MIDWIVES, INCO",8403 COLESVILLE RD,SUITE 1230,SILVER SPRING,MD,20910
AMERICAN CORE DRILLING & SCANNING INC.,1520 CATON CENTER DR SUITE N-P,,BALTIMORE,MD,21227
"AMERICAN CUSTOM CONTRACTORS, INC.",15728 CRABBS BRANCH WAY,,ROCKVILLE,MD,20855
"AMERICAN DISPOSAL SERVICES OF MARYLAND,",3 WATERWAY SQUARE PLACE STE 110,,THE WOODLANDS,TX,77380
AMERICAN ENERGY RESTAURANT EQUIPMENT INC,7538 FULLERTON CT,,SPRINGFIELD,VA,22153-2829
AMERICAN FAMILY LIFE ASSURANCE COMPANY O,1932 WYNNTON RD,,COLUMBUS,GA,31999-0001
AMERICAN FIDELITY ASSURANCE COMPANY,PO BOX 22845,,OKLAHOMA CITY,OK,73123
"AMERICAN FINGERPRINTING SERVICES, LLC",3 BETHESDA METRO CENTER,STE 700,BETHESDA,MD,20814
"AMERICAN FIREWORKS STANDARDS LABORATORY,","5550 FRIENDSHIP BLVD.,",SUITE 420,CHEVY CHASE,MD,20815
AMERICAN FOOD MART LLC,12401 GEORGIA AVE,,SILVER SPRING,MD,20906
AMERICAN GENE TECHNOLOGIES INTERNATIONAL,9713 KEY WEST AVENUE,,ROCKVILLE,MD,20850
"AMERICAN HISTORY RESEARCH ASSOCIATES, IN",1711 GOLDMINE ROAD,,BROOKVILLE,MD,20833
"AMERICAN KIDNEY FUND, INC.",11921 ROCKVILLE PIKE,SUITE 300,ROCKVILLE,MD,20852-3914
"AMERICAN LANDSCAPING, INC.",15530 PEACH ORCHARD RD,,SILVER SPRING,MD,20905-4348
"AMERICAN LAWN & LANDSCAPE, INC.",6412 DAMASCUS RD,,GAITHERSBURG,MD,20882-2628
AMERICAN MORTGAGE AND INVESTMENT SERVICE,3915 NATIONAL DR.,SUITE 100,BURTONSVILLE,MD,20866
"AMERICAN MULTI-CINEMA, INC.",11500 ASH ST,,LEAWOOD,KS,66211-7804
"AMERICAN NURSES FOUNDATION, INC. A/K/A A",8515 GEORGIA AVE  STE 400,,SILVER SPRING,MD,20910-3492
"AMERICAN ONCOLOGY NETWORK, LLC",14400 METCALF AVENUE,,OVERLAND PARK,KS,66223
"AMERICAN OPTICAL AND CONTACT LENSES, INC",8650 GEORGIA AVE,,SILVER SPRING,MD,20910
"AMERICAN PAVING & STRIPING, LLC",11126 STEPHALEE LANE,,ROCKVILLE,MD,20852
"AMERICAN PLANT FOOD CO., INC.",5272 RIVER RD,,BETHESDA,MD,20816-1405
"AMERICAN PODIATRIC MEDICAL ASSOCIATION,",9312 OLD GEORGETOWN RD,,BETHESDA,MD,20814-1621
"AMERICAN REPROGRAPHICS, INC.",5542 NICHOLSON LANE,,ROCKVILLE,MD,20852
AMERICAN SELF SERVICE STORAGE CORPORATIO,3700 PLYERS MILL RD,,KENSINGTON,MD,20895-2522
"AMERICAN SIGNATURE, INC.",4300 E 5TH AVE,,COLUMBUS,OH,43219
AMERICAN SOCIETY FOR BIOCHEMISTRY AND MO,6120 EXECUTIVE BLVD,SUITE 400,ROCKVILLE,MD,20852-4905
AMERICAN TOWERS LLC,PO BOX 723597,,ATLANTA,GA,31139-0597
"AMERICAN TYPE CULTURE COLLECTION, INC. A",10801 UNIVERSITY BOULEVARD,,MANASSAS,VA,20110-2204
AMERICAN UNITED LIFE INSURANCE COMPANY,P.O. BOX 368,,INDIANAPOLIS,IN,46206-0368
"AMERICAN URO-GYNECOLOGIC SOCIETY, INC. A",9466 GEORGIA AVE,PMB 2064,SILVER SPRING,MD,20910
"AMERICANA CENTRE CONDOMINIUM, INC.",118 MONROE STREET,#106,ROCKVILLE,MD,20850
"AMERICANA GROCERY OF MD., INC.",8539 PINEY BRANCH RD,,SILVER SPRING,MD,20901-3920
AMERITEL COMMUNICATIONS CORPORATION,"7361 CALHOUN PLACE, SUITE 100",,ROCKVILLE,MD,20855
"AMERIWELL CHIROPRACTIC, PC",STE 320,7505 NEW HAMPSHIRE AVE,TAKOMA PARK,MD,20912
AMES TOOLS CORPORATION,1327 NORTHBROOK PKWY SUITE 400,SUITE 400,SUWANEE,GA,30024
"AMETRINE, INC.",12168 NEBEL STREET,,ROCKVILLE,MD,20852
"AMFOR AUTOMOTIVE, INC.",2632 PITTMAN DR,,SILVER SPRING,MD,20910-1817
"AMI CARDIAC MONITORING, LLC",1803 RESEARCH BLVD.,SUITE 600,ROCKVILLE,MD,20850
AMIA CORPORATION,8204 BRINK ROAD,,LAYTONSVILLE,MD,20882
"AMICUS GREEN BUILDING CENTER, LLC",4080A HOWARD AVENUE,,KENSINGTON,MD,20895-2465
AMINA THAI CORPORATION,5065 NICHOLSON LANE,,ROCKVILLE,MD,20852
"AMIR SARKARZADEH, PC",13215 EXECUTIVE PARK TER,,GERMANTOWN,MD,20874-2647
"AMIT K. RAJVANSHI, MD, P.C.",121 CONGRESSIONAL LANE,SUITE 409,ROCKVILLE,MD,20852-1542
AMITA JHA MD LLC,4905 BRADLEY BLVD,,CHEVY CHASE,MD,20815
AMP CHIMNEYS AND FIREPLACES INC,7727 MAJESTIC WAY,,DERWOOD,MD,20855
AMP LTD,1109 PROSPECT HILL PLACE,,ROCKVILLE,MD,20850
"AMPLIOSPEECH, INC.",6110 EXECUTIVE BLVD SUITE 208,SUITE 208,ROCKVILLE,MD,20852
"AMR U.S., INC.",11821 PARKLAWN DRIVE # 210,,ROCKVILLE,MD,20852
AMRUT INC.,209 SHADOW GLEN CT,,GAITHERSBURG,MD,20878
"AMSG PETROLEUM, INC.",7303 HANOVER PARKWAY,SUITE A,GREENBELT,MD,20770-2029
AMSTAR TRANSMISSION INC.,2608 GARFIELD AVE,,SILVER SPRING,MD,20910
"AMUSEMENTS UNLIMITED, INC.",12354 WILKINS AVE.,,ROCKVILLE,MD,20852-1828
"AMUSEOMATIC, INC.",1844 BROOKFIELD COURT,,FREDERICK,MD,21701
AMY COLLINS LLC,7370 MACARTHUR BLVD,,GLEN ECHO,MD,20812-1200
"AMY LAMB STUDIO, LLC",5711 NEWINGTON ROAD,,BETHESDA,MD,20816-1281
ANALYTICA LLC,3 BETHESDA METRO CENTER,SUITE 820,BETHESDA,MD,20814
"ANBAR, INC.",6729 GOLDSBORO RD,,BETHESDA,MD,20817-5417
"ANCHOR FARMS, INCORPORATED",13073 LUTHERAN CHURCH RD,,LOVETTSVILLE,VA,20180
"ANCIENT CITY PHOTOGRAPHY, LLC",1520 VIVIAN PLACE,,SILVER SPRING,MD,20902-3565
"ANDALMAN & FLYNN, P.C.",8601 GEORGIA AVENUE,STE 206,SILVER SPRING,MD,20910
ANDEAN CONSULTING SOLUTIONS INTERNATIONA,1025 CONNECTICUT AVE,STE 1000,WASHINGTON,DC,20036
"ANDERABI FLOWER HILL, LLC",555 EAST MOUNTAIN ROAD,,KNOXVILLE,MD,21758
"ANDERABI MANAGEMENT, INC.",555 E MOUNTAIN ROAD,,KNOXVILLE,MD,21758
"ANDERSCHAT, JOHN F",1515 HIGHLAND DRIVE,,SILVER SPRING,MD,20910
"ANDERSON & QUINN, LLC",25 WOOD LN,,ROCKVILLE,MD,20850
ANDIRA LLC,13077 WISTERIADR,,GERMANTOWN,MD,20874
"ANDNICK REAL ESTATE, LLC",10743 SYMPHONY PARK DRIVE,,ROCKVILLE,MD,20852
"ANDREA INVESTORS, LLC",11401 PATRIOT LANE,,POTOMAC,MD,20854
"ANDREW GOODMAN REAL ESTATE, LLC",6004 BERKSHIRE DRIVE,,BETHESDA,MD,20814
"ANDREW J. KOMISKE, INC.",6835 OLNEY LAYTONSVILLE RD,,LAYTONSVILLE,MD,20882
"ANDREW J. SORKIN, DMD, LLC",1901 RESEARCH BLVD,,ROCKVILLE,MD,20850-3164
"ANDREW V. PANAGOS, M.D., P.C.",STE 3700,6420 ROCKLEDGE DR,BETHESDA,MD,20817
"ANDREWS & COLE, L.L.C.",7315 WISCONSIN AVENUE SUITE 1225W,,BETHESDA,MD,20814
"ANDREWTECH AUTOMOTIVE SOLUTIONS, INC.",SUITE C,8029 CESSNA,GAITHERSBURG,MD,20879
ANDY AND ANJ BROW ART 23 LLC,11612-A REISTERSTOWN RD,,REISTERSTOWN,MD,21136-5843
"ANETT JOHN, DDS, LLC",5530 WISCONSIN AVENUE,,BETHESDA,MD,20815
"ANGAMUTHU & ASSOCIATES, D.D.S., P.A.",4 PROFESSIONAL DR,#121,GAITHERSBURG,MD,20879
"ANGEL FLOORS, INC.",1807 BLUERIDGE AVE,,SILVER SPRING,MD,20902
"ANGEL RESIDENTIAL CARE PROVIDERS, LLC",9720  BRECKENRIDGE PLACE,,MONTGOMERY VILLAGE,MD,20886
"ANGEL SUERO'S TRANSPORTATION, LIMITED LI",9709 KEY WEST AV,,ROCKVILLE,MD,20850
ANGEL'S WONDERFUL LANDSCAPING LLC,12122 SELFRIDGE ROAD,,SILVER SPRING,MD,20906
"ANGEVINE, JOHN J.",PO BOX 1069,,BELTSVILLE,MD,20704-1069
ANGLO DUTCH CORPORATION,5450 WESTBARD AVE,,BETHESDA,MD,20816-1409
"ANGLO, INC.",8559 FENTON STREET,,SILVER SPRING,MD,20910-4404
"ANI CHEROT, DDS, LLC",50 W. EDMONSTON DRIVE,SUITE 605,ROCKVILLE,MD,20852
"ANIMAL DERMATOLOGY AND BEHAVIOR CLINICS,",15942A SHADE GROVE RD,,MONTGOMERY,MD,20877
"ANIS TEBYANIAN, DMD, M.D., P.A.",18109 PRINCE PHILIP DR,SUITE 245,OLNEY,MD,20832
"ANISSA MAROOF, M.D., L.L.C.",5301 WESTBARD CIR,STE 6,BETHESDA,MD,20816
ANIXTER INC.,2301 PATRIOT BLVD,,GLENVIEW,IL,60026
"ANIYA, ADACHI DENTAL ASSOCIATES, P.A.",20500 SENECA MEADOWS PKWY STE 2200,,GERMANTOWN,MD,20876-7006
ANJU VERMA MD P.C.,19511 DOCTORS DRIVE,,GERMANTOWN,MD,20874
ANN SANDRA INC.,7920 NORFOLK AVE,SUITE 305/320,BETHESDA,MD,20814
"ANNA'S DELI PLUS, INC.",11512 MIDDLEBROOK RD,,GERMANTOWN,MD,20876-2709
"ANNE DECKER ARCHITECTS, LLC",5019 WILSON LANE,SUITE 200,BETHESDA,MD,20814
"ANNE LIKES RED, INC.",10726 LESTER ST,,SILVER SPRING,MD,20902-3782
"ANS AUTO CLINIC, LLC",8033 - B SNOUFFER SCHOOL ROAD,,GAITHERSBURG,MD,20879
"ANSET BETHESDA FITNESS, INC.",9500 SINGLETON DRIVE,,BETHESDA,MD,20817
ANT LIMITED LIABILITY COMPANY,ANT LIMITED LIABILITY COMPANY,5526 NORBECK RD,ROCKVILLE,MD,20853
"ANTECH DIAGNOSTICS, INC.",17620 MOUNT HERRMANN STREET,,FOUNTAIN VALLEY,CA,92708
ANTERIX INC.,3 GARRET MOUNTAIN PLAZA,SUITE #401,WOODLAND PARK,NJ,7424
"ANTEZANA & ANTEZANA, LLC",18310 MONTGOMERY VILLAGE AVENUE,SUITE 600,GAITHERSBURG,MD,20879
"ANTHONY - LEE ASSOCIATES, INC.",7828 BEECHCRAFT AVE,,GAITHERSBURG,MD,20879-1543
"ANTHONY O. ROBERTS, M.D., P.C.",12523 GREY FOX LN,,POTOMAC,MD,20854-1903
"ANTHONY WILDER DESIGN/BUILD, INC.",7913 MACARTHUR BLVD 2ND FLOOR,,CABIN JOHN,MD,20818
ANTHONY'S COAL FIRED PIZZA OF BETHESDA L,200 W. CYPRESS CREEK RD,SUITE 220,FORT LAUDERDALE,FL,33309
"ANTIQUES' N OTHER WONDERS, LLC",19636 ISLANDER STREET,,OLNEY,MD,20832-1021
"ANTOINETTE RAMDATH, DMD, LLC.",10008 COLESVILLE RD STE A,,SILVERSPRING,MD,20901
"ANTOJITOS RESTAURANT, INC.",171 MILL GREEN AVE SUITE 100,,GAITHERSBURG,MD,20878
ANTONIO AUTO REPAIRS LLC,429 EAST DIAMOND AVE,SUITE H,GAITHERSBURG,MD,20877-1223
"ANTY BEAUTY SALON, LLC",4746 68TH AVE,,HYATTSVILLE,MD,20784
ANUNTA TECH INC.,9201 CORPORATE BLVD,SUITE 440,ROCKVILLE,MD,20850-6523
ANVE OLNEY INC,12809 SAFFRON DR,,HERNDON,VA,20171
"AOMARCPR ON-WHEELS, L.L.C.",821 EAST UNIVERSITY BLVD,"SILVER SPRING,  MD 20903",SILVER SPRING,MD,20903-2948
"AOR MANAGEMENT COMPANY OF VIRGINIA, LLC",PO BOX 819068,,DALLAS,TX,75381
"AP BENEFIT ADVISORS, LLC",10 NORTH PARK DRIVE,SUITE 200,HUNT VALLEY,MD,21030
AP MPB TIC 1 LLC,SUITE 1000,11 EAST 44TH STREET,NEW YORK,NY,10017
AP RETAIL LLC,21326 EMERALD DR,,GERMANTOWN,MD,20876-5941
AP WMI TIC LLC,"ONE SOUTH BROAD STREET, SUITE 1900",SUITE 1900,PHILADELPHIA,PA,19107
APAH SNOWDEN LIMITED PARTNERSHIP,2000 HARLEQUIN TER,,SILVER SPRING,MD,20904-5355
APARTMENT & CONDOMINIUM PAINTING SOLUTIO,9710 TRAVILLE GATEWAY DRIVE,SUITE 327,ROCKVILLE,MD,20850-7408
APARTMENT INCOME REIT CORP.,4582 S ULSTER ST,SUITE 1700,DENVER,CO,80237
"APARTMENT RESTORERS, LLC",14660 ROTHGEB DR.,STE 102,ROCKVILLE,MD,20850
"APARTMENT TURNOVERS, INCORPORATED",14660 ROTHGEB DR,,ROCKVILLE,MD,20850-5309
"APEX COMPANIES, LLC",15850 CRABBS BRANCH WAY,,ROCKVILLE,MD,20855-2622
APEX HOME SOLUTIONS LLC,APEX HOME SOLUTIONS LLC,19101 PEACH BLOSSOM COURT,GAITHERSBURG,MD,20874
"APEX OPTICAL COMPANY, INC.",10317-A WESTLAKE DRIVE,,BETHESDA,MD,20817
APEX SECURITY LLC,9710 TRAVILLE GATEWAY DRIVE,NUMBER 383,ROCKVILLE,MD,20850
"APEX SYSTEMS, LLC",26745 MALIBU HILLS ROAD,,CALABASAS,CA,91301
"APFS STAFFING, INC.",125 S. WACKER DR.,SUITE 2700,CHICAGO,IL,60606
API SERVICE LLC,12508 BARBARA RD,,SILVER SPRING,MD,20906
"APLUS EDUCATION, LLC",25347 LYNWOOD FARM CT,,CLARKSBURG,MD,20871
"APOLLO MANAGEMENT HOLDINGS, L.P.",9 WEST 57TH STREET,42ND FLOOR,NEW YORK,NY,10019
APOSTLE GROUP LLC,"APOSTLE GROUP, LLC",PO BOX 34422,BETHESDA,MD,20827
"APOTHO DRUG, INC.",KNOWLES APOTHECARY,10400 CONNECTICUT AVE    STE 100,KENSINGTON,MD,20895
"APPELBAUM EYECARE ASSOCIATES, P.C.",6509 DEMOCRACY BLVD,,BETHESDA,MD,20817-1639
"APPELBAUM HOLDINGS, INC.",1803 RESEARCH BLVD,STE 604,ROCKVILLE,MD,20850
APPLE INC.,1 INFINITE LOOP,,CUPERTINO,CA,95014-2083
"APPLE MONTESSORI SCHOOL, INC.",7210 HIDDEN CREEK ROAD,,BETHESDA,MD,20817-4632
"APPLE NINE HOSPITALITY OWNERSHIP, INC.",814 E MAIN ST,,RICHMOND,VA,23219-3306
"APPLEMILL, INC.",9318 GAITHER ROAD,SUITE 260,GAITHERSBURG,MD,20877
"APPLIANCE WAREHOUSE OF AMERICA, INC.",PO BOX 460049,,HOUSTON,TX,77056
APPLIED RESEARCH LLC,13619 VALLEY OAK CIRCLE,,ROCKVILLE,MD,20850
"APPSENTIAL, LLC",20251 CENTURY BLVD SUITE 300,,GERMANTOWN,MD,20874
"APQ BETHESDA MD, LLC","AB WELLCO,NEW YORK SUPPORT CENTER","149 FIFTH AVENUE,3RD FLOOR",NEWYORK,NY,10010
"APQ CHEVY CHASE MD, LLC","5310 WESTERN AVENUE, SUITE C",,CHEVY CHASE,MD,20815
"APQ WILDWOOD MD, LLC","AB WELLCO,NEW YORK SUPPORT CENTER","149 FIFTH AVENUE,3RD FLOOR",NEW YORK,NY,10010
"APRIL SMILES DDS, LLC",15453 INDIANOLA DR,,ROCKVILLE,MD,20855
"APRIO, LLP",2002 SUMMIT BOULEVARD,SUITE 120,ATLANTA,GA,30319
"AQUAS, INCORPORATED","10400 CONNECTICUT AV, STE 310",,KENSINGTON,MD,20895
"AQUATIC THAI, INC.",1950 OLD GALLOWS RD,SUITE 440,VIENNA,VA,22182-3990
"AR AESTHETICS, LLC",1604 FARRAGUT AVE,,ROCKVILLE,MD,20851
"AR FINANCIAL CONSULTING, LLC",12651 ENGLISH ORCHARD CT.,,SILVER SPRING,MD,20906
ARADA INTERNATIONAL FOOD CORPORATION,6844 NEW HAMPSHIRE AVE,,TAKOMA PARK,MD,20912-4817
"ARAMARK SERVICES, INC.",PO BOX 7537,,PHILADELPHIA,PA,19101-7548
"ARAS JEWELERS, INCORPORATED",1522 ROCKVILLE PIKE,,ROCKVILLE,MD,20852-1602
"ARAS LANDSCAPING, LLC",11501 CLOPPER ROAD,,GAITHERSBURG,MD,20878
ARASP MIRHAKKAK-BIPARVA DENTAL CARE P.C.,941B RUSSELL AVE,SUITE B,GAITHERSBURG,MD,20879-3254
"ARATA EXPOSITIONS, INC.",15928 TOURNAMENT DR,,GAITHERSBURG,MD,20877-1406
ARBAIZA FOOD GROUP INC.,2 EAST DIAMOND AVE,,GAITHERSBURG,MD,20877
ARBOR CREST LLC,1320 OLD CHAIN BRIDGE ROAD,SUITE 270,MCLEAN,VA,22101
"ARBOR LANDSCAPERS, INC.",2214 SPENCERVILLE RD,,SPENCERVILLE,MD,20868
"ARC DOCUMENT SOLUTIONS, LLC",PO BOX 460,,BRASELTON,GA,30517
ARC PRINTING AND GRAPHICS INC.,200 E DIAMOND AVE,,GAITHERSBURG,MD,20877-5012
ARC SERVICES A LLC,ARC SERVICES A LLC,189 KENTLANDS BLVD STE 200,GAITHERSBURG,MD,20878
"ARCELLX, INC.",25 WEST WATKINS MILL ROAD SUITE A,SUITE A,GAITHERSBURG,MD,20878
ARCH TELECOM INC.,575 UNDERHILL BLVD,STE 211,SYOSSET,NY,11791
"ARCHANA M. JOHNSON, DDS, PC",6219 HEATHER GLEN WAY,,CLARKSVILLE,MD,21029
ARCHITECTS COLLABORATIVE INCORPORATED,9400 OLD GEORGETOWN ROD,,BETHESDA,MD,20817
"ARCHITECTURAL CERAMICS OF BETHESDA, LLC",1803 RESEARCH BLVD SUITE 402,,ROCKVILLE,MD,20850
"ARCHITECTURAL CERAMICS, INC.",1803 RESEARCH BLVD SUITE 402,,ROCKVILLE,MD,20850
"ARCHITECTURAL DESIGN SERVICES, INC.",945-B RUSSELL AVENUE,,GAITHERSBURG,MD,20879
"ARCHITECTURAL ROLL FORMERS, INC.",27229 RIDGE ROAD,,DAMASCUS,MD,20872
"ARCHITECTURAL SUPPORT GROUP, LLC.",3423 OLNEY LAYTONSVILLE ROAD,SUITE 7B,OLNEY,MD,20832
"ARCOR, INC.",ACAJUTLA RESTAURANT,18554 WOODFIELD RD,GAITHERSBURG,MD,20879-4709
"ARCTIC HVAC SERVICES, INC.",1819 FRANWALL AVE,,SILVER SPRING,MD,20902-2916
ARCTIC SLOPE REGIONAL CORPORATION,3900 C STREET STE 1000,,ANCHORAGE,AK,99503
"ARDEN COURTS OF KENSINGTON MD, LLC",5TH FLOOR,PO BOX 10086,TOLEDO,OH,43699-0086
"ARDEN COURTS OF POTOMAC MD, LLC",5TH FLOOR,PO BOX 10086,TOLEDO,OH,43699-0086
"ARDEN COURTS OF SILVER SPRING MD, LLC",P O BOX 10086,5TH FLOOR,TOLEDO,OH,43699-0086
"ARDENT COMPANY, LLC",PO BOX 879,,MCLEAN,VA,22101-0879
"ARE-15020 SHADY GROVE, LLC",15020 SHADY GROVE ROAD SUITE 500,,ROCKVILLE,MD,20850
"AREA WIDE MARKET RESEARCH, INC.",16017 COMPRINT CIRCLE,,GAITHERSBURG,MD,20877-1319
"AREN, LLC",186 HALPINE ROAD,,ROCKVILLE,MD,20852
"ARENA GRAPHICS, INC.",8111 B CESSNA AVENUE,,GAITHERSBURG,MD,20879
"ARENA PRODUCTIONS, INC.",11504 BROAD GREEN DR,,POTOMAC,MD,20854
"ARENA TECHNICAL RESOURCES, LLC",104 S WASHINGTON ST,,ROCKVILLE,MD,20850-2318
"ARESTI, INC.",1071 ROCKVILLE PIKE,,ROCKVILLE,MD,20852
"ARETE ADVISORS, LLC",4800 T REX AVE - STE 350,,BOCA RATON,FL,33431
"ARGAN, INC.",ONE CHURCH STREET,SUITE 201,ROCKVILLE,MD,20850-4195
ARGOR BUSINESS SOLUTIONS LLC,"12510 PROSPERITY DRIVE,SUITE 140",SUITE 140,SILVER SPRING,MD,20904-1988
"ARGOS OPTICAL, LLC",15920 SHADY GROVE RD,,GAITHERSBURG,MD,20877-1315
"ARGOS VISION CENTER, LLC","ARGOS VISION CENTER, LLC",15920 SHADY GROVE ROAD,GAITHERSBURG,MD,20877
"ARGYLE LAND COMPANY, INCORPORATED",14600 ARGYLE CLUB ROAD,,SILVER SPRING,MD,20906-1999
"ARHAUS, LLC",51 E HINES HILL RD,,BOSTON HEIGHTS,OH,44236-1151
ARI-NEH INCORPORATED,7028 WISCONSIN AVE,,BETHESDA,MD,20815
ARIAS COSMETIC SALES LLC,1105 SPRING ST. STE H,,SILVER SPRING,MD,20910
"ARIES PROFESSIONAL SERVICES, LLC",6 MCDONALD CHAPEL CT,,GAITHERSBURG,MD,20878
"ARKIN & LEARY, P.C.",2200 RESEARCH BLVD,,ROCKVILLE,MD,20850-3289
ARMEN LOCK LLC,7622 AIRPARK RD,,GAITHERSBURG,MD,20879
ARMIN DENTAL OF RIVERDALE LLC,7307 BALTIMORE AVE,SUITE 114,COLLEGE PARK,MD,20740
"ARMSTRONG, DONOHUE, CEPPOS, VAUGHAN & RH",204 MONROE ST STE 101,,ROCKVILLE,MD,20850
"ARNOLD'S CORNER HOLDINGS, LLC",9172 WILLOW WALK,,ESTERO,FL,34135-8140
"AROMETRIX, INC.","11900 PARKLAWN DRIVE, SUITE 203",,ROCKVILLE,MD,20852-2669
ARP SCIENCES LLC,PO BOX 10008,,ROCKVILLE,MD,20849-0008
ARQ GC & DEVELOPMENT LLC,ARQ GC & DEVELOPMENT LLC,13109 BUSHWOOD WAY,POTOMAC,MD,20854
"ARQISOFT, LLC",14914 BRADWILL CT,,ROCKVILLE,MD,20850
"ARRAYSTAR, INC.",9430 KEY WEST AVE,STE 128,ROCKVILLE,MD,20850
"ARROYO'S FAMILY DENTAL, L.L.C",610 VALLEY BROOK DR,,SILVER SPRING,MD,20904-2954
ART GALAXY INC.,19725 GERMANTOWN ROAD,SUITE C,GERMANTOWN,MD,20874
"ART OF FIRE, INC.",7901 HAWKINS CREAMERY ROAD,,GAITHERSBURG,MD,20882-3507
"ARTEMIS REAL ESTATE PARTNERS, LLC",5404 WISCONSIN AVENUE,SUITE 1150,CHEVY CHASE,MD,20815
ARTEMIS WAX FALLSGROVE LLC,"494 BRIDGEPORT AVE. STE.101, #392",,SHELTON,CT,6484
ARTEMIS WAX ROCKVILLE LLC,"494 BRIDGEPORT AVE. STE.101, #392",,SHELTON,CT,6484
"ARTEMIS, INC.",4715 CRESCENT STREET,,BETHESDA,MD,20816-1720
ARTERA CORPORATION,4800 HAMPDEN LANE,SUITE 320,BETHESDA,MD,20814
"ARTERIX PEST CONTROL, LLC","ARTERIX PEST CONTROL, LLC","14118 FLINT ROCK ROAD, #1261",ROCKVILLE,MD,20853
ARTERY CAPITAL GROUP LLC,STE 600,7201 WISCONSIN AVE,BETHESDA,MD,20814-4810
"ARTHRITIS AND RHEUMATISM ASSOCIATES, P.C",2730 UNIVERSITY BLVD W    STE 708,,WHEATON,MD,20902-5904
"ARTIGA PHOTOGRAPHY, LLC",4906 AURORA DR,,KENSINGTON,MD,20895-1201
"ARTISAN DENTAL OF CHEVY CHASE, LLC",5530 WISCONSIN AVE,#712,CHEVY CHASE,MD,20815
"ARTISTS CIRCLE, LTD.",13501 TRAVILAH ROAD,,N POTOMAC,MD,20878
"ARTITECH, INC.",350A CHRISTOPHER AVE,,GAITHERSBURG,MD,20879-3660
"ARTURO H. HERNANDEZ, P.C.",8607 SECOND AVENUE,SUITE 507,SILVER SPRING,MD,20910
"ARUDIA, LLC",8004 GLENDALE ROAD,,CHEVY CHASE,MD,20815
"ARUNA S NATHAN, M.D., P.A.",6816 MARBURY ROAD,,BETHESDA,MD,20817
"ARYA PRODUCTIONS, LLC",14216 BEAR CREEK DR,,BOYDS,MD,20841
"AS IT SHOULD BE CABINETRY & BUILDERS, LL",4219 A HOWARD AVE,,KENSINGTON,MD,20895-2497
"ASADO - MARYLAND, INC.",1331 G ROCKVILLE PIKE,,ROCKVILLE,MD,20852
"ASAHI FUSION, INC.",6937 ARLINGTON BLVD,,BETHESDA,MD,20814
"ASAP ROOFING & EXTERIORS, INC.",1016 7 TH ST SE,,WASHINGTON,DC,20003-3528
"ASARION PROPERTIES, LLC",300 MANSFIELD RD,,SILVER SPRING,MD,20910
ASB CAPITAL MANAGEMENT LLC,7501 WISCONSIN AVE,SUITE 1300 W,BETHESDA,MD,20814
"ASC ORTHO MANAGEMENT COMPANY, LLC",STE 506,10215 FERNWOOD RD,BETHESDA,MD,20817-1106
"ASC TICKET CO., LLC",408 MAIN ST,,GAITHERSBURG,MD,20878-5541
"ASCENDANT PROGRAM SERVICES, LLC",5808 NAMAKAGAN RD,,BETHESDA,MD,20816-2346
ASCENTIUM CAPITAL LLC,1611 N INTERSTATE 35E   STE 428,,CARROLLTON,TX,75006-8616
ASCLEPIUS SOLUTIONS INC.,3510 RAYMOOR RD,,KENSINGTON,MD,20895
"ASE DENTAL GROUP, P.A.",10301 GEORGIA AVE   STE 207,,SILVER SPRING,MD,20902-5020
"ASGHAR KAZEMIFAR, D.D.S., PC.",6339 EXECUTIVE BLVD,,ROCKVILLE,MD,20852
ASHBRE HOME CARE LLC,SUITE 201,121 CONGRESSIONAL LANE,ROCKVILLE,MD,20852
ASHEIR MANOR LLC,19230 MATENY HILL RD,,GERMANTOWN,MD,20874-1806
ASHLEY FLOORING CONTRACTOR LLC,13919 PARKLAND DR,,ROCKVILLE,MD,20852
"ASHLEY SEALS, DDS, MS, LLC",8455 COLESVILLE ROAD,SUITE 820,SILVER SPRING,MD,20910
ASHTON DEVELOPMENT CORPORATION,146 CRYSTAL SPRING DRIVE,,ASHTON,MD,20861
"ASHTON MANOR ENVIRONMENTAL, LLC",PO BOX 428,,ASHTON,MD,20861
"ASHTON PAINT AND HARDWARE, INC.",500 OLNEY SANDY SPRING ROAD,,SANDY SPRING,MD,20860
"ASHTON SPA NAILS, LLC",9 OLNEY- SANDY SPRING RD,,ASHTON,MD,20861
ASI ES MI TIERRA LLC,2559 ENNALLS AVE,,WHEATON,MD,20902
"ASIA 2, INC.",12937 WISTERIA DR,,GERMANTOWN,MD,20874-2654
ASIA BUFFET INC.,8661 COLESVILLE RD,,SILVER SPRING,MD,20910-3924
"ASIA CAFE 3, INC.",18301 LEAMAN FARM RD,,GERMANTOWN,MD,20874
ASIAN BAKERY INC,900 HOLLYWOOD AVE,,SILVER SPRING,MD,20904-3035
"ASM, LLC",7324 WESTMORE RD,,ROCKVILLE,MD,20850-1260
"ASNER, JUDITH (MSW,BCD)",10613 MUIRFIELD DR,,POTOMAC,MD,20854-4080
"ASPEN HILL FLORIST, INC.",3833 ASPEN HILL RD,,SILVER SPRING,MD,20906-2905
"ASPEN HILL IMPLANT AND FAMILY DENTISTRY,",4110 ASPEN HILL RD,,ROCKVILLE,MD,20853-2853
"ASPEN HILL OPTOMETRY, LLC",8614 WESTWOOD CENTER DRIVE,9TH FLOOR,VIENNA,VA,22182
ASPEN HILL PEDIATRICS LLC,3041 BEL PRE RD,STE 508,SILVER SPRING,MD,20906
ASPEN HILL PHYSICAL THERAPY LLC,3041 BEL PRE RD,,ASPEN HILL,MD,20906-2407
"ASPEN HILL SERVICES, INC.",7303 HANOVER PARKWAY,,GREENBELT,MD,20770
"ASPEN HILL SMILES, PA",STE 310,4110 ASPEN HILL RD,ROCKVILLE,MD,20853-2853
"ASPEN LANDSCAPE CONTRACTORS, INC.",PO BOX 545,,SPENCERVILLE,MD,20868
"ASPEN SERVICES, LLC",13206 MAGELLAN AVE,,ROCKVILLE,MD,20853-3046
ASPIRE MEDICAL LLC,9700 MONTAUK AVE,,BETHESDA,MD,20817
"ASPIRE PHYSICAL THERAPY & WELLNESS, LLC",11013 LARKMEADE LANE,,POTOMAC,MD,20854
"ASPLUNDH TREE EXPERT, LLC",708 BLAIR MILL ROAD,,WILLOW GROVE,PA,19090
"ASRC FEDERAL HIGHLAND TECHNOLOGY, INC.",7000 MUIRKIRK MEADOWS DR,TAX DEPARTMENT,BELTSVILLE,MD,20705-6350
ASRC FEDERAL HOLDING COMPANY LLC,"11091 SUNSET HILLS RD, STE 800",,RESTON,VA,20190
"ASSET PERFORMANCE NETWORKS, LLC",3 BETHESDA METRO CENTER,STE 850,BETHESDA,MD,20814
"ASSET STRATEGIES INTERNATIONAL, INC.",1700 ROCKVILLE PIKE STE 400,,ROCKVILLE,MD,20852-1631
"ASSISTED LIVING OF POTOMAC, LLC",12620 GREENBRIAR ROAD,,POTOMAC,MD,20854
ASSISTED LIVING OF ROCKVILLE II INC.,13700 PARKLAND DR,,ROCKVILLE,MD,20853-2741
ASSISTED LIVING OF ROCKVILLE III INC.,4414 RENN ST,,ROCKVILLE,MD,20853-2745
"ASSISTED LIVING OF ROCKVILLE, LLC",4110 HEATHFIELD RD,,ROCKVILLE,MD,20853
"ASSOCIATED INSURANCE MANAGEMENT, LLC",SUITE 300,1300 SPRING STREET,SILVER SPRING,MD,20910
ASSOCIATED PROFESSIONAL REHABILITATION S,PO BOX 500,,BROOKEVILLE,MD,20833-0500
"ASSOCIATES IN CARDIOLOGY, P.A.",2900 LINDEN LANE,SUITE 200,SILVER SPRING,MD,20910
"ASSOCIATES IN FAMILY PRACTICE, P.A.",STE 212,12210 PLUM ORCHARD DRIVE,SILVER SPRING,MD,20904
"ASSOCIATION FOR FINANCIAL PROFESSIONALS,","4520 EAST-WEST HIGHWAY, SUITE 800",,BETHESDA,MD,20814
ASSOCIATION OF JEWISH AGING SERVICES INC,6101 MONTROSE ROAD,SUITE 207,ROCKVILLE,MD,20852
"ASTELLAS PHARMA GLOBAL DEVELOPMENT, INC.",1 ASTELLAS WAY,,NORTHBROOK,IL,60062-6111
"ASTELLAS PHARMA US, INC.",1 ASTELLAS WAY,,NORTHBROOK,IL,60062
ASTOR & SANDERS CORPORATION,1749 OLD MEADOW ROAD,STE 300,MCLEAN,VA,22102
ASTRAZENECA PHARMACEUTICALS LP,1 MEDIMMUNE WAY,,GAITHERSBURG,MD,20878-2204
ASTROLINK INTERNATIONAL LLC,"BUILDING 100, RM M7023",PO BOX 61511,KING OF PRUSSIA,PA,19406-0911
ASWAN FURNITURE CORP.,6824-A NEW HAMPSHIRE AVE.,,TAKOMA PARK,MD,20912
"AT AUTOMOTIVE, INC.",3831G PLYERS MILL RD,,KENSINGTON,MD,20895-2030
"AT HOME CARE, INC.",15304 SPENCERVILLE COURT #101,,BURTONVILLE,MD,20866
AT HOME STORES LLC,9000 CYPRESS WATERS BLVD,,DALLAS,TX,75019
AT&T CORPORATION,ATTN: PROPERTY TAX DEPARTMENT,"1010 PINE, 9E-L-01",ST LOUIS,MO,63101
"ATA AEROSPACE, LLC",7474 GREENWAY CENTER DRIVE,SUITE 500,GREENBELT,MD,20770
"ATAM, ASUGMAN",751 ROCKVILLE PIKE #10A,,"ROCKVILLE,",MD,20852-1142
ATC IRIS I LLC,PO BOX 723597,,ATLANTA,GA,31139
ATC SEQUOIA LLC,P.O.BOX 723597,,ATLANTA,GA,31139
"ATCC CELL SYSTEMS, INC.",10801 UNIVERSITY BLVD,,MANASSAS,VA,20110-2204
"ATCO, INC.",15924 DERWOOD ROAD,,ROCKVILLE,MD,20855
"ATD LANDSCAPING, LLC",17141 OLD BALTIMORE ROAD,,OLNEY,MD,20832
"ATHAVALE, LYSTAD & ASSOCIATES, INC.",SUITE # 160,,BETHESDA,MD,20817
ATHENA CONSULTING LLC,5000 THAYER CENTER STE C,,OAKLAND,MD,21550
ATHENA INFONOMICS LLC,5402 HUNTINGTON PKWY,,BETHESDA,MD,20814
ATHLETA LLC,PO BOX 27809,,ALBUQUERQUE,NM,87125-7809
"ATHLETES FOR HOPE, INC.",STE 1320,2 BETHESDA METRO CTR,BETHESDA,MD,20814-6319
"ATKINS WOODWORKING, LLC",27635 RIDGE ROAD,,DAMASCUS,MD,20872
"ATLANTA RESTAURANT PARTNERS, LLC",1760 PEACHTREE ST,#200,ATLANTA,GA,30309
"ATLANTECH ONLINE, INC",PROPERTY TAX DEPARTMENT,"1010 WAYNE AVENUE, SUITE 630",SILVER SPRING,MD,20910
"ATLANTECH ONLINE, INC.",PROPERTY TAX DEPARTMENT,"1010 WAYNE AVENUE, SUITE 630",SILVER SPRING,MD,20910
"ATLANTIC BINGO SUPPLY, LLC",1700 MIDWAY RD,,ODENTON,MD,21113-1128
"ATLANTIC DEVELOPMENT, LLC",6860 OLNEY-LAYTONSVILLE ROAD,,LAYTONSVILLE,MD,20882
ATLANTIC ELECTRIC SUPPLY CORP.,3726 10TH STREET NE,,WASHINGTON,DC,20017
ATLANTIC FINANCE AND CREDIT LLC,4601,HALLET PL,ROCKVILLE,MD,20853
"ATLANTIC GUNS, INC.",15813 FREDERICK ROAD,,ROCKVILLE,MD,20855
"ATLANTIC HEARING CENTERS, INC.",10400 CONNECTICUT AVE   STE 510,,KENSINGTON,MD,20895-3944
ATLANTIC MACHINERY INC.,2628 GARFIELD AVE,,SILVER SPRING,MD,20910-1811
ATLANTIC PHYSICAL THERAPY AND REHAB CENT,13975 CONNECTICUT AVE,STE 300,SILVER SPRING,MD,20906
"ATLANTIDA BUILDERS, INC.",7628 AIRPARK RD,,GAITHERSBURG,MD,20879
ATLAS CLEANERS INC.,8517 ATLAS DR,,GAITHERSBURG,MD,20877
"ATLAS FAMILY CHIROPRACTIC, P.C.",19725-E GERMANTOWN ROAD,,GERMANTOWN,MD,20874
ATLAS SERVICE CENTER INC.,8533 ATLAS DR,,GAITHERSBURG,MD,20877
ATLAS TELEPROMPTING LLC,846 QUINCE ORCHARD BLVD,APT 201,GAITHERSBURG,MD,20878
"ATM NATIONAL, LLC",1235 NORTH LOOP WEST,SUITE #205,HOUSTON,TX,77008
ATM SERVICES CORPORATION,P.O. BOX 34,,SPENCERVILLE,MD,20868-0034
"ATMOSPHERE, INC.",8801 MONARD DR,,SILVER SPRING,MD,20910-1816
"ATOS IT SOLUTIONS AND SERVICES, INC.",PO BOX 460189,DEPT 907,HOUSTON,TX,77056
"ATTMAN'S DELICATESSEN CABIN JOHN, LLC",8 RIVER OAKS CIRCLE,,BALTIMORE,MD,21208
"ATTRONICA COMPUTERS, INC.",15867 GAITHER DR,,GAITHERSBURG,MD,20877-1403
"ATU TRAINING AND EDUCATION CENTER, INC.",10000 NEW HAMPSHIRE AVE N E,,SILVER SPRING,MD,20903
"ATULKUMAR PUROHIT DDS, LLC",801 TOLL HOUSE AVE   BLDG 1,,FREDERICK,MD,21701-4564
AUBERGE RESORTS LLC,1375 ENCLAVE PARKWAY,,HOUSTON,TX,77077
"AUBREY VERDUN, P.C.",8025 GLENGALEN LANE,,CHEVY CHASE,MD,20815
AUBURN BUILDING ASSOCIATES LIMITED PARTN,PO BOX 389,,PALM BEACH,FL,33480
"AUDACE, L.L.C.",11216 TROY ROAD,,ROCKVILLE,MD,20852
"AUDACY WASHINGTON DC, LLC",2400 MARKET ST,4TH FLOOR,PHILADELPHIA,PA,19103
"AUDIO DESCRIPTION ASSOCIATES, LLC",6502 WESTMORELAND AVE,,TAKOMA PARK,MD,20912-4752
"AUDIOLOGY CENTER OF MARYLAND, INC.",501 DELVIEW RD,,VILLAS,NJ,8251
"AUDIOLOGY DISTRIBUTION, LLC",11400 N. JOG ROAD,,PALM BEACH GARDENS,FL,33418
"AUEL, ADAM B",19941 SPURRIER AVE,,POOLESVILLE,MD,20837-2018
"AUGUST SCHELL ENTERPRISES, INC.",51 MONROE ST STE 1802,SUITE 1802,ROCKVILLE,MD,20850-2421
"AUGUSTO ARAUJO, D.M.D., P.A.",12613 GRANITE RIDGE DRIVE,,NORTH POTOMAC,MD,20878
"AULTEC, INC.","7895 CESSNA AVE., STE D",,GAITHERSBURG,MD,20879
"AUMILLER AND SON GENERAL CONTRACTOR, INC",2209 DISTRIBUTION CIR,,SILVER SPRING,MD,20910-1260
AUNTIE ANNE'S FRANCHISOR SPV LLC,PO BOX 802206,,DALLAS,TX,75380-2206
"AURAS DESIGN, INC.",8435 GEORGIA AVE,3RD FLOOR,SILVER SPRING,MD,20910-4430
"AURELIA SALON/SPA, L.L.C.",SUITE B,317 EAST DIAMOND AVENUE,GAITHERSBURG,MD,20877
"AURINIA PHARMA U.S., INC.",77 UPPER ROCK CIRCLE,SUITE 700,ROCKVILLE,MD,20850
"AUROTECH, LLC",6550 ROCK SPRING DRIVE,FLOOR 7,BETHESDA,MD,20817
"AUSSIE NICK SQUASH, LLC",10105 NEW LONDON DR,10105 NEW LONDON DR,POTOMAC,MD,20854-4850
AUSTIN D. DREWYER L.L.C.,4009 SANDY SPRING ROAD,SUITE 201,BURTONSVILLE,MD,20866
"AUTO BODY MANAGEMENT GROUP, LLC",3720 OLD BALTIMORE DR,,OLNEY,MD,20832
AUTO CARE ASSOCIATION,7101 WISCONSIN AVE STE 1300,,BETHESDA,MD,20814
"AUTO COLLISION CRAFTSMEN, INC.",7865 CESSNA AVE,,GAITHERSBURG,MD,20879
"AUTO DENT CARE, INC.",5410 RANDOLPH DR,,ROCKVILLE,MD,20854
"AUTO EMMANUEL TIRES, LLC",100 N. STONESTREET AVE.,STE B,ROCKVILLE,MD,20850
"AUTO ENTERPRISES, LTD.",203 MOUNT VERNON PL,,ROCKVILLE,MD,20852-1116
AUTO GLASS EXPERTS L.L.C.,13 TRUDY WAY,,GAITHERSBURG,MD,20878
"AUTO ITALIA OF MARYLAND, INC.",7200 WESTMORE RD,,ROCKVILLE,MD,20850
"AUTO REPAIR SERVICE, LLC.",638 LOFSTRAND LN,UNIT # K,ROCKVILLE,MD,20850-1357
"AUTO TRADER OF DMV, LLC","AUTO TRADER OF DMV, LLC",4811 CAMELOT ST,ROCKVILLE,MD,20853
"AUTOBODY DIMENSIONS OF BETHESDA, INC.",7559 RICKENBACKER DRIVE,,GAITHERSBURG,MD,20879
"AUTOBODY DIMENSIONS, INC.",7559 RICKENBACKER DR,,GAITHERSBURG,MD,20879-4700
"AUTOCOOL & MM, INC.",3794 HOWARD AVE.,,KENSINGTON,MD,20895
"AUTOEXEC, INC",8031C SNOUFFER SCHOOL RD,,GAITHERSBURG,MD,20879
AUTOLUS INC.,805 KING FARM BOULEVARD,SUITE 550,ROCKVILLE,MD,20850
"AUTOMATA STUDIOS, LTD.",SUITE 230,6925 WILLOW STREET N.W.,WASHINGTON,DC,20012-2000
"AUTOMATED BUSINESS POWER, INC.",8677 GROVEMONT CIRCLE,,GAITHERSBURG,MD,20877
AUTOMATED PRECISION INC.,15000 JOHNS HOPKINS DR.,,ROCKVILLE,MD,20850
AUTOMATED RESOURCE MANAGEMENT ASSOCIATES,8720 GEORGIA AVE,SUITE 302,SILVER SPRING,MD,20910
"AUTOMATED TELLER SOLUTIONS, LLC",PO BOX 301,,KENSINGTON,MD,20895
"AUTOMATIC LAUNDRY SERVICE OF VIRGINIA, I",PO BOX 14740,,RICHMOND,VA,23221
AUTOMOBILE DIAGNOSTIC CENTER INC.,4233 HOWARD AVE,,KENSINGTON,MD,20895
AUTOMOTIVE ACQUISITIONS LLC,8501 MUSCATELLO CT,,GAITHERSBURG,MD,20877
"AUTOMOTIVE SOLUTIONS, LLC",8501 MUSCATELLO COURT,,GAITHERSBURG,MD,20877
"AUTOMOTIVE SUPPORT SERVICES, INC.",15621 AITCHESON LN,,LAUREL,MD,20707-3030
AUTONOMOUS THERAPEUTICS INC,11808 AUTH LANE,,SILVER SPRING,MD,20902
AUTOSCRIBE CORPORATION,12276 SAN JOSE BLVD,SUITE 624,GAITHERSBURG,MD,20078
AUTOSLED  INC,6010 EXECUTIVE BLVD,SUITE 1010,ROCKVILLE,MD,20852-3809
"AUTOTRONICS, INC.",8624 WATERSHED COURT,,GAITHERSBURG,MD,20877
"AUTOWHIZ, INC",11765 SKYLARK RD.,,CLARKSBURG,MD,20871
AUTUMN HEALTH INC.,201 RUSSELL AVENUE,,GAITHERSBURG,MD,20877
AVA MD LLC,655 INDUSTRIAL BLVD.,,SUGAR LAND,TX,77478
"AVAILINK (US), INC.",20251 CENTURY BLVD,SUITE 315,GERMANTOWN,MD,20874
"AVALEH, INC.",11325 SEVEN LOCKS ROAD,,POTOMAC,MD,20854
"AVALO THERAPEUTICS, INC.",540 GAITHER ROAD SUITE 400,,ROCKVILLE,MD,20850
"AVALON CHASE GROVE, INC.","AVALONBAY COMMUNITIES, INC",4040 WILSON BLVD. SUITE 1000,ARLINGTON,VA,22203
AVALON GROSVENOR LLC,"AVALONBAY COMMUNITIES, INC",4040 WILSON BLVD. SUITE 1000,ARLINGTON,VA,22203
"AVALON NAILS,HAIR, LASHES, LLC",63 ORCHARD WAY N,,POTOMAC,MD,20854
"AVALON PORTICO AT SILVER SPRING METRO, L","AVALONBAY COMMUNITIES, INC",4040 WILSON BLVD. SUITE 1000,ARLINGTON,VA,22203
"AVALONBAY TRAVILLE, LLC","AVALONBAY COMMUNITIES, INC",4040 WILSON BLVD. SUITE 1000,ARLINGTON,VA,22203
"AVANT DENTISTRY, LLC",13515 BONNIE DALE DRIVE,,NORTH POTOMAC,MD,20878
"AVANT GARDE SCIENTIFIC, INC.",9217 WOODVALE DR,,DAMASCUS,MD,20872-1061
AVANTGARDE LLC,51 MONROE STREET SUITE 706,,ROCKVILLE,MD,20850-2477
"AVANTI SALON & SPA, INC.",13612 DARNESTOWN RD,,DARNESTOWN,MD,20878-3504
"AVAR CONSULTING, INC.",1395 PICCARD DR,SUITE 200,ROCKVILLE,MD,20850
"AVENDRA, LLC",540 GAITHER ROAD,SUITE 200,ROCKVILLE,MD,20850-6649
"AVENUE WEALTH PARTNERS, LLC",9125 KITTERY LANE,,BETHESDA,MD,20817
AVERY CORP.,15120A SOUTHLAWN LANE,,ROCKVILLE,MD,20850
"AVERY-HESS, INC.",2301 GALLOWS RD,,DUNN LORING,VA,22027-1149
"AVI FOODSYSTEMS, INC.",2590 ELM RD NE,,WARREN,OH,44483-2904
"AVIATION PROCUREMENT SYSTEMS, LLC",211 PERRY PKWY STE 5,,GAITHERSBURG,MD,20877
"AVIATIONMANUALS, LLC",700 KING FARM BLVD SUITE 610,,ROCKVILLE,MD,20850
"AVISON YOUNG - WASHINGTON, D.C., LLC",1 SOUTH WACKER DRIVE,SUITE 3000,CHICAGO,IL,60606
AVTO CORPORATION,427 A EAST DIAMOND AVENUE,,GAITHERSBURG,MD,20877-3066
"AW LANDSCAPES, INC.",16998 OVERHILL ROAD,,ROCKVILLE,MD,20855
"AXELSON, WILLIAMOWSKY, BENDER & FISHMAN,",1401 ROCKVILLE PIKE   STE 650,,ROCKVILLE,MD,20852-1428
"AXIOMINE, LLC",13900 CARLSON FARM DR,,GERMANTOWN,MD,20874
AXIS HEALTH AT OAK MANOR OPCO LLC,3415  GREENCASTLE ROAD,,BURTONSVILLE,MD,20866
"AXLE INFORMATICS, LLC",6116 EXECUTIVE BLVD.,SUITE 400,NORTH BETHESDA,MD,20852
"AYOUB, INC.",10516 METROPOLITAN AVE,,KENSINGTON,MD,20895-2606
AZ1 CONSTRUCTION SERVICES LLC,4217 HIGHWOOD RD,,SILVER SPRING,MD,20906
AZALEA POST OPERATIVE CARE CENTER LLC,20226 TIDEWINDS WAY,,GERMANTOWN,MD,20874
"AZIMI AUTO REPAIR, LLC",19318 WOODFIELD RD,,GAITHERSBURG,MD,20879-4723
"AZIYO BIOLOGICS, INC.",12510 PROSPERITY DRIVE,STE 370,SILVER SPRING,MD,20904
"AZTECA GRILL, LLC",11514-11516 MIDDLEBROOK ROAD,,GERMANTOWNC,MD,20874
"B & C FOOD SERVICE, LLC",9623 LOST KNIFE RD,,GAITHERSBURG,MD,20877
"B & D AUTO PARTS, INC.",9930 MAIN STREET,,DAMASCUS,MD,20872
"B & G GARDENING & LANDSCAPING, INC.",3601 JANET RD,,SILVER SPRING,MD,20906-4353
"B & J ENTERPRISES, LTD.",14670 ROTHGEB DRIVE,,ROCKVILLE,MD,20850-5311
B & J INTERNATIONAL INCORPORATED,843 QUINCE ORCHARD BLVD,"SUITE I ""EYE""",GAITHERSBURG,MD,20878
"B & K AUTOMOTIVE, INC.",108 CRABB AVE,,ROCKVILLE,MD,20850-1612
"B & S IRON WORKS, LLC",161 E WETHERBEE ROAD,SUITE 130,ORLANDO,FL,32824
"B J A QUALITY CARPENTRY, LLC",3526 PEARTREE COURT APT 13,,SILVER SPRING,MD,20906
"B S R S, LLC",17612 BURDETTE LN,,GERMANTOWN,MD,20874-2202
B&B AIR CONDITIONING & HEATING SERVICE C,12324 WILKENS AVENUE,,ROCKVILLE,MD,20852-1828
"B&G REGAL DOMESTICS, INC.",133 ROLLINS AVE,,ROCKVILLE,MD,20852-4040
"B&M CONSULTING GROUP, INC.",10401 GROSVENOR PLACE,925,ROCKVILLE,MD,20852
B&S ASSOCIATES LLC,701 BURNT MILLS CT,,SILVER SPRING,MD,20901
"B. A. HAM, INC.",4604 FLOWER VALLEY DR,,ROCKVILLE,MD,20853
B. C. ZIEGLER AND COMPANY,"790 N WATER STREET, SUITE 2275",,MILWAUKEE,WI,53202
B. F. SAUL COMPANY OF WASHINGTON A/K/A B,7501 WISCONSIN AVE,,BETHESDA,MD,20814-6519
"B. K. LANG CONTRACTING CO., INC.",15721 PAGANO LANE,,DANNESTOWN,MD,20874-3115
"B.B.S.B., INC.",9458 GEORGIA AVE,,SILVER SPRING,MD,20910
"B.M.C. HEATING AIR CONDITIONING, INC.",8956 BROOKVILLE ROAD,,SILVER SPRING,MD,20910
B1 EARTHGROUP LLC,18070 GEORGIA AVENUE,,OLNEY,MD,20832
"B2M, LLC",1099 14TH STREET NW,STE 300,WASHINGTON,DC,20005-3419
"B4U GAITHERSBURG, LLC",2237 MINOR AVE E,,SEATTLE,WA,98102
B9 SEQUOIA GROVE OWNER LLC,701 WESTERN AVENUE,,GLENDALE,CA,91201
B9 SEQUOIA PARKLAWN OWNER LLC,701 WESTERN AVENUE,,GLENDALE,CA,91201
"BA STAR, LLC",9800 HALL RD,,POTOMAC,MD,20854-4349
"BABAR, LLC",10346 CHAMPION WAY,,LAUREL,MD,20723
"BABIOLOGY, LLC",3209 PAULINE DRIVE,,CHEVY CHASE,MD,20815
"BABOONMOON, LLC",8312 HADDON DRIVE,,TAKOMA PARK,MD,20912
"BABY JOY 3D4D ULTRASOUND, LLC",1612 FEATHERWOOD ST,,SILVER SPRING,MD,20904
BACO REALTY CORPORATION,128 KING STREET,SUITE #400,SAN FRANCISCO,CA,94107
"BADAWAY, MUSA",PO BOX 711,,DALLAS,TX,75221
"BADLANDS, LLC",7809 WOODMONT AVE,,BETHESDA,MD,20814-3007
"BAE  CONTRACTOR, LLC",22601 RIDGE ROAD,,GERMANTOWN,MD,20876
BAE SYSTEMS SHARED SERVICES INC.,2941 FAIRVIEW PARK DR.,13TH FLOOR (ACCOUNTING DEPT),FALLS CHURCH,VA,22042
BAE SYSTEMS TECHNOLOGY SOLUTIONS & SERVI,520 GAITHER ROAD,,ROCKVILLE,MD,20850
"BAGELTOWNE, INC.",9749 TRAVILLE GATEWAY DRIVE,,ROCKVILLE,MD,20850
"BAGIO'S CARPENTRY, LLC",3 JAYSTONE CT,,SILVER SPRING,MD,20905-5882
"BAHIA CONSTRUCTION, LLC",18560 OFFICE PARK DR,,ROCKVILLE,MD,20886
"BAHN, CHARLES F",4848 BATTERY LANE STE 102-103,,BETHESDA,MD,20814
"BAINBRIDGE MID-ATLANTIC MANAGEMENT, LLC",12765 W FOREST HILL BLVD,STE 1307,WELLINGTON,FL,33414-4722
"BAINBRIDGE SHADY GROVE APARTMENTS, LLC",12765 FOREST HILL BLVD,1307,WELLINGTON,FL,33414
"BAINBRIDGE ST. ELMO BETHESDA APARTMENTS,",12765 FOREST HILL BLVD,1307,WELLINGTON,FL,33414
"BAIRES KITCHEN, LLC",1603 NORDIC HILL CIRCLE,,SILVER SPRING,MD,20906
BAJRA LLC,22565 MUSCADINE DR,,CLARKSBURG,MD,20871
"BAKER EQUIPMENT AND MATERIALS, LLC A/K/A",900 NORTH GARVER RD,,MONROE,OH,45050
"BAKERY DE FRANCE, INC.",MR. JOHN C. SALAMEH,603 DOVER RD STE 6,ROCKVILLE,MD,20850-1282
"BAKSHI, GITA C",9406 OLD GEORGETOWN ROAD,,BETHESDA,MD,20814-1722
"BALANCE GYM SILVER SPRING, LLC","2401 M STREET, NW",ATTN:  MARK CRICK,WASHINGTON,DC,20037
"BALANCE VETERINARY WELLNESS, LLC",4 W MIDDLE LANE,,ROCKVILLE,MD,20850
"BALANCE, LLC",4719 ROSEDALE AVENUE,,BETHESDA,MD,20814
BALBOA CAPITAL CORPORATION,660 N CENTRAL EXPY,STE 240,PLANO,TX,75074
"BALCHUN CONSTRUCTION, LLC",11841 MARMARY ROAD,,GAITHERSBURG,MD,20878
"BALDINO'S LOCK AND KEY SERVICE, INC.",PO BOX1417,,NEWINGTON,VA,22122
BALDWIN COMPANY SNOW MGMT CORP.,16001 GERMANTOWN RD,,GERMANTOWN,MD,20874
"BALLY CLIFF FARM, LLC",18330 DARNESTOWN ROAD,,POOLESVILLE,MD,20837
BALLYMAHON CORPORATION,6119 TULANE AVE,,GLEN ECHO,MD,20812
"BALTIC CONSTRUCTION, INC.",11917 BARGATE CT,,ROCKVILLE,MD,20852-4116
"BAM'S, LLC",3702 PERRY AVE,,KENSINGTON,MD,20895
"BAMBINOS FAMILY DAYCARE, LLC",13705 WEST OLD BALTIMORE RD.,,BOYDS,MD,20841
"BANANA REPUBLIC, LLC",PO BOX 27809,,ALBUQUERQUE,NM,87125-7809
"BANC OF AMERICA LEASING & CAPITAL, LLC",PO BOX 105578 ST,,ATLANTA,GA,30348
"BANCROFT MECHANICAL CONTRACTORS, INC.",11720 NEBEL STREET,,ROCKVILLE,MD,20852-2506
BANCSTAR MORTGAGE LLC,8120 WOODMONT AVE #830,,BETHESDA,MD,20814
BANDESHA CORPORATION,10594 METROPOLITAN AVE,,KENSINGTON,MD,20895-2606
"BANGLA PLUS ONE, INC.",4208 EVERGREEN LN STE 231,,ANNANDALE,VA,22003
"BANK OF AMERICA, NATIONAL ASSOCIATION",NC1-001-03-80,,CHARLOTTE,NC,28255-0001
BANK OF MONTREAL,790 N WATER ST,,MILWAUKEE,WI,53202-3783
BANK OF THE WEST,1625 W. FOUNTAINHEAD PKWY,MAILSTOP:AZ-FTN-10B-A,TEMPE,AZ,85282
"BANKERS BUSINESS MANAGEMENT SERVICES, IN",8121 GEORGIA AVE,,SILVER SPRING,MD,20910-4933
"BANNEKER VENTURES, LLC",1738 ELTON RD,STE 215,SILVER SPRING,MD,20903
BANNER ASSOCIATES LLC,1692 SAEFERN WAY,,ANNAPOLIS,MD,21401-6529
"BANNER TEAM, LLC",4825 MONTGOMERY LANE,APT 101,BETHESDA,MD,20814
"BANNER'S OF CONGRESSIONAL, LLC",443 NORTH FREDERICK AVENUE,,GAITHERSBURG,MD,20877
"BANNER'S OF MILESTONE, L.L.C.",443 N FREDERICK AVE,,GAITHERSBURG,MD,20877
"BAR RO'D, LLC",46 SHARPSTEAD LANE,,GAITHERSBURG,MD,20878
"BAR-T HOLDING, INC.",18753 N FREDERICK AVE,,GAITHERSBURG,MD,20879-3101
"BAR-T RENTAL, LLC",18753 NORTH FREDERICK AVENUE,SUITE 203,GAITHERSBURG,MD,20879
"BARADIN RESEARCH & TECHNOLOGY, LLC",5 PARK OVERLOOK CT,,BETHESDA,MD,20817
"BARBARA BYERS, M.D., M.P.H., P.C.",5454 WISCONSIN AVE.,STE. 1275,CHEVY CHASE,MD,20815-6901
"BARBARA STRAWSON, LLC",12900 LEWISDALE RD,,CLARKSBURG,MD,20871-9630
BARCLAY APARTMENTS DEVELOPMENT CORPORATI,10400 DETRICK AVENUE,,KENSINGTON,MD,20895-2440
"BARDIZBANIAN, RAFFIE",3774 HOWARD AVE,,KENSINGTON,MD,20895-3349
"BARDO MOVERS, INC.",7650 RICKENBACKER DR,,GAITHERSBURG,MD,20879-4773
"BARDWELL, MARGARET A",9416 KINGSLEY AVE,,BETHESDA,MD,20814
"BARIMILLER, INC.",1209 TAFT STREET,,ROCKVILLE,MD,20850
"BARINTHUS BIOTHERAPEUTICS NORTH AMERICA,","20400 CENTURY BLVD, SUITE 210",,GERMANTOWN,MD,20874
"BARK SOCIAL BETHESDA, LLC",710 S. GLOVER STREET,,BALTIMORE,MD,21224
"BARKAY, INC.",PAUL DAVIS RESTORATION OF SUBURBAN MARYL,8797 SNOUFFER SCHOOL ROAD SUITE G,GAITHERSBURG,MD,20879
"BARMAN ENTERPRISES, LLC",10833 WILLOW RUN COURT,,POTOMAC,MD,20854
"BARNALLEN TECHNOLOGIES, INC.",SUITE 300,1700 ROCKVILLE PIKE,ROCKVILLE,MD,20852
"BARNES & NOBLE BOOKSELLERS, INC.",33 E. 17TH STREET,33 E 17TH STREET,NEW YORK,NY,10003
"BARNHARD ASSOCIATES, LLC",8012 MACARTHUR BLVD,,CABIN JOHN,MD,20818-1608
"BARNSLEY, JAMES M., JR PTR",2211 RANDOLPH ROAD,,WHEATON,MD,20902
BARRA BRAVA PERUVIAN SEAFOOD LLC,15921 FREDERICK RD,,ROCKVILLE,MD,20855-2218
"BARREL AND CROW,LLC",4867 CORDELL AVENUE,,BETHESDA,MD,20814
"BARROW WISE CONSULTING, LLC",1390 PICCARD DRIVE STE. 305,,ROCKVILLE,MD,20850
BARRY & HUANGFU INC,12803 TEABERRY RD,,SILVER SPRING,MD,20906
"BARRY H. HELFAND, P.A.",110 N WASHINGTON ST STE 502,,ROCKVILLE,MD,20850-2044
"BARRY J. COHEN, M.D., P.C.",STE #200,3203 TOWER OAKS BLVD,ROCKVILLE,MD,20852
"BARRY M. LEBOWITZ, O.D., M.P.H., LLC",11908 C. DARNESTOWN ROAD,,NORTH POTOMAC,MD,20878
"BARWOOD MANAGEMENT, LLC",8210 BEECHCRAFT AVE,,GAITHERSURG,MD,20878
"BAS, INC.",14720 SOUTHLAWN LANE,,ROCKVILLE,MD,20850
"BASCHUK ENTERPRISES, LLC",4232 HOWARD AVENUE,,KENSINGTON,MD,20895
"BASCULE FARM, LLC",20800 WHITES FERRY RD,,POOLESVILLE,MD,20837-9412
"BASE 2 TECHNOLOGIES, INC.",15105 GRAVENHURST TER,,NORTH POTOMAC,MD,20878-3420
BASI GAITHERSBURG LLC,2701 KENT AVE,,WEST LAFAYETTE,IN,47906-1350
"BASSETT DIRECT NC, LLC",4501 LANDOVER RD,,GREENSBORO,NC,27407-2709
